{"type": "FeatureCollection", "features": [{"type": "Feature", "properties": {"STATEFP": "06", "COUNTYFP": "027", "COUNTYNS": "01804637", "AFFGEOID": "0500000US06027", "GEOID": "06027", "NAME": "Inyo", "NAMELSAD": "Inyo County", "STUSPS": "CA", "STATE_NAME": "California", "LSAD": "06", "ALAND": 26410783053, "AWATER": 77280938}, "geometry": {"type": "Polygon", "coordinates": [[[-118.775014, 37.463052], [-117.833504044144, 37.4649387662445], [-117.68061, 37.353399], [-117.244917, 37.030244], [-117.166000564031, 36.9712075385903], [-117.000895, 36.847694], [-116.488233, 36.459097], [-116.375875, 36.372562], [-116.093601, 36.155805], [-115.892975, 35.999967], [-115.846113922762, 35.9635526731109], [-115.648032019625, 35.8096292126029], [-115.735891, 35.79362], [-116.277263, 35.793394], [-117.251015, 35.795004], [-117.634283, 35.79726], [-117.924406, 35.798359], [-118.008094, 35.788935], [-118.005489, 35.862699], [-117.980761, 35.867515], [-118.003577, 35.983718], [-118.033611, 36.008944], [-118.127147, 36.279656], [-118.100317, 36.346137], [-118.21482, 36.435036], [-118.239021, 36.523635], [-118.290523, 36.558535], [-118.274624, 36.597334], [-118.366328, 36.691635], [-118.360586, 36.744773], [-118.389758, 36.834466], [-118.360831, 36.887734], [-118.437137, 37.059818], [-118.592661, 37.138147], [-118.654593, 37.141826], [-118.716016, 37.328208], [-118.786736, 37.34338], [-118.775014, 37.463052]]]}}]}