{"type":"FeatureCollection","licence":"Data © OpenStreetMap contributors, ODbL 1.0. http://osm.org/copyright","features":[{"type":"Feature","properties":{"place_id":345876699,"osm_type":"relation","osm_id":162110,"place_rank":8,"category":"boundary","type":"administrative","importance":0.7269665406343921,"addresstype":"state","name":"Delaware","display_name":"Delaware, United States"},"bbox":[-75.7890215,38.4511785,-74.9849355,39.8395147],"geometry":{"type":"Polygon","coordinates":[[[-75.7890215,39.6597918],[-75.7890118,39.6596801],[-75.789011,39.6595392],[-75.7890109,39.6595269],[-75.7889987,39.6583196],[-75.788979,39.6571845],[-75.7889633,39.6564998],[-75.7889473,39.6559053],[-75.7889145,39.6548798],[-75.7889145,39.6548785],[-75.7888961,39.6543736],[-75.7888954,39.6543561],[-75.7888656,39.6535477],[-75.788837,39.6528814],[-75.7887995,39.6521251],[-75.7887599,39.651423],[-75.7887216,39.6508111],[-75.7886629,39.6499653],[-75.7886191,39.6493897],[-75.7885437,39.6484604],[-75.787452,39.6350575],[-75.7871227,39.6309928],[-75.7863677,39.6216267],[-75.7862748,39.6205254],[-75.7851302,39.6064735],[-75.7838282,39.5904793],[-75.7829911,39.5801668],[-75.7829653,39.5798486],[-75.7827993,39.5778031],[-75.7823501,39.572267],[-75.7815527,39.5624373],[-75.7802398,39.5461964],[-75.7792104,39.5334604],[-75.7780239,39.5188379],[-75.777053,39.5068684],[-75.7760328,39.4943283],[-75.7744982,39.4754578],[-75.7733283,39.460934],[-75.7721598,39.4464431],[-75.7709749,39.4318939],[-75.7697944,39.4173793],[-75.7686616,39.4031474],[-75.7673187,39.3865553],[-75.7665914,39.3775578],[-75.7662953,39.3738952],[-75.7651231,39.3593988],[-75.7639462,39.3448135],[-75.7628416,39.3311186],[-75.7616167,39.3159257],[-75.7604372,39.3013845],[-75.7600872,39.2970173],[-75.7600538,39.2966001],[-75.7595146,39.2898545],[-75.7589061,39.2822398],[-75.7581089,39.2722633],[-75.7569537,39.2580957],[-75.7569245,39.2577376],[-75.7559684,39.246011],[-75.7557613,39.2433812],[-75.7534538,39.2143384],[-75.7522964,39.1997671],[-75.7488442,39.1562836],[-75.7476737,39.1434684],[-75.7476425,39.141894],[-75.7465164,39.1273708],[-75.7456365,39.1169368],[-75.745503,39.1151],[-75.745304,39.112668],[-75.745172,39.110931],[-75.7441974,39.0985768],[-75.7430849,39.0841041],[-75.7407125,39.0547832],[-75.7384463,39.0257839],[-75.7372207,39.0112605],[-75.7359816,38.9953946],[-75.73496,38.98231],[-75.7338049,38.9676482],[-75.7326368,38.9532789],[-75.7317835,38.9419116],[-75.731773,38.9417719],[-75.7316191,38.9397206],[-75.7315408,38.9386777],[-75.7302982,38.9242139],[-75.7280032,38.8951617],[-75.7268512,38.8805731],[-75.7256693,38.8660476],[-75.7245213,38.8515281],[-75.7233472,38.8371165],[-75.722755,38.829853],[-75.7222274,38.8225311],[-75.7211393,38.8080304],[-75.7199659,38.7936239],[-75.7187661,38.7790294],[-75.7176012,38.7645175],[-75.7165162,38.7502349],[-75.7152946,38.735497],[-75.7140492,38.7201562],[-75.7129466,38.7066111],[-75.7118743,38.6920663],[-75.7108969,38.677517],[-75.7095859,38.6631071],[-75.7084943,38.6485379],[-75.7074968,38.6354747],[-75.7061872,38.6195032],[-75.7050417,38.6054535],[-75.7038868,38.5904991],[-75.7027696,38.5760304],[-75.7016512,38.5615435],[-75.7015714,38.5605101],[-75.7014934,38.5595703],[-75.700958,38.5531214],[-75.70068,38.5497714],[-75.7004541,38.5470504],[-75.6993371,38.5325637],[-75.6981876,38.5180965],[-75.697058,38.5035714],[-75.6961416,38.4964026],[-75.6955905,38.4891274],[-75.694422,38.4746608],[-75.6936638,38.4600811],[-75.6787013,38.4595448],[-75.6627324,38.4589708],[-75.6480507,38.4584415],[-75.6224573,38.457514],[-75.6018646,38.4567633],[-75.58356,38.4562789],[-75.5718538,38.4559676],[-75.5498616,38.4553795],[-75.5360891,38.4550356],[-75.5357905,38.455028],[-75.5305425,38.4548594],[-75.5093921,38.4542864],[-75.4927848,38.4539785],[-75.4742336,38.4536316],[-75.4543568,38.4532568],[-75.439222,38.452969],[-75.4169184,38.4525414],[-75.3936504,38.4523917],[-75.3739108,38.452261],[-75.3555751,38.4521366],[-75.3412938,38.4520375],[-75.34034,38.4520309],[-75.3314689,38.4519694],[-75.3313447,38.4519685],[-75.3197906,38.4518861],[-75.3129629,38.4518374],[-75.3122133,38.4518319],[-75.3115093,38.4518268],[-75.2895415,38.4516662],[-75.2890883,38.4516629],[-75.277738,38.451577],[-75.2683472,38.451506],[-75.2667545,38.4514939],[-75.2530156,38.4513891],[-75.236048,38.4512565],[-75.2327057,38.4512304],[-75.2321084,38.4512257],[-75.227342,38.4512249],[-75.218495,38.4512234],[-75.2184338,38.4512233],[-75.2050264,38.4512189],[-75.1955171,38.4512157],[-75.1847069,38.4512103],[-75.1770664,38.4512064],[-75.1578071,38.4511936],[-75.1395383,38.4511785],[-75.1373656,38.451181],[-75.1272501,38.4511928],[-75.1236849,38.451197],[-75.121875,38.4511991],[-75.1078754,38.4512134],[-75.1078256,38.4512135],[-75.1002463,38.4512201],[-75.085903,38.4512327],[-75.0697877,38.4512441],[-75.0651999,38.4512468],[-75.0549482,38.4512527],[-75.0503038,38.4512548],[-75.0498889,38.451255],[-75.0492616,38.4512553],[-75.0492346,38.4512717],[-75.0395591,38.4512596],[-74.9852049,38.4512836],[-74.9851723,38.4517298],[-74.9851077,38.4526165],[-74.9851054,38.4550858],[-74.9852578,38.4575521],[-74.9850969,38.4592501],[-74.9850097,38.4609514],[-74.9849959,38.462654],[-74.985056,38.4643559],[-74.9849463,38.4663504],[-74.9849355,38.4682123],[-74.9850855,38.4710202],[-74.9854065,38.4736312],[-74.9855984,38.4800828],[-74.9857716,38.4826776],[-74.985775,38.4845733],[-74.9858697,38.4864677],[-74.9861289,38.4889237],[-74.9865418,38.4913666],[-74.986737,38.4935877],[-74.9870576,38.4957998],[-74.9872818,38.498315],[-74.9873818,38.5011377],[-74.987671,38.5039626],[-74.9877568,38.5067189],[-74.9880724,38.5100436],[-74.9880149,38.5124914],[-74.9880972,38.5147503],[-74.988357,38.5173789],[-74.9887559,38.5198069],[-74.9891542,38.5274412],[-74.9893213,38.5295159],[-74.9891668,38.5313514],[-74.9890981,38.53319],[-74.9891155,38.5350294],[-74.9890494,38.5376373],[-74.9891563,38.5402444],[-74.9897427,38.5461386],[-74.9904647,38.5507009],[-74.9908586,38.55251],[-74.9912878,38.5541367],[-74.9918477,38.5559379],[-74.9924924,38.5577217],[-74.9926236,38.5606381],[-74.9925708,38.5641442],[-74.9926489,38.566536],[-74.9926392,38.568554],[-74.9929226,38.5733437],[-74.9928821,38.5753977],[-74.9929385,38.5772648],[-74.9932411,38.5807563],[-74.9940182,38.5862593],[-74.9942255,38.5893469],[-74.9946427,38.5923632],[-74.9952147,38.5981667],[-74.9952778,38.6020189],[-74.9954191,38.6049011],[-74.9953371,38.6070448],[-74.9953403,38.6087427],[-74.9954171,38.6104397],[-74.995567,38.6121336],[-74.9957902,38.6138225],[-74.9960861,38.6155045],[-74.9965001,38.617363],[-74.9969488,38.6190241],[-74.9974689,38.6206723],[-74.9981301,38.6224862],[-74.9987995,38.624101],[-74.9995381,38.625697],[-74.999955,38.6292895],[-75.0002259,38.6311152],[-75.0006276,38.6331378],[-75.001186,38.6353274],[-75.0011014,38.6379672],[-75.0009254,38.6408605],[-75.000977,38.6440202],[-75.0011261,38.6458754],[-75.0013632,38.6477251],[-75.0014451,38.6490379],[-75.0014607,38.6511265],[-75.0016612,38.6539699],[-75.0016497,38.6560406],[-75.0017619,38.6582978],[-75.0022406,38.6626759],[-75.0025909,38.6666765],[-75.0031262,38.671442],[-75.004192,38.6775863],[-75.0046702,38.6795977],[-75.0052532,38.6815921],[-75.0054999,38.6845072],[-75.0057745,38.6863818],[-75.0060386,38.6888297],[-75.0064182,38.6910777],[-75.0069273,38.6933099],[-75.0076495,38.6958059],[-75.0082262,38.6985245],[-75.008992,38.7013051],[-75.0092645,38.703303],[-75.0096392,38.7052908],[-75.0097641,38.7070455],[-75.0100338,38.7096028],[-75.0099566,38.7116668],[-75.0099883,38.7137315],[-75.0101284,38.7157934],[-75.0103772,38.7178491],[-75.011437,38.7244252],[-75.0118923,38.7264405],[-75.0125056,38.7286106],[-75.0126782,38.729649],[-75.0129988,38.7324729],[-75.0132892,38.7341588],[-75.0136524,38.735836],[-75.0140539,38.7388439],[-75.0145503,38.7412703],[-75.0151432,38.7434906],[-75.015564,38.7460393],[-75.0158959,38.7486357],[-75.0163584,38.7510314],[-75.0166693,38.7546725],[-75.0166326,38.7567273],[-75.0167155,38.7589682],[-75.0170522,38.7621328],[-75.0168593,38.76534],[-75.0169342,38.7695145],[-75.0170786,38.7715893],[-75.0173615,38.7738451],[-75.0177746,38.7760887],[-75.0183682,38.7784999],[-75.0191754,38.7810678],[-75.0195858,38.7827462],[-75.0200695,38.7844127],[-75.0211799,38.7875211],[-75.0166569,38.7911303],[-75.1369618,39.0008138],[-75.1684258,39.055551],[-75.1770484,39.0658355],[-75.2682769,39.1815572],[-75.3461575,39.2705462],[-75.4449147,39.3559219],[-75.4801429,39.3863515],[-75.5604145,39.4556394],[-75.563386,39.4830549],[-75.5589658,39.4957644],[-75.5531983,39.4959451],[-75.5474955,39.4962048],[-75.5431143,39.4965406],[-75.5425725,39.4965822],[-75.5425604,39.4965831],[-75.5421469,39.4966148],[-75.5384379,39.4968848],[-75.5382146,39.4969011],[-75.5377275,39.4969365],[-75.533699,39.4972298],[-75.5279216,39.4980825],[-75.5278545,39.4983231],[-75.5278663,39.4984594],[-75.5278899,39.4987331],[-75.5280139,39.4991157],[-75.5276951,39.499307],[-75.5272523,39.499471],[-75.5272169,39.4997443],[-75.5274472,39.4999493],[-75.5281556,39.5004276],[-75.5285342,39.500715],[-75.5292359,39.5012476],[-75.5293599,39.5016439],[-75.5293953,39.5025868],[-75.5298558,39.5041856],[-75.5301214,39.5046229],[-75.530086,39.5049509],[-75.5300152,39.5104986],[-75.5297672,39.5124252],[-75.5292713,39.5133543],[-75.5286692,39.5140511],[-75.5278545,39.5154857],[-75.5273763,39.5162918],[-75.5271812,39.517011],[-75.5273586,39.5175488],[-75.5279076,39.5181363],[-75.5281202,39.5187374],[-75.528191,39.5195571],[-75.5280316,39.5204588],[-75.5279253,39.5214834],[-75.5277128,39.5220163],[-75.5274649,39.5223578],[-75.5274117,39.522713],[-75.5273409,39.5232185],[-75.5271107,39.5235327],[-75.5270752,39.5238605],[-75.5271992,39.5241338],[-75.5272169,39.5244753],[-75.5271461,39.5250081],[-75.5266856,39.5261966],[-75.5267033,39.5267293],[-75.5267387,39.5270162],[-75.5268273,39.5276309],[-75.5268273,39.5283276],[-75.5266306,39.5298862],[-75.5266502,39.5308274],[-75.526845,39.5317289],[-75.5271992,39.5325075],[-75.5271461,39.5329037],[-75.5270575,39.5340784],[-75.5272523,39.534775],[-75.5278899,39.5356765],[-75.5286692,39.5360862],[-75.5298027,39.5365506],[-75.5309184,39.5368784],[-75.5316947,39.5374296],[-75.5322113,39.5380258],[-75.5331499,39.5394326],[-75.5335927,39.5402384],[-75.5336636,39.5406891],[-75.5336636,39.5412354],[-75.5333093,39.5417544],[-75.5327147,39.5426506],[-75.5301218,39.5454543],[-75.5289204,39.5465832],[-75.5280072,39.5473792],[-75.5268229,39.5483597],[-75.5244507,39.5503581],[-75.5224417,39.5521728],[-75.5209971,39.5535958],[-75.5195814,39.5552268],[-75.5185966,39.556613],[-75.5180301,39.5576433],[-75.5174695,39.5587134],[-75.5169973,39.5596409],[-75.5163949,39.5608151],[-75.5154117,39.5623627],[-75.5149401,39.5631372],[-75.5134813,39.5654242],[-75.5127876,39.5664685],[-75.5115578,39.5679638],[-75.511902,39.5706373],[-75.5122185,39.5730956],[-75.5124463,39.5768457],[-75.512588,39.5777467],[-75.5129068,39.5781562],[-75.5136221,39.5784911],[-75.5140049,39.5790435],[-75.5145539,39.5793438],[-75.5146601,39.579685],[-75.5148195,39.5803403],[-75.5151737,39.5808453],[-75.5155988,39.5809136],[-75.5160416,39.5808317],[-75.516621,39.5811169],[-75.5167854,39.5816507],[-75.5170156,39.5819373],[-75.5184148,39.5827426],[-75.5192826,39.5829064],[-75.5197785,39.5831658],[-75.5212485,39.5831931],[-75.5219392,39.5831931],[-75.5229768,39.5834875],[-75.5249677,39.5840939],[-75.5262605,39.5842441],[-75.5275003,39.5842577],[-75.5279642,39.5845249],[-75.5288109,39.5855271],[-75.5295193,39.5861686],[-75.5302872,39.5867542],[-75.5314674,39.5883524],[-75.5317508,39.5887891],[-75.5322821,39.5890075],[-75.533575,39.5898264],[-75.5351689,39.5909865],[-75.536267,39.5915188],[-75.5372063,39.5920457],[-75.5373119,39.5925969],[-75.537489,39.5932793],[-75.5377193,39.5936751],[-75.5383391,39.5938525],[-75.5393841,39.5940709],[-75.5401279,39.5941391],[-75.5410666,39.5941391],[-75.5415979,39.594221],[-75.5423901,39.5945081],[-75.5429616,39.5949579],[-75.54367,39.5957904],[-75.5444138,39.5965001],[-75.5450691,39.596773],[-75.5463797,39.5971961],[-75.5473361,39.5977283],[-75.547708,39.5980421],[-75.5483633,39.5989565],[-75.549645,39.5996395],[-75.549975,39.6000345],[-75.5505322,39.6006663],[-75.5536607,39.6019024],[-75.5536234,39.6022085],[-75.5542962,39.6038645],[-75.5550438,39.604498],[-75.5555297,39.6048004],[-75.5555671,39.6052036],[-75.5555961,39.6056656],[-75.5561461,39.6061466],[-75.5565016,39.6066867],[-75.5570062,39.6074066],[-75.5573239,39.6081986],[-75.5576188,39.6089438],[-75.5577351,39.6094368],[-75.5577724,39.6099408],[-75.5575482,39.6103871],[-75.5571557,39.6110494],[-75.5569875,39.6117261],[-75.5570249,39.6122156],[-75.55738,39.6128923],[-75.5576229,39.6137274],[-75.5577921,39.6152558],[-75.5578472,39.6161173],[-75.5580902,39.6169523],[-75.5589189,39.6180164],[-75.5592863,39.6191406],[-75.5597212,39.6209298],[-75.5598656,39.6226964],[-75.5598469,39.6249997],[-75.5596787,39.62618],[-75.5592302,39.6285551],[-75.559068,39.6296429],[-75.5588564,39.6299658],[-75.5583705,39.6304696],[-75.5583144,39.6311317],[-75.5579219,39.6316067],[-75.5576416,39.6322112],[-75.5571931,39.6332763],[-75.5568193,39.6338665],[-75.5557727,39.6349459],[-75.5544084,39.6358095],[-75.5531001,39.6365291],[-75.5508201,39.6377237],[-75.5502407,39.6379396],[-75.5496239,39.6376949],[-75.5490633,39.6377237],[-75.5488577,39.6378964],[-75.5486521,39.6383426],[-75.5476055,39.6398394],[-75.5467832,39.6403863],[-75.5458861,39.6412066],[-75.5437742,39.6437971],[-75.5424965,39.6453975],[-75.541625,39.6460852],[-75.5406718,39.6458981],[-75.5389711,39.6463299],[-75.5377189,39.6467328],[-75.5371022,39.6471933],[-75.536392,39.6471357],[-75.5354949,39.6471501],[-75.5351772,39.6473228],[-75.5342614,39.6480279],[-75.5339437,39.6484021],[-75.5335139,39.6484453],[-75.5329719,39.648877],[-75.5316449,39.6501145],[-75.5298508,39.6517837],[-75.5294209,39.6524168],[-75.5288416,39.652978],[-75.5283183,39.6530931],[-75.528094,39.6535248],[-75.5275707,39.653827],[-75.5271969,39.6545896],[-75.5268605,39.6553666],[-75.5271222,39.6556975],[-75.5262998,39.6565752],[-75.525627,39.6570501],[-75.5248794,39.657827],[-75.5240197,39.658791],[-75.5233469,39.6598126],[-75.5227676,39.6606902],[-75.5221695,39.6612082],[-75.5210855,39.6618412],[-75.5194596,39.6631361],[-75.5179831,39.6644453],[-75.5168244,39.6656106],[-75.5154227,39.6677254],[-75.5141145,39.6696819],[-75.5128062,39.6715664],[-75.5122829,39.6733646],[-75.5113623,39.6763874],[-75.5107504,39.6790608],[-75.5108252,39.6798519],[-75.5109186,39.6804273],[-75.5108439,39.6808875],[-75.5100963,39.6829156],[-75.5099125,39.6835792],[-75.5099056,39.6836048],[-75.5096664,39.6844545],[-75.5096851,39.6849004],[-75.509573,39.68526],[-75.5092927,39.6858928],[-75.5092366,39.6862092],[-75.5094795,39.6863099],[-75.5099281,39.6863818],[-75.5101524,39.6867413],[-75.5099064,39.6880352],[-75.5095465,39.6925616],[-75.5096839,39.6931356],[-75.5099609,39.6938029],[-75.5092972,39.6944979],[-75.5084669,39.6958241],[-75.507348,39.6971834],[-75.506789,39.6975651],[-75.5061872,39.6978775],[-75.5047259,39.6982349],[-75.5029117,39.6990412],[-75.5021462,39.6996151],[-75.5014591,39.6998265],[-75.5006936,39.6998869],[-75.5000458,39.6998567],[-75.49935,39.7002593],[-75.499107,39.7006188],[-75.4985464,39.7007195],[-75.497724,39.7007626],[-75.496883,39.7011652],[-75.4967148,39.7014672],[-75.4968457,39.7017116],[-75.4971073,39.7019417],[-75.4969017,39.7020855],[-75.496584,39.7019992],[-75.4962476,39.7017548],[-75.4961289,39.7021176],[-75.4961168,39.7036528],[-75.4957804,39.7043717],[-75.4939675,39.7074774],[-75.4930891,39.7083976],[-75.4921173,39.7093753],[-75.4917061,39.7100797],[-75.4916127,39.7103529],[-75.4918556,39.7105111],[-75.492136,39.7106548],[-75.4920051,39.7109855],[-75.4916379,39.7111499],[-75.4913323,39.7113881],[-75.4909399,39.7119488],[-75.4903231,39.7128545],[-75.4892952,39.713904],[-75.4886636,39.7146558],[-75.4877181,39.7152366],[-75.4868843,39.7157729],[-75.4860846,39.7160368],[-75.4854452,39.7162186],[-75.4848089,39.7162446],[-75.4843239,39.7160605],[-75.4838193,39.7160461],[-75.4834149,39.7159379],[-75.483053,39.7156579],[-75.4830946,39.7147407],[-75.482511,39.7147522],[-75.4822681,39.714551],[-75.4816513,39.714551],[-75.4807356,39.7146947],[-75.4801001,39.7147091],[-75.4797077,39.7145653],[-75.4793339,39.7141772],[-75.4789601,39.7140478],[-75.4788666,39.7142347],[-75.478848,39.7145797],[-75.4787358,39.7149391],[-75.4784809,39.7152914],[-75.4780256,39.7152698],[-75.4776518,39.715356],[-75.4774276,39.7155861],[-75.4771846,39.7157873],[-75.4771659,39.7160605],[-75.4770725,39.716463],[-75.4767735,39.7167074],[-75.4768482,39.7169374],[-75.4769603,39.7174406],[-75.476589,39.7183801],[-75.476437,39.7193525],[-75.4764415,39.720446],[-75.4764081,39.7206129],[-75.4766426,39.7214369],[-75.4766987,39.7223138],[-75.4767735,39.72263],[-75.4769603,39.722745],[-75.4767174,39.72447],[-75.4770725,39.7247575],[-75.4771962,39.7248749],[-75.4772594,39.7250306],[-75.4772026,39.7257192],[-75.4756269,39.7292448],[-75.4754027,39.7313445],[-75.4755026,39.7325048],[-75.47554,39.7330797],[-75.4757829,39.7334103],[-75.4760633,39.7334965],[-75.4761711,39.7335546],[-75.4760234,39.7337425],[-75.4756521,39.7336833],[-75.4754278,39.7337839],[-75.4751101,39.7341576],[-75.4749419,39.7344594],[-75.4751288,39.734675],[-75.4750727,39.7349768],[-75.4748111,39.7353936],[-75.474411,39.7356311],[-75.4735589,39.7373051],[-75.473316,39.7379949],[-75.4731851,39.7384979],[-75.4728487,39.7387997],[-75.4722133,39.7391159],[-75.4719935,39.7393493],[-75.4718208,39.7395327],[-75.4713162,39.74028],[-75.4710546,39.7408261],[-75.4709798,39.7415015],[-75.4707753,39.7420224],[-75.4706808,39.7422631],[-75.4704191,39.7426224],[-75.4700267,39.7425506],[-75.4695968,39.7426799],[-75.4693165,39.7431685],[-75.4690334,39.7437423],[-75.4688866,39.7444618],[-75.4688119,39.7452378],[-75.4683259,39.7460282],[-75.4680082,39.7471634],[-75.4668308,39.7498217],[-75.4659524,39.7514885],[-75.4655599,39.7529253],[-75.4652609,39.7539599],[-75.4648124,39.7550375],[-75.4641396,39.7560289],[-75.4634481,39.7574081],[-75.4631677,39.7584426],[-75.4631698,39.7592325],[-75.4634481,39.7616752],[-75.4630774,39.7622618],[-75.4598128,39.7659854],[-75.4579161,39.766416],[-75.4568321,39.7664447],[-75.4558416,39.7666746],[-75.4548697,39.7672492],[-75.4530195,39.7685421],[-75.4519839,39.7695732],[-75.4510197,39.7707686],[-75.4502348,39.7712139],[-75.4490761,39.7720758],[-75.4474138,39.773629],[-75.4479235,39.7739876],[-75.4484527,39.7743856],[-75.4477865,39.7755663],[-75.4471439,39.7765548],[-75.4461605,39.7773186],[-75.4453756,39.7778213],[-75.4446093,39.7784964],[-75.4438992,39.7792576],[-75.4425909,39.7803779],[-75.4419181,39.780737],[-75.4408715,39.7815126],[-75.4398997,39.7822307],[-75.4391708,39.7828339],[-75.4380128,39.7836141],[-75.436573,39.7843132],[-75.4345546,39.7851749],[-75.4308541,39.7864531],[-75.4258641,39.7881334],[-75.4214721,39.7898279],[-75.4185753,39.7909481],[-75.4169867,39.7916517],[-75.4154916,39.7922979],[-75.4141273,39.7927862],[-75.4131741,39.7931165],[-75.4124079,39.7934898],[-75.411679,39.7938057],[-75.4109314,39.7942222],[-75.4097727,39.7946817],[-75.4083336,39.7951268],[-75.4052809,39.7962274],[-75.4140163,39.8016236],[-75.4150591,39.8022341],[-75.4172384,39.8034841],[-75.4183854,39.8041328],[-75.4211241,39.8056461],[-75.4230129,39.8066629],[-75.425032,39.8077267],[-75.4283284,39.8094076],[-75.4333704,39.8118734],[-75.4359891,39.8131045],[-75.4367984,39.8134772],[-75.4403588,39.815078],[-75.4418243,39.8157194],[-75.4436106,39.8164862],[-75.4451056,39.8171165],[-75.4495462,39.8189288],[-75.4498213,39.8190376],[-75.4501145,39.8191527],[-75.4503786,39.8192567],[-75.4546608,39.8208981],[-75.4566174,39.8216237],[-75.4588628,39.8224345],[-75.46116,39.8232419],[-75.4633782,39.8239982],[-75.4653599,39.824658],[-75.4668853,39.8251547],[-75.467452,39.8253377],[-75.4677613,39.8254373],[-75.469485,39.8259806],[-75.4726626,39.8269524],[-75.4754079,39.8277586],[-75.4762343,39.8279958],[-75.4789114,39.8287447],[-75.4810525,39.8293238],[-75.4850843,39.8303712],[-75.4891782,39.8313668],[-75.4930154,39.8322467],[-75.4935121,39.832356],[-75.4948332,39.8326451],[-75.4953015,39.832745],[-75.4989586,39.833505],[-75.5031737,39.834322],[-75.5046687,39.8346003],[-75.5060589,39.8348421],[-75.5074642,39.8350863],[-75.5123031,39.8358755],[-75.5186747,39.8367923],[-75.5215899,39.8371658],[-75.5309149,39.8381776],[-75.5343504,39.838481],[-75.5376266,39.8387304],[-75.5395951,39.8388636],[-75.5396722,39.8388688],[-75.5397396,39.8388746],[-75.5401472,39.8389009],[-75.5405838,39.8389266],[-75.5417975,39.8389987],[-75.549573,39.8393496],[-75.5525046,39.8394331],[-75.5555732,39.8394893],[-75.5589445,39.8395147],[-75.5632846,39.8394982],[-75.5640523,39.8394881],[-75.5645783,39.8394805],[-75.5653916,39.8394668],[-75.5660152,39.8394551],[-75.5669314,39.8394336],[-75.568384,39.8393974],[-75.5697154,39.8393564],[-75.5709192,39.8393159],[-75.5718359,39.8392814],[-75.5744791,39.8391671],[-75.5763181,39.8390746],[-75.5777462,39.838996],[-75.5799327,39.838865],[-75.5835017,39.8386119],[-75.5871827,39.838307],[-75.5902142,39.838023],[-75.5935004,39.8376805],[-75.5954364,39.8374623],[-75.5972992,39.837243],[-75.598434,39.8371037],[-75.5997007,39.8369387],[-75.6008301,39.8367906],[-75.6017601,39.8366647],[-75.6040008,39.8363496],[-75.6066306,39.8359574],[-75.6091113,39.8355668],[-75.6122128,39.835047],[-75.6172551,39.8341333],[-75.6220992,39.8331706],[-75.6269365,39.8321267],[-75.6284625,39.8317804],[-75.6322954,39.830871],[-75.6343098,39.8303878],[-75.6345958,39.8303147],[-75.6370298,39.8296771],[-75.6414228,39.8284774],[-75.6462506,39.8270676],[-75.6494902,39.826065],[-75.6517319,39.8253442],[-75.6547373,39.8243418],[-75.6588027,39.8229175],[-75.6631463,39.8213098],[-75.6671173,39.8197576],[-75.6715309,39.8179394],[-75.6737268,39.8169843],[-75.675739,39.816109],[-75.6788247,39.8146975],[-75.6798979,39.8142065],[-75.6809282,39.8137215],[-75.6811804,39.8136009],[-75.6820947,39.8131607],[-75.6831185,39.8126639],[-75.6838925,39.8122849],[-75.685945,39.8112616],[-75.6864168,39.8110176],[-75.6899444,39.8091928],[-75.6923753,39.8078593],[-75.6957809,39.805991],[-75.6982741,39.8045501],[-75.7013727,39.8027048],[-75.7063765,39.7995689],[-75.7098748,39.7972587],[-75.7139069,39.7944719],[-75.7177058,39.7917168],[-75.7190182,39.7907317],[-75.720601,39.7895228],[-75.7223056,39.7881914],[-75.7238614,39.7869552],[-75.7250024,39.7860244],[-75.7273192,39.7840972],[-75.730064,39.7817327],[-75.7328796,39.7792124],[-75.7349671,39.7772783],[-75.7367191,39.775607],[-75.7384921,39.7738955],[-75.7394532,39.7729083],[-75.7403615,39.7719842],[-75.7412558,39.7710634],[-75.7436081,39.7685733],[-75.745927,39.7660208],[-75.7471849,39.7645931],[-75.7485137,39.7630495],[-75.7509022,39.760182],[-75.7527423,39.757875],[-75.7544703,39.7556321],[-75.7547323,39.7553132],[-75.7568231,39.7524439],[-75.7585623,39.7499799],[-75.7602478,39.7474955],[-75.7602836,39.7474421],[-75.7612485,39.7459676],[-75.762537,39.743942],[-75.7643297,39.7410163],[-75.7659739,39.7381798],[-75.7664628,39.7373102],[-75.7669451,39.7364321],[-75.7675655,39.7352938],[-75.7683093,39.7338841],[-75.7685299,39.7334627],[-75.7687985,39.7329293],[-75.7695125,39.7315108],[-75.7700231,39.73051],[-75.7701836,39.7301856],[-75.7704459,39.7296449],[-75.7708183,39.7288637],[-75.7714845,39.7274418],[-75.7720442,39.7262201],[-75.7728076,39.724496],[-75.7736248,39.7225849],[-75.7737845,39.7222016],[-75.7830471,39.7222005],[-75.788594,39.7222006],[-75.7885944,39.7073864],[-75.7885893,39.7011621],[-75.7885892,39.700932],[-75.7885826,39.6928665],[-75.7885871,39.6878564],[-75.7885876,39.6872603],[-75.7885891,39.6856546],[-75.7885934,39.6808706],[-75.7885935,39.6807256],[-75.7885945,39.6795464],[-75.7885955,39.6784349],[-75.7885956,39.6783626],[-75.7885987,39.6715079],[-75.7885992,39.670398],[-75.7886008,39.6703752],[-75.7886703,39.6693856],[-75.7887307,39.6684497],[-75.788786,39.6675137],[-75.7888399,39.6665054],[-75.7888973,39.6652809],[-75.7889588,39.6632829],[-75.7890215,39.6597918]]]}}]}