{
"type": "FeatureCollection",
"name": "us-me",
"features": [
{ "type": "Feature", "properties": { }, "geometry": { "type": "Polygon", "coordinates": [ [ [ -70.544190762129858, 42.895724391777819 ], [ -70.549352634852326, 42.899737014182719 ], [ -70.824686765755999, 43.125024078751863 ], [ -70.827526122709088, 43.12790553145728 ], [ -70.829302191184311, 43.130175960391973 ], [ -70.973355508332915, 43.34837496308743 ], [ -70.978414672986005, 43.357928812932542 ], [ -70.98600751565786, 43.379111902210099 ], [ -70.986451133716528, 43.3810084629309 ], [ -70.988254976991982, 43.390063496526984 ], [ -71.084372446414264, 45.30533462595551 ], [ -69.997996037827477, 46.69537754474252 ], [ -69.960553573747291, 46.733036240545253 ], [ -69.827392984298697, 46.866396581073943 ], [ -69.67964187573304, 47.013424483984238 ], [ -69.638750331434082, 47.054096225020601 ], [ -69.596891792219864, 47.095536116911902 ], [ -69.506026814352026, 47.185050136693981 ], [ -69.45687573203935, 47.233395930936958 ], [ -69.225010951491882, 47.459950986710872 ], [ -69.224877564678053, 47.460045036812176 ], [ -69.178266503067817, 47.457013818079389 ], [ -68.283338679852804, 47.360306028487926 ], [ -68.234693961049416, 47.354922134426431 ], [ -68.230992883780374, 47.354241356506215 ], [ -68.22819920298285, 47.353304715400434 ], [ -68.15634980000462, 47.326240655921779 ], [ -68.155003190306758, 47.32539732460625 ], [ -67.957764804133646, 47.199607322622896 ], [ -67.955079775080804, 47.197826192442228 ], [ -67.790889099405504, 47.067369011122551 ], [ -66.755427366536992, 45.126649879799849 ], [ -66.742792846248193, 44.969951349817244 ], [ -66.792703396617796, 44.745016887368436 ], [ -66.847011642340689, 44.653112323097616 ], [ -66.978512499394569, 44.449581918107533 ], [ -67.955080060992913, 43.960481353696025 ], [ -68.531317359939266, 43.72013026430902 ], [ -70.544190762129858, 42.895724391777819 ] ] ] } }
]
}
