{"type":"FeatureCollection","licence":"Data © OpenStreetMap contributors, ODbL 1.0. http://osm.org/copyright","features":[{"type":"Feature","properties":{"place_id":355747566,"osm_type":"relation","osm_id":224951,"place_rank":8,"category":"boundary","type":"administrative","importance":0.7945428500899242,"addresstype":"state","name":"New Jersey","display_name":"New Jersey, United States"},"bbox":[-75.5633860,38.7911303,-73.8936280,41.3572790],"geometry":{"type":"Polygon","coordinates":[[[-75.563386,39.4830549],[-75.5604145,39.4556394],[-75.4801429,39.3863515],[-75.4449147,39.3559219],[-75.3461575,39.2705462],[-75.2682769,39.1815572],[-75.1770484,39.0658355],[-75.1684258,39.055551],[-75.1369618,39.0008138],[-75.0166569,38.7911303],[-74.9053827,38.8799139],[-74.9023128,38.8802396],[-74.8990336,38.8807198],[-74.896021,38.8812846],[-74.8928531,38.8820072],[-74.8901941,38.8827214],[-74.8869906,38.8837211],[-74.8849483,38.8842676],[-74.8827082,38.8849375],[-74.8798468,38.8859057],[-74.8769992,38.8869995],[-74.8734286,38.8865495],[-74.8700717,38.8862722],[-74.8664596,38.8861289],[-74.8628429,38.8861448],[-74.8597137,38.8862877],[-74.8565971,38.8865498],[-74.8511702,38.8871701],[-74.8473795,38.8877574],[-74.8448027,38.8882641],[-74.8424853,38.888797],[-74.8399679,38.8894616],[-74.8374877,38.8902069],[-74.8352691,38.8909538],[-74.8328889,38.8918435],[-74.830577,38.8928007],[-74.8283168,38.8938306],[-74.8263104,38.8948288],[-74.8241529,38.895995],[-74.8220568,38.8972297],[-74.820027,38.8985303],[-74.8182288,38.8997779],[-74.8163074,38.9012212],[-74.8144641,38.9027256],[-74.8128592,38.9041441],[-74.8108776,38.9060573],[-74.8090183,38.9080441],[-74.8071584,38.9102608],[-74.805568,38.9123855],[-74.8041129,38.9145685],[-74.8027015,38.9169788],[-74.8015389,38.9192663],[-74.8005213,38.9215957],[-74.7976728,38.9238577],[-74.7950135,38.9262561],[-74.7906678,38.929402],[-74.7886115,38.9309905],[-74.7869693,38.9323684],[-74.7855491,38.9336491],[-74.7830348,38.9356147],[-74.780664,38.9376863],[-74.7777664,38.9396155],[-74.7749224,38.9417537],[-74.771342,38.9425929],[-74.7688349,38.9432608],[-74.766365,38.9440088],[-74.7621288,38.9454058],[-74.7597138,38.946295],[-74.7571359,38.9473538],[-74.7546193,38.9484985],[-74.7523695,38.9496198],[-74.7501811,38.950813],[-74.7482484,38.9519587],[-74.7463725,38.9531606],[-74.7445562,38.9544171],[-74.7428019,38.9557263],[-74.7411123,38.9570863],[-74.7394898,38.9584953],[-74.7379367,38.9599512],[-74.7364551,38.9614519],[-74.7349075,38.9631501],[-74.7335726,38.964732],[-74.7323151,38.9663522],[-74.7311371,38.9680084],[-74.7300401,38.9696982],[-74.7290257,38.9714192],[-74.7280954,38.9731689],[-74.7269367,38.9756619],[-74.7259487,38.9781993],[-74.7254052,38.9798507],[-74.7249331,38.9815089],[-74.7242303,38.9846271],[-74.7232136,38.9870549],[-74.7222664,38.9898005],[-74.7217837,38.9914454],[-74.7213726,38.9931022],[-74.721033,38.9947687],[-74.7207658,38.9964433],[-74.7194873,38.9984461],[-74.7181322,39.0008233],[-74.7170815,39.0028826],[-74.7161486,39.0049762],[-74.7150489,39.0064081],[-74.7140112,39.0078678],[-74.7130362,39.0093537],[-74.7121254,39.0108642],[-74.7104345,39.0127004],[-74.7087439,39.0143194],[-74.7072833,39.0158378],[-74.7058975,39.0173983],[-74.7045885,39.0189987],[-74.7033581,39.0206366],[-74.7023196,39.022141],[-74.7013472,39.023672],[-74.7003462,39.0254024],[-74.6982935,39.0278361],[-74.6912047,39.0370685],[-74.6889993,39.03977],[-74.6863592,39.0432861],[-74.6842657,39.0463622],[-74.6827786,39.0482561],[-74.68101,39.0507315],[-74.678171,39.0535126],[-74.6769184,39.0544623],[-74.673999,39.0562294],[-74.6717471,39.0572993],[-74.6697504,39.0583339],[-74.6676692,39.0594974],[-74.6653456,39.0608818],[-74.6634956,39.0620698],[-74.6617037,39.0633106],[-74.6596118,39.0648668],[-74.6579205,39.0662185],[-74.6561369,39.0677616],[-74.6542867,39.0695092],[-74.6526814,39.071167],[-74.6507003,39.0733673],[-74.6492306,39.0751083],[-74.6479763,39.0767311],[-74.6468017,39.0783898],[-74.6457083,39.0800819],[-74.6444947,39.0821341],[-74.6433984,39.084223],[-74.6424239,39.0863482],[-74.6415733,39.0885055],[-74.6407781,39.090848],[-74.6401166,39.0932255],[-74.6396287,39.0954629],[-74.6392477,39.0979035],[-74.6390455,39.0999779],[-74.6389513,39.1022462],[-74.6389812,39.1043265],[-74.6391321,39.1065866],[-74.6394253,39.1090136],[-74.6399105,39.1116116],[-74.6406336,39.1144753],[-74.6414821,39.1170888],[-74.6410096,39.1178544],[-74.6399047,39.1194639],[-74.6383004,39.1213659],[-74.6371709,39.1228286],[-74.6357623,39.1245273],[-74.6345592,39.1261089],[-74.6289088,39.1340588],[-74.6275647,39.1360749],[-74.6256459,39.1386752],[-74.6246553,39.1401757],[-74.6235878,39.141925],[-74.6222625,39.1438521],[-74.621219,39.1455041],[-74.6183828,39.1489662],[-74.6170226,39.1504792],[-74.615735,39.1520302],[-74.6144774,39.1533317],[-74.6123864,39.1553432],[-74.609503,39.1583473],[-74.6067604,39.1609621],[-74.6042151,39.1634942],[-74.6026324,39.1646596],[-74.6009346,39.1660027],[-74.5993028,39.1673945],[-74.5978928,39.1686873],[-74.5952356,39.1713823],[-74.592917,39.1740582],[-74.5912963,39.1761799],[-74.5898116,39.178361],[-74.5881767,39.1811195],[-74.5866786,39.1841291],[-74.5848611,39.18657],[-74.5831204,39.1892569],[-74.582139,39.1909757],[-74.5813273,39.1925463],[-74.580584,39.1941372],[-74.57984,39.1959267],[-74.5792041,39.1968979],[-74.5757988,39.20076],[-74.5741878,39.202487],[-74.572434,39.2045073],[-74.5709865,39.2059939],[-74.5680498,39.2091976],[-74.5650804,39.2121747],[-74.5624511,39.2145752],[-74.5594175,39.216812],[-74.5559689,39.219635],[-74.5543743,39.2210261],[-74.5528579,39.2224521],[-74.550966,39.2239454],[-74.5483977,39.2258564],[-74.5462766,39.2272705],[-74.5442528,39.2282852],[-74.5411675,39.2294052],[-74.5381625,39.2306504],[-74.533152,39.2329548],[-74.5311044,39.2339526],[-74.5277386,39.2357837],[-74.5240465,39.2376188],[-74.5214799,39.2390165],[-74.5184456,39.2408673],[-74.5155591,39.2428559],[-74.5136657,39.2442994],[-74.5118563,39.245797],[-74.5102812,39.2472075],[-74.5086281,39.2488107],[-74.5061409,39.2503434],[-74.5035745,39.2520984],[-74.5011314,39.2539567],[-74.498984,39.2557662],[-74.4963844,39.2582202],[-74.4941253,39.2606427],[-74.4929376,39.2620501],[-74.491568,39.2637913],[-74.4898399,39.2661602],[-74.4879574,39.267601],[-74.4859924,39.2692398],[-74.4841237,39.2709452],[-74.482355,39.272714],[-74.4807986,39.2738549],[-74.4791278,39.2751689],[-74.4762467,39.2767385],[-74.4717041,39.2790631],[-74.4686065,39.2807812],[-74.4661336,39.2822407],[-74.461884,39.284497],[-74.4593144,39.2857834],[-74.4573931,39.2868368],[-74.4527393,39.2892677],[-74.4514584,39.2898327],[-74.4471034,39.291554],[-74.445013,39.2924386],[-74.4409234,39.2943337],[-74.4374848,39.2960509],[-74.4350856,39.2969716],[-74.4329488,39.2978752],[-74.4304449,39.2990414],[-74.4277165,39.3002177],[-74.424864,39.3015978],[-74.4216449,39.303048],[-74.41993,39.3037202],[-74.4168681,39.3042394],[-74.4140737,39.3048209],[-74.4110877,39.3055601],[-74.4081494,39.3064104],[-74.4048173,39.3075242],[-74.4015712,39.3087819],[-74.3982384,39.3097132],[-74.3929183,39.31141],[-74.3900858,39.3124588],[-74.3871188,39.313704],[-74.3844744,39.3149505],[-74.3803012,39.3170943],[-74.3748051,39.3200997],[-74.3721273,39.3217058],[-74.3704647,39.3227952],[-74.3688502,39.3239273],[-74.3671304,39.3249583],[-74.3654565,39.3260338],[-74.36383,39.3271523],[-74.3622531,39.3283128],[-74.3607271,39.3295138],[-74.3592489,39.3307588],[-74.3578217,39.3320458],[-74.3564512,39.3333694],[-74.3549974,39.3348816],[-74.3537526,39.3362781],[-74.3515703,39.3390017],[-74.3505073,39.3404861],[-74.3495094,39.3419975],[-74.3484789,39.3437066],[-74.3475321,39.3454447],[-74.3466703,39.3472092],[-74.3459685,39.3488179],[-74.3456338,39.3491228],[-74.3431977,39.3506606],[-74.3408579,39.35229],[-74.3386233,39.3540062],[-74.3364988,39.3558047],[-74.3335084,39.3576984],[-74.3308605,39.359258],[-74.3288458,39.3605627],[-74.3233377,39.3644728],[-74.3209119,39.3663392],[-74.3190972,39.3678742],[-74.3173661,39.3694662],[-74.3147153,39.372153],[-74.3132032,39.3738019],[-74.3114081,39.3754469],[-74.3094137,39.3768163],[-74.3073231,39.3783817],[-74.3054883,39.3798795],[-74.3037344,39.3814347],[-74.3023621,39.3827481],[-74.3010474,39.3840966],[-74.2997923,39.3854789],[-74.298598,39.3868932],[-74.2967184,39.3883887],[-74.2950811,39.3898002],[-74.2930499,39.3911569],[-74.2900122,39.3933304],[-74.2870909,39.3955817],[-74.2856207,39.3968308],[-74.2840521,39.3982629],[-74.2825538,39.3997397],[-74.2812673,39.4011054],[-74.2779435,39.405011],[-74.2758707,39.4077315],[-74.2746447,39.40955],[-74.2731788,39.4119249],[-74.2721925,39.4136533],[-74.2712909,39.4154093],[-74.2705028,39.4166754],[-74.2686186,39.4188627],[-74.2669921,39.4209613],[-74.2654999,39.4231191],[-74.2641453,39.4253309],[-74.2618472,39.4294919],[-74.2609502,39.4312486],[-74.2598393,39.4337494],[-74.2589617,39.4361093],[-74.2577868,39.4375268],[-74.2565545,39.4391369],[-74.2554006,39.4407815],[-74.2543268,39.4424585],[-74.2529608,39.444856],[-74.2514324,39.4478026],[-74.250679,39.449376],[-74.2494819,39.4516156],[-74.2483508,39.4540746],[-74.2473867,39.4565761],[-74.2458817,39.4593059],[-74.2444889,39.4623386],[-74.2433501,39.4654344],[-74.2424705,39.4685806],[-74.2398694,39.4699472],[-74.2373516,39.4714113],[-74.2348975,39.4729747],[-74.2327228,39.4744993],[-74.2318151,39.4751962],[-74.2306395,39.4760987],[-74.2284908,39.4779123],[-74.2264595,39.4798053],[-74.2246931,39.4816195],[-74.2223765,39.4842919],[-74.2202859,39.487074],[-74.2184346,39.4899474],[-74.2167992,39.4929588],[-74.2155239,39.4947329],[-74.2144461,39.4963793],[-74.2122764,39.4981183],[-74.2100641,39.5000796],[-74.2081302,39.5019784],[-74.2062937,39.5039736],[-74.2040838,39.5066862],[-74.2022126,39.5093346],[-74.2005508,39.5120656],[-74.1991046,39.5148692],[-74.1969906,39.5168709],[-74.1951349,39.5183815],[-74.193205,39.5200961],[-74.1916749,39.5215756],[-74.1900768,39.5232536],[-74.1881753,39.5254612],[-74.1865471,39.5275783],[-74.1833399,39.5314056],[-74.1805121,39.5350251],[-74.1785453,39.5374157],[-74.1748573,39.5424703],[-74.173247,39.5449574],[-74.1715365,39.5473933],[-74.1703947,39.5492053],[-74.1692788,39.5506377],[-74.1681123,39.5522621],[-74.1666118,39.5545903],[-74.1645515,39.5575577],[-74.1634966,39.5591905],[-74.1596315,39.5643394],[-74.1573794,39.5675474],[-74.1553717,39.569932],[-74.1536587,39.572234],[-74.1523178,39.5742608],[-74.1501542,39.5772653],[-74.1491869,39.5787728],[-74.1482855,39.5803045],[-74.1444851,39.585571],[-74.1431954,39.5875335],[-74.1404558,39.5914182],[-74.1392988,39.5932152],[-74.1382556,39.5946847],[-74.1366884,39.5970595],[-74.1346066,39.5999533],[-74.1335155,39.6015762],[-74.1330396,39.6021926],[-74.1307433,39.6048493],[-74.1287864,39.6074485],[-74.1272422,39.6097938],[-74.1257671,39.6123726],[-74.1227914,39.6163642],[-74.120307,39.6194543],[-74.1191073,39.6210438],[-74.1172359,39.6232305],[-74.1145437,39.626516],[-74.1130481,39.6282417],[-74.1098116,39.6322523],[-74.1071719,39.6357479],[-74.1056851,39.6378866],[-74.1045121,39.6393796],[-74.1033842,39.6409364],[-74.100732,39.644127],[-74.0995254,39.6457339],[-74.0985062,39.6472088],[-74.0963652,39.6498587],[-74.0941596,39.65269],[-74.0929955,39.6542815],[-74.0909467,39.6568268],[-74.0850485,39.6650045],[-74.0838025,39.6668405],[-74.0826705,39.6682875],[-74.0814879,39.669929],[-74.0804924,39.6714348],[-74.079563,39.6729656],[-74.078069,39.6757624],[-74.0769759,39.6775616],[-74.0747688,39.6814821],[-74.0733588,39.684186],[-74.0726055,39.6857531],[-74.0700246,39.6902892],[-74.0673005,39.6953693],[-74.0660176,39.6980056],[-74.0648544,39.6998775],[-74.0638852,39.7016102],[-74.0627528,39.7039028],[-74.061767,39.7062355],[-74.0606062,39.7083051],[-74.0594225,39.7106559],[-74.0584036,39.7124777],[-74.056714,39.7135285],[-74.0548914,39.7147465],[-74.0533022,39.7158868],[-74.051763,39.7170674],[-74.0502789,39.7182848],[-74.0488484,39.7195393],[-74.0474726,39.7208304],[-74.0461529,39.7221569],[-74.0444837,39.7239771],[-74.042921,39.7258529],[-74.0414118,39.7273511],[-74.0399771,39.7288924],[-74.0377095,39.7315965],[-74.036359,39.733396],[-74.0351062,39.7352371],[-74.0339537,39.737117],[-74.032903,39.739032],[-74.0318755,39.7411577],[-74.0310441,39.7431359],[-74.0303197,39.7451391],[-74.0296531,39.7473488],[-74.0291972,39.7492065],[-74.0288325,39.7510762],[-74.0285827,39.7527669],[-74.0284075,39.7544632],[-74.0280382,39.7568836],[-74.0278585,39.7587533],[-74.0277743,39.7604415],[-74.0277678,39.7623371],[-74.0278542,39.7642316],[-74.0280806,39.7664996],[-74.0284054,39.7685697],[-74.0288413,39.7706276],[-74.0294434,39.7728544],[-74.0292936,39.7748452],[-74.0286721,39.7776221],[-74.0278796,39.7824778],[-74.0275775,39.7850772],[-74.027037,39.7888443],[-74.0263738,39.7927125],[-74.0261194,39.7953216],[-74.0255988,39.7993082],[-74.0254377,39.8012023],[-74.024723,39.804758],[-74.0241325,39.8090125],[-74.0239215,39.8110731],[-74.0238214,39.8131387],[-74.0234171,39.8170982],[-74.0225777,39.8236288],[-74.0223645,39.8275153],[-74.0218405,39.8314483],[-74.0210614,39.8391497],[-74.020665,39.8414381],[-74.0204379,39.8431267],[-74.0201366,39.8466504],[-74.0198577,39.8489869],[-74.0197392,39.8506939],[-74.0196028,39.8517655],[-74.0190797,39.8543798],[-74.0187428,39.8567693],[-74.018439,39.8598528],[-74.0182844,39.862621],[-74.0178443,39.8658887],[-74.0173268,39.8682694],[-74.0163906,39.8733995],[-74.0160889,39.8754003],[-74.0158708,39.8774651],[-74.0154864,39.8831608],[-74.0151772,39.8851478],[-74.0144944,39.8906658],[-74.013851,39.8938761],[-74.0132918,39.8981712],[-74.0123915,39.9027966],[-74.0120522,39.9048897],[-74.0111966,39.9090175],[-74.0106403,39.9112395],[-74.0099843,39.9144951],[-74.0093411,39.9168816],[-74.0081418,39.9222274],[-74.0075263,39.9242253],[-74.007018,39.9262411],[-74.006377,39.9291767],[-74.005862,39.9320379],[-74.0053927,39.9337803],[-74.0050255,39.9354263],[-74.0038934,39.9418674],[-74.0034107,39.9436887],[-74.0030162,39.9455225],[-74.00266,39.947736],[-74.0023747,39.9503947],[-74.001845,39.9535196],[-74.0016256,39.9557378],[-74.0015346,39.9579613],[-74.0009197,39.9617487],[-74.0006733,39.9637162],[-73.9996174,39.969435],[-73.9983579,39.9755512],[-73.9961459,39.9838954],[-73.9956508,39.9861297],[-73.9950205,39.9885149],[-73.9945419,39.990921],[-73.9933314,39.99564],[-73.9928572,39.9980179],[-73.9915645,40.0028022],[-73.9908838,40.0049514],[-73.9901645,40.0076628],[-73.9897611,40.0094829],[-73.9894454,40.0113133],[-73.9889902,40.0133372],[-73.9885909,40.0156574],[-73.9876534,40.019418],[-73.9854765,40.0269225],[-73.9846721,40.0291052],[-73.9839971,40.0313136],[-73.9832651,40.0344776],[-73.9827077,40.0363117],[-73.9821458,40.0385219],[-73.9817905,40.0401761],[-73.9815079,40.0418386],[-73.9808763,40.0442575],[-73.9804444,40.0462925],[-73.9795416,40.0491635],[-73.9790413,40.0510211],[-73.9786237,40.0528156],[-73.9780142,40.0558515],[-73.9772115,40.0581923],[-73.9762864,40.0614347],[-73.975568,40.0636269],[-73.9751153,40.0652807],[-73.974698,40.0671309],[-73.9743713,40.0689919],[-73.9741357,40.0708609],[-73.9739823,40.0729231],[-73.9732859,40.0752749],[-73.972775,40.0774665],[-73.9713803,40.0810506],[-73.9700827,40.0836565],[-73.9686404,40.0870411],[-73.9677413,40.0895878],[-73.9670182,40.0921672],[-73.9663796,40.0953333],[-73.9661052,40.0976424],[-73.9660003,40.0985257],[-73.9658942,40.1005996],[-73.9658999,40.102675],[-73.966034,40.1049368],[-73.9662676,40.1069592],[-73.9661886,40.1075025],[-73.965724,40.1093428],[-73.9650875,40.1111508],[-73.9645395,40.1129758],[-73.9640808,40.1148153],[-73.963712,40.1166667],[-73.9626007,40.1193564],[-73.9608987,40.124268],[-73.9603521,40.1261044],[-73.9591676,40.1305802],[-73.9584399,40.1327014],[-73.957834,40.1348451],[-73.9565047,40.1378807],[-73.9554872,40.140792],[-73.9546997,40.143745],[-73.9540537,40.1470997],[-73.9533084,40.149371],[-73.9526786,40.1517709],[-73.9508787,40.1554227],[-73.9497029,40.1582966],[-73.9491413,40.1599354],[-73.948652,40.1615879],[-73.9482362,40.1632521],[-73.9478939,40.1649261],[-73.9465062,40.1673383],[-73.9452859,40.1698032],[-73.9442365,40.172314],[-73.9433607,40.1748636],[-73.9425343,40.1780017],[-73.9422033,40.1796777],[-73.9419462,40.1813613],[-73.9416644,40.1845555],[-73.9416493,40.187831],[-73.9407835,40.1905059],[-73.9401503,40.1930303],[-73.9383474,40.1972626],[-73.9374619,40.1995873],[-73.9363929,40.2020855],[-73.9347349,40.2068906],[-73.9336391,40.2091744],[-73.9326225,40.2116764],[-73.9320017,40.2134868],[-73.9315189,40.2151304],[-73.9305328,40.2193931],[-73.9298081,40.2209692],[-73.9291527,40.2225632],[-73.9285667,40.2241729],[-73.9280515,40.2257968],[-73.9275093,40.2278339],[-73.9270444,40.2300737],[-73.9267124,40.2323274],[-73.926514,40.2345903],[-73.9261736,40.2358541],[-73.9247404,40.2396534],[-73.9241833,40.2412779],[-73.92337,40.244198],[-73.9226888,40.2462094],[-73.9221174,40.2482408],[-73.9217317,40.2499153],[-73.9213907,40.2517863],[-73.9211421,40.2536658],[-73.9209978,40.2553625],[-73.9201537,40.2580201],[-73.9194555,40.2605166],[-73.9189453,40.2627024],[-73.9185657,40.2647416],[-73.918115,40.2663841],[-73.9177367,40.2680373],[-73.9173726,40.2700695],[-73.917132,40.2719525],[-73.916906,40.2729373],[-73.9162561,40.2749199],[-73.9157576,40.2767386],[-73.9153472,40.2785727],[-73.9150245,40.280427],[-73.9141936,40.2827847],[-73.9135608,40.2849862],[-73.9129198,40.2879513],[-73.9124088,40.2896136],[-73.9119284,40.2914752],[-73.9113523,40.2944787],[-73.9110948,40.2965567],[-73.9109504,40.298641],[-73.9108678,40.3033056],[-73.9109099,40.3053142],[-73.9106732,40.3071736],[-73.9104263,40.3100501],[-73.9099458,40.3133445],[-73.9097448,40.3163163],[-73.9091216,40.3188391],[-73.9086602,40.3214383],[-73.9080908,40.3234769],[-73.907633,40.325532],[-73.9072351,40.3279692],[-73.9069897,40.3304014],[-73.9068997,40.3328398],[-73.9069647,40.3352787],[-73.9072085,40.3378991],[-73.9075957,40.3403204],[-73.9070839,40.3427414],[-73.906728,40.3451786],[-73.9065487,40.3472492],[-73.9064821,40.3493237],[-73.9062405,40.3513706],[-73.9061164,40.3532367],[-73.9061043,40.3562114],[-73.9059585,40.3591306],[-73.9059903,40.3629141],[-73.9060533,40.3646015],[-73.9062697,40.3669865],[-73.9063573,40.3690529],[-73.906605,40.371489],[-73.9070078,40.3739129],[-73.9072899,40.3771789],[-73.907827,40.3803192],[-73.907899,40.383016],[-73.908128,40.385453],[-73.9085119,40.3878785],[-73.9090505,40.3902867],[-73.9090686,40.3923717],[-73.9092181,40.3946434],[-73.9096158,40.3980002],[-73.9100275,40.4003836],[-73.9100693,40.402076],[-73.9102015,40.4039458],[-73.910634,40.4071056],[-73.9108082,40.4091906],[-73.91106,40.4110461],[-73.911364,40.4127088],[-73.9117404,40.4143629],[-73.9121896,40.4160063],[-73.9127105,40.4176373],[-73.9131609,40.4208089],[-73.9138256,40.4237682],[-73.9143015,40.4254177],[-73.915542,40.429256],[-73.9165524,40.4319829],[-73.9162217,40.4351525],[-73.9160066,40.4392899],[-73.9159688,40.4415465],[-73.9160026,40.4432301],[-73.9161103,40.4449119],[-73.9162923,40.4465899],[-73.9165477,40.4482624],[-73.9170467,40.4506643],[-73.9174707,40.4535338],[-73.9178718,40.4555693],[-73.9185335,40.458128],[-73.9192458,40.4604067],[-73.9202674,40.4632302],[-73.92134,40.4657196],[-73.9226596,40.4683506],[-73.9241601,40.470931],[-73.90214,40.492121],[-73.977874,40.519095],[-74.04378,40.507828],[-74.0912609,40.4996567],[-74.2064434,40.4798299],[-74.225332,40.476578],[-74.2282018,40.4776224],[-74.2438105,40.4833026],[-74.253037,40.48666],[-74.253144,40.4868852],[-74.2581372,40.4973901],[-74.258843,40.498875],[-74.258129,40.508717],[-74.254096,40.515661],[-74.246021,40.520958],[-74.2497377,40.5395601],[-74.250285,40.542299],[-74.247485,40.549377],[-74.231415,40.559182],[-74.2290376,40.5588053],[-74.218004,40.557057],[-74.214576,40.560533],[-74.210145,40.573724],[-74.207242,40.587915],[-74.2036022,40.5926384],[-74.199589,40.597846],[-74.199589,40.600382],[-74.204834,40.606062],[-74.203889,40.614276],[-74.202425,40.61677],[-74.203925,40.62437],[-74.202281,40.628781],[-74.2024,40.631592],[-74.2003778,40.6331168],[-74.198164,40.634786],[-74.196247,40.637689],[-74.19143,40.642025],[-74.185641,40.646042],[-74.18165,40.646528],[-74.1614661,40.6441509],[-74.1581525,40.6437606],[-74.14311,40.641989],[-74.132921,40.643684],[-74.126018,40.642151],[-74.109848,40.648064],[-74.093442,40.648064],[-74.086986,40.651506],[-74.055766,40.651475],[-74.049594,40.661622],[-74.0378384,40.6810948],[-74.035443,40.685125],[-74.034495,40.6866935],[-74.02639,40.700102],[-74.023637,40.718068],[-74.021347,40.7274823],[-74.0213403,40.7275071],[-74.0213072,40.7276365],[-74.0206386,40.7303906],[-74.0174387,40.7435392],[-74.0142459,40.7566558],[-74.014028,40.757551],[-74.0016207,40.7745491],[-74.0004487,40.7761545],[-73.992998,40.786353],[-73.99169,40.788143],[-73.984739,40.797662],[-73.984362,40.798179],[-73.982655,40.800516],[-73.982516,40.800706],[-73.980634,40.803283],[-73.979094,40.805392],[-73.978864,40.805707],[-73.9772909,40.8078621],[-73.977172,40.808025],[-73.975085,40.810882],[-73.973487,40.813071],[-73.971616,40.815633],[-73.971152,40.816269],[-73.971123,40.816308],[-73.970693,40.816897],[-73.967894,40.820731],[-73.967865,40.820771],[-73.967803,40.820854],[-73.966563,40.822553],[-73.96647,40.82268],[-73.965981,40.82335],[-73.9659,40.823461],[-73.965719,40.823709],[-73.965592,40.823883],[-73.96517,40.82446],[-73.965138,40.824504],[-73.96502,40.824666],[-73.963815,40.826316],[-73.963787,40.826355],[-73.963577,40.826642],[-73.962654,40.828742],[-73.962585,40.828901],[-73.962463,40.829177],[-73.96168,40.830961],[-73.961646,40.831036],[-73.961329,40.831759],[-73.961263,40.83191],[-73.961211,40.832027],[-73.960136,40.834474],[-73.960086,40.834587],[-73.958824,40.837462],[-73.9587239,40.8376892],[-73.958705,40.837732],[-73.958019,40.839292],[-73.957831,40.839721],[-73.957796,40.839801],[-73.955727,40.84451],[-73.955661,40.844661],[-73.954312,40.847732],[-73.954194,40.848003],[-73.953988,40.848468],[-73.952829,40.851106],[-73.952565,40.851537],[-73.952486,40.851666],[-73.952397,40.851812],[-73.948822,40.857651],[-73.948336,40.858446],[-73.9341963,40.8815481],[-73.933907,40.882012],[-73.929795,40.888724],[-73.9271142,40.8954936],[-73.9189436,40.9161216],[-73.918346,40.91763],[-73.914253,40.92796],[-73.908844,40.946826],[-73.898739,40.974714],[-73.896144,40.981873],[-73.893634,40.997129],[-73.893628,40.997165],[-73.9024795,40.9973228],[-73.902715,40.997327],[-73.904242,40.998007],[-73.911762,41.001377],[-73.9202357,41.0051882],[-73.9220391,41.0059994],[-73.923299,41.006566],[-73.92956,41.009418],[-73.9383421,41.0133763],[-73.952413,41.019718],[-73.954896,41.020798],[-73.9589967,41.0226319],[-73.969726,41.02743],[-73.9772818,41.0307919],[-73.993825,41.038152],[-73.999928,41.040867],[-74.0125834,41.0464777],[-74.024551,41.051783],[-74.035863,41.056819],[-74.050855,41.063459],[-74.0719358,41.0728353],[-74.081705,41.07718],[-74.0926,41.082027],[-74.096693,41.083864],[-74.1037665,41.0869542],[-74.112332,41.090696],[-74.127323,41.097342],[-74.129494,41.098299],[-74.158298,41.11099],[-74.168133,41.115305],[-74.195263,41.126898],[-74.212603,41.134303],[-74.2130966,41.1344669],[-74.217765,41.136017],[-74.2184283,41.1362991],[-74.23053,41.141446],[-74.234354,41.14303],[-74.2421469,41.1464261],[-74.242406,41.146539],[-74.250737,41.150168],[-74.2539103,41.1516403],[-74.267017,41.157721],[-74.27957,41.163007],[-74.2796828,41.1630561],[-74.297842,41.170956],[-74.330738,41.185489],[-74.346416,41.192734],[-74.362101,41.200423],[-74.3675981,41.2032851],[-74.3770256,41.2081932],[-74.3775126,41.2084468],[-74.377757,41.208574],[-74.3789673,41.2092097],[-74.3813001,41.210435],[-74.396555,41.218447],[-74.4003446,41.2203349],[-74.425605,41.232884],[-74.4396496,41.2396964],[-74.439723,41.239732],[-74.4575426,41.2482739],[-74.457862,41.248427],[-74.470246,41.254098],[-74.491263,41.263469],[-74.507156,41.27136],[-74.5153729,41.275228],[-74.5366641,41.2852496],[-74.536682,41.285258],[-74.539624,41.286636],[-74.561156,41.296418],[-74.562464,41.297007],[-74.563644,41.297547],[-74.569369,41.300161],[-74.572305,41.301502],[-74.588704,41.308897],[-74.605076,41.316366],[-74.607609,41.317495],[-74.630875,41.328101],[-74.638121,41.331361],[-74.641698,41.332993],[-74.6493498,41.3365269],[-74.654365,41.338843],[-74.674235,41.347915],[-74.6852492,41.3529774],[-74.6910619,41.3556176],[-74.6938561,41.3568889],[-74.6947273,41.357279],[-74.6963007,41.3568155],[-74.6968569,41.3564599],[-74.6972664,41.3562132],[-74.6975981,41.3560133],[-74.6977935,41.3558955],[-74.6986887,41.355356],[-74.6996596,41.3547811],[-74.7001881,41.3545966],[-74.7006572,41.3544329],[-74.7044808,41.3538274],[-74.7059584,41.353561],[-74.7072761,41.3532011],[-74.7114321,41.3514297],[-74.7188598,41.3480985],[-74.7191772,41.3479886],[-74.720923,41.347384],[-74.7246824,41.346426],[-74.7275663,41.3459832],[-74.7288874,41.3458443],[-74.730333,41.3458572],[-74.735219,41.3464567],[-74.7373896,41.3465823],[-74.7395069,41.3465344],[-74.7435844,41.3463435],[-74.7474459,41.3465677],[-74.7528512,41.3464778],[-74.754351,41.3462107],[-74.7548574,41.3460499],[-74.7553116,41.3458421],[-74.7557243,41.3456363],[-74.7560431,41.3453678],[-74.7568343,41.3441546],[-74.7570203,41.3438693],[-74.7576865,41.3430369],[-74.7590306,41.3415108],[-74.7599128,41.3405091],[-74.7609248,41.3382531],[-74.7615397,41.3368821],[-74.7627243,41.3330824],[-74.7633326,41.3318932],[-74.763499,41.331568],[-74.7645711,41.3302644],[-74.7666068,41.3283762],[-74.7707324,41.3258636],[-74.7726093,41.3248972],[-74.7748693,41.3244151],[-74.7777062,41.3245255],[-74.7804618,41.3245272],[-74.7842181,41.3242747],[-74.7871802,41.3238638],[-74.7895366,41.3233983],[-74.7915935,41.3230414],[-74.7927464,41.3225671],[-74.7939798,41.3216749],[-74.794861,41.320721],[-74.7959662,41.3197357],[-74.7961624,41.3191501],[-74.7962555,41.3186883],[-74.7961479,41.3182647],[-74.7958461,41.3176949],[-74.79488,41.3168915],[-74.7934556,41.3156017],[-74.7927216,41.3147064],[-74.792377,41.314088],[-74.7919494,41.3129095],[-74.7918272,41.3121981],[-74.791991,41.311639],[-74.792254,41.3109683],[-74.7925574,41.3106663],[-74.7930975,41.3101286],[-74.7957447,41.3088332],[-74.799597,41.3072359],[-74.8019523,41.3059122],[-74.8036719,41.3049998],[-74.8039957,41.304828],[-74.806858,41.303155],[-74.8098566,41.300259],[-74.812033,41.298157],[-74.8158174,41.2960343],[-74.8179423,41.2954438],[-74.8193646,41.2950309],[-74.8207539,41.2945234],[-74.8220539,41.293749],[-74.823238,41.2929766],[-74.8247941,41.2917182],[-74.8265798,41.290083],[-74.8295765,41.2879856],[-74.8302846,41.2872097],[-74.8306895,41.2863102],[-74.8309302,41.2858781],[-74.8318215,41.2842783],[-74.8339743,41.2816435],[-74.8366131,41.2790252],[-74.838366,41.277286],[-74.8387808,41.2763465],[-74.8397172,41.2742659],[-74.8405083,41.2723561],[-74.8408413,41.2713896],[-74.8427079,41.2685844],[-74.846319,41.263077],[-74.846506,41.261576],[-74.8457819,41.2604091],[-74.8451116,41.2589403],[-74.8449421,41.2578513],[-74.8453698,41.2565302],[-74.845883,41.254945],[-74.846932,41.253318],[-74.8480161,41.2518174],[-74.8486316,41.2514258],[-74.8496063,41.2511611],[-74.854284,41.2506325],[-74.855305,41.2502835],[-74.8562913,41.249768],[-74.8571093,41.2491747],[-74.8613502,41.2432126],[-74.8617549,41.2424812],[-74.8619463,41.2418112],[-74.8620037,41.2409299],[-74.861839,41.238987],[-74.8620122,41.2379517],[-74.8626471,41.2368522],[-74.8650071,41.2339927],[-74.8663648,41.232494],[-74.8669793,41.2311845],[-74.8675799,41.2297193],[-74.8677718,41.2279536],[-74.867551,41.2273083],[-74.8671129,41.2267224],[-74.8664,41.2260474],[-74.8644785,41.2246436],[-74.8611965,41.2224947],[-74.8605771,41.2219721],[-74.8602307,41.2216736],[-74.8597851,41.2212027],[-74.8594975,41.2208208],[-74.8593454,41.2204025],[-74.8593252,41.2194256],[-74.8595786,41.2185382],[-74.8630397,41.2141181],[-74.86718,41.208569],[-74.8675013,41.2081232],[-74.8699361,41.204745],[-74.8721476,41.2013054],[-74.874443,41.197659],[-74.8769749,41.1929216],[-74.878275,41.190489],[-74.878377,41.1901454],[-74.8788172,41.1877674],[-74.8794111,41.1861131],[-74.8822643,41.1809824],[-74.8846206,41.1781516],[-74.886776,41.1762303],[-74.889424,41.1736],[-74.8906826,41.1727626],[-74.896531,41.1688712],[-74.898673,41.1674459],[-74.8991525,41.1671005],[-74.8996061,41.1667737],[-74.9000388,41.1663739],[-74.9003249,41.1659826],[-74.9011212,41.1645747],[-74.9020112,41.1614365],[-74.9030613,41.1590632],[-74.9037779,41.1577885],[-74.9039428,41.1574953],[-74.9045886,41.1565248],[-74.9053134,41.1556562],[-74.9070926,41.1540745],[-74.9085892,41.1527441],[-74.9155466,41.1463497],[-74.9173675,41.1444964],[-74.9207816,41.1419163],[-74.9217507,41.1407812],[-74.9228974,41.1389191],[-74.9235803,41.1381627],[-74.9279,41.1354938],[-74.9306899,41.1338882],[-74.9367802,41.1318858],[-74.9398371,41.1313722],[-74.9412759,41.1311428],[-74.9434255,41.1305522],[-74.9441586,41.130239],[-74.9447001,41.1298623],[-74.9454555,41.1291417],[-74.9462524,41.12846],[-74.9471889,41.1274433],[-74.9474737,41.1269694],[-74.9475803,41.1262589],[-74.9475552,41.1252935],[-74.947334,41.124439],[-74.9473473,41.1239995],[-74.9474985,41.1237441],[-74.9508209,41.1216133],[-74.9515718,41.1211303],[-74.955042,41.1196183],[-74.9568088,41.1188275],[-74.9631589,41.1147386],[-74.964294,41.114237],[-74.9652145,41.11392],[-74.9661351,41.1138201],[-74.967545,41.1138115],[-74.9692305,41.1139728],[-74.9702255,41.1139148],[-74.972917,41.113327],[-74.9752269,41.1125642],[-74.9772487,41.1117543],[-74.978764,41.1111641],[-74.9798816,41.1105528],[-74.9813162,41.1093611],[-74.982212,41.108245],[-74.9837546,41.1049826],[-74.9841965,41.1039994],[-74.985804,41.1021079],[-74.9872485,41.0998953],[-74.9887704,41.09643],[-74.9895091,41.0953743],[-74.991228,41.0936375],[-74.9915097,41.0932119],[-74.9916535,41.0927768],[-74.9919269,41.0902535],[-74.9919255,41.0899954],[-74.9918649,41.0894289],[-74.9916965,41.0890517],[-74.9913859,41.0887153],[-74.990991,41.0884739],[-74.9905308,41.0883163],[-74.9896548,41.0881764],[-74.9883827,41.0881462],[-74.9868521,41.0882389],[-74.984782,41.088545],[-74.9835158,41.0889151],[-74.9814581,41.0899501],[-74.9788854,41.0918524],[-74.977978,41.0925234],[-74.9770784,41.0931626],[-74.9763435,41.0935891],[-74.972036,41.095562],[-74.9713437,41.0957688],[-74.9706816,41.0959642],[-74.9699507,41.0960552],[-74.969434,41.096074],[-74.968768,41.0959989],[-74.9682663,41.0958438],[-74.9678716,41.0956182],[-74.9674068,41.095214],[-74.9669314,41.0946008],[-74.9667601,41.0942854],[-74.9666548,41.0938431],[-74.9666006,41.0932968],[-74.9666462,41.0929769],[-74.9669357,41.0916985],[-74.9680129,41.0884118],[-74.9690346,41.0869382],[-74.9699303,41.0859989],[-74.9709763,41.0852768],[-74.9717417,41.0848354],[-74.9726747,41.0843167],[-74.9741946,41.0834225],[-74.9755808,41.0827729],[-74.9774687,41.0818966],[-74.9787292,41.0812221],[-74.9801509,41.0804357],[-74.9824146,41.0793467],[-74.9831933,41.0791146],[-74.9840088,41.0789559],[-74.9858583,41.0787213],[-74.9881514,41.0785537],[-74.9899494,41.078216],[-74.9920469,41.0776682],[-74.9940892,41.0768978],[-74.9956863,41.0760798],[-74.9992465,41.0741483],[-75.0011207,41.0729035],[-75.0025011,41.0718175],[-75.0034966,41.0708974],[-75.0047481,41.0695813],[-75.0064438,41.067814],[-75.0069371,41.0676166],[-75.0076748,41.0675269],[-75.0084227,41.0675046],[-75.0091742,41.0675426],[-75.0107217,41.0676638],[-75.0117216,41.0675789],[-75.0121534,41.0674239],[-75.0124598,41.067227],[-75.0131,41.0667079],[-75.0136978,41.065752],[-75.0142796,41.0638891],[-75.0152239,41.0619952],[-75.016257,41.0600492],[-75.0166225,41.0588362],[-75.0168372,41.0577123],[-75.0172033,41.0566786],[-75.0175435,41.0559684],[-75.0191013,41.0541148],[-75.0208275,41.0517472],[-75.0215139,41.0510213],[-75.0223069,41.0504065],[-75.0242419,41.0487949],[-75.0258746,41.0471376],[-75.0263691,41.0465874],[-75.0269335,41.0458086],[-75.0272467,41.0451866],[-75.0273432,41.0447047],[-75.0272343,41.0436164],[-75.0265065,41.0415744],[-75.0264432,41.0406652],[-75.0267092,41.0399646],[-75.0273987,41.0394356],[-75.0291556,41.0389042],[-75.0307825,41.0384792],[-75.0324603,41.0380358],[-75.0346302,41.0370567],[-75.0356479,41.0364202],[-75.0382303,41.0342041],[-75.0416613,41.0318818],[-75.0444424,41.0305399],[-75.0446583,41.0304661],[-75.0479961,41.0293444],[-75.0491855,41.0287785],[-75.049302,41.0287231],[-75.0507382,41.0280396],[-75.052639,41.0270366],[-75.0551496,41.025631],[-75.0578417,41.0245828],[-75.0598649,41.0241122],[-75.0676695,41.0202606],[-75.0700277,41.0189114],[-75.0734844,41.0178468],[-75.0749727,41.0173884],[-75.081101,41.016838],[-75.0819785,41.0166762],[-75.0833935,41.0164152],[-75.0856674,41.0147981],[-75.0863966,41.0142796],[-75.0895197,41.0123617],[-75.0905536,41.0113972],[-75.0935206,41.0094491],[-75.0948668,41.0089558],[-75.0956607,41.0086649],[-75.0961436,41.0084879],[-75.0987396,41.0075366],[-75.0995589,41.0072364],[-75.1026824,41.0062882],[-75.104955,41.0055983],[-75.1057425,41.0053592],[-75.106774,41.005046],[-75.1079769,41.0046808],[-75.1117077,41.0021472],[-75.112543,41.0016809],[-75.1127714,41.0015535],[-75.1132517,41.0012854],[-75.1159663,40.99977],[-75.1181085,40.9986743],[-75.123423,40.996129],[-75.1255185,40.9949556],[-75.1271198,40.9941316],[-75.1279736,40.9935799],[-75.1291829,40.99251],[-75.130693,40.991174],[-75.1313473,40.9906685],[-75.1314171,40.9905536],[-75.1314914,40.9904162],[-75.1315578,40.9902765],[-75.1316163,40.9901347],[-75.1316667,40.9899912],[-75.1317089,40.9898462],[-75.1317428,40.9897],[-75.1317685,40.9895528],[-75.1317858,40.9894048],[-75.1317947,40.9892565],[-75.1317982,40.9888853],[-75.1317938,40.9885671],[-75.1317813,40.9882225],[-75.1317604,40.9878715],[-75.1317324,40.9875341],[-75.131696,40.9871904],[-75.1316391,40.986763],[-75.1316116,40.9857662],[-75.1316859,40.9848835],[-75.1320666,40.9828411],[-75.132419,40.9816181],[-75.1328611,40.9800835],[-75.1330902,40.9797198],[-75.1345134,40.9784401],[-75.1351456,40.977564],[-75.1354181,40.9769849],[-75.1354794,40.9768545],[-75.1356788,40.9764307],[-75.1357995,40.9760151],[-75.1357975,40.975605],[-75.1357124,40.9742704],[-75.135543,40.9733519],[-75.1352602,40.9728575],[-75.1349591,40.9722517],[-75.1342275,40.9712111],[-75.1323438,40.9696066],[-75.1320849,40.9694419],[-75.131655,40.9692271],[-75.1307015,40.9689995],[-75.1297796,40.9689401],[-75.1290171,40.9689852],[-75.1265753,40.9695362],[-75.1261322,40.969596],[-75.1246224,40.9697996],[-75.123633,40.969899],[-75.1230469,40.9698797],[-75.1226198,40.9698003],[-75.1212289,40.9692321],[-75.1206949,40.9688493],[-75.1203575,40.9685382],[-75.1201166,40.9681378],[-75.1199296,40.9677491],[-75.1195084,40.9665516],[-75.1194252,40.9663565],[-75.1188608,40.9647618],[-75.1184479,40.9639232],[-75.118308,40.9635767],[-75.1181408,40.961695],[-75.1181796,40.96022],[-75.1184562,40.9591108],[-75.1189519,40.9577915],[-75.1189989,40.9569509],[-75.1187245,40.9551648],[-75.1184985,40.9546155],[-75.1177352,40.9530445],[-75.1147364,40.9504813],[-75.112099,40.9484407],[-75.1120694,40.9484184],[-75.111683,40.948111],[-75.1112616,40.9476856],[-75.1109028,40.9471814],[-75.106812,40.9410288],[-75.1064624,40.9404418],[-75.106153,40.939671],[-75.1061416,40.9385091],[-75.1058556,40.9367229],[-75.1053427,40.9355088],[-75.1040563,40.9338435],[-75.1002227,40.9297575],[-75.0997567,40.9291866],[-75.0987445,40.9275737],[-75.0979471,40.9265108],[-75.0966602,40.9250851],[-75.0957316,40.9242281],[-75.0932972,40.92247],[-75.0912008,40.9210821],[-75.0893143,40.9197391],[-75.0883454,40.9191315],[-75.0879634,40.918911],[-75.0874531,40.9186378],[-75.0803906,40.9145778],[-75.0796401,40.9140921],[-75.0785553,40.9128585],[-75.0776922,40.911483],[-75.0772467,40.9105425],[-75.0761102,40.9074047],[-75.0757631,40.9056123],[-75.0754534,40.902617],[-75.0750199,40.9002996],[-75.0749997,40.9001568],[-75.0750865,40.8989821],[-75.0753138,40.8979939],[-75.0757483,40.89654],[-75.075831,40.8961085],[-75.0758292,40.8956215],[-75.0754473,40.8942054],[-75.0748368,40.8933041],[-75.0739065,40.8922139],[-75.0727738,40.8911159],[-75.069285,40.8884803],[-75.0680183,40.8875049],[-75.0658792,40.8858611],[-75.064988,40.8849458],[-75.0642858,40.8841534],[-75.0627446,40.882414],[-75.0601358,40.8792835],[-75.0590933,40.8781748],[-75.0543032,40.8740724],[-75.0532852,40.8732164],[-75.0524112,40.8723155],[-75.0518354,40.871406],[-75.0514216,40.8702417],[-75.0508346,40.8680943],[-75.0506393,40.8669821],[-75.0507821,40.8659841],[-75.0511527,40.8648123],[-75.0516819,40.8641203],[-75.0524271,40.8636681],[-75.053563,40.8632801],[-75.054731,40.8626695],[-75.0572429,40.8613796],[-75.0587772,40.8604817],[-75.0617955,40.8574606],[-75.0634769,40.8560326],[-75.0638859,40.8554981],[-75.064233,40.8549011],[-75.0643844,40.8543491],[-75.0642985,40.8536879],[-75.063753,40.8524186],[-75.0633443,40.8507708],[-75.0638796,40.8493381],[-75.0643898,40.8483726],[-75.064771,40.8479484],[-75.0652428,40.8476211],[-75.0658815,40.8473935],[-75.0681771,40.847167],[-75.0705199,40.8471593],[-75.0712475,40.8472551],[-75.0718522,40.8474839],[-75.0726254,40.8478566],[-75.073993,40.8490172],[-75.0748424,40.8494575],[-75.0756182,40.8497527],[-75.076684,40.849875],[-75.0785432,40.8498421],[-75.0825051,40.8495241],[-75.0889381,40.8493451],[-75.0909331,40.8492153],[-75.0918678,40.849063],[-75.0924688,40.8489019],[-75.0935924,40.8484399],[-75.0944864,40.847991],[-75.0952437,40.8474609],[-75.0960385,40.8467409],[-75.0965109,40.8461432],[-75.0968176,40.8453142],[-75.0972419,40.8427605],[-75.0973648,40.8420206],[-75.0973363,40.840666],[-75.0971726,40.8397666],[-75.0965891,40.8383178],[-75.0961136,40.8377547],[-75.0956836,40.8372455],[-75.0940774,40.8360441],[-75.0910816,40.8341528],[-75.0888585,40.8324201],[-75.0864553,40.8307585],[-75.084483,40.8289306],[-75.0843938,40.8288219],[-75.0841012,40.8284376],[-75.0837968,40.8277838],[-75.0835508,40.8270029],[-75.0834595,40.8261032],[-75.0838783,40.8242053],[-75.0847517,40.8228934],[-75.0870426,40.8203419],[-75.088548,40.8180879],[-75.0896867,40.8164387],[-75.0905254,40.8157331],[-75.0926749,40.8143421],[-75.0944381,40.8131719],[-75.096053,40.8121621],[-75.0982508,40.8100942],[-75.0994054,40.8085428],[-75.1002677,40.8069892],[-75.1006269,40.8061326],[-75.1006499,40.8045953],[-75.1002451,40.8024246],[-75.1002438,40.8007299],[-75.1004188,40.7999733],[-75.1007354,40.7993835],[-75.1029121,40.7970639],[-75.1046947,40.79546],[-75.1067721,40.7935193],[-75.1077529,40.7920837],[-75.1083096,40.7914205],[-75.10883,40.7910223],[-75.1097123,40.7905004],[-75.1106499,40.7901032],[-75.1128286,40.7896832],[-75.114744,40.7894735],[-75.116441,40.78933],[-75.1175104,40.7890581],[-75.1185586,40.7886343],[-75.1190932,40.7884115],[-75.1212779,40.7875006],[-75.1229845,40.7865245],[-75.1242561,40.7854127],[-75.1252355,40.7845734],[-75.125873,40.7840077],[-75.1272356,40.7820475],[-75.1297322,40.7784498],[-75.1304276,40.7772197],[-75.1314771,40.7756396],[-75.1324073,40.7746632],[-75.1331274,40.7741475],[-75.1335828,40.7739402],[-75.1343174,40.7736998],[-75.1353903,40.7735469],[-75.1364486,40.7735328],[-75.139031,40.7737644],[-75.1421812,40.7740364],[-75.1434239,40.774203],[-75.1445229,40.7744445],[-75.1454293,40.7745899],[-75.1467123,40.7747071],[-75.1480631,40.7747125],[-75.149378,40.774786],[-75.1503334,40.774855],[-75.1510993,40.774941],[-75.1518606,40.7751165],[-75.1558822,40.7764611],[-75.1568814,40.7767839],[-75.1603174,40.777553],[-75.1637719,40.7782609],[-75.1654494,40.7784127],[-75.1665816,40.7784565],[-75.167745,40.7784253],[-75.1695633,40.7781817],[-75.1711556,40.7777278],[-75.1718787,40.7773152],[-75.1724557,40.7769104],[-75.1737174,40.7754888],[-75.1741387,40.7750141],[-75.1751386,40.7736026],[-75.1754389,40.7729369],[-75.1768505,40.7687345],[-75.1774268,40.7645876],[-75.1774708,40.7642312],[-75.1777436,40.7634308],[-75.1782599,40.7626427],[-75.17904,40.761897],[-75.1794856,40.7615236],[-75.1813061,40.7601989],[-75.1827606,40.759354],[-75.1840602,40.7587202],[-75.18534,40.7582093],[-75.1888823,40.7572014],[-75.190412,40.7567164],[-75.1918372,40.755984],[-75.1954983,40.7526475],[-75.1959866,40.7521089],[-75.1965431,40.7511927],[-75.1967195,40.7507019],[-75.196861,40.750097],[-75.1968506,40.7494047],[-75.196635,40.7482788],[-75.1961873,40.7471134],[-75.195349,40.745473],[-75.1941609,40.7439937],[-75.192996,40.742959],[-75.1929721,40.7429378],[-75.191994,40.7422568],[-75.1913244,40.7417875],[-75.1894578,40.740381],[-75.1894226,40.7403545],[-75.1880842,40.7392194],[-75.18578,40.737266],[-75.1843944,40.7357555],[-75.1838002,40.7349147],[-75.182836,40.7336515],[-75.1825909,40.7330202],[-75.1822151,40.7318472],[-75.1821856,40.730701],[-75.1822087,40.7303214],[-75.1824195,40.7299468],[-75.1834202,40.7286788],[-75.1845743,40.7273657],[-75.1854899,40.7265009],[-75.1857187,40.7262019],[-75.1859416,40.7259005],[-75.1861281,40.7255248],[-75.1862684,40.7248625],[-75.1862712,40.7248386],[-75.186372,40.72397],[-75.1862872,40.7222252],[-75.1862338,40.7208247],[-75.1863363,40.7202917],[-75.1864014,40.719996],[-75.1866392,40.7196189],[-75.1870865,40.7191565],[-75.1886997,40.7182343],[-75.1893523,40.7179456],[-75.1906575,40.7171853],[-75.1917958,40.7163335],[-75.1927397,40.7155752],[-75.1933126,40.7149988],[-75.1937833,40.7143887],[-75.1942319,40.7138255],[-75.1948106,40.7127395],[-75.1948196,40.7127249],[-75.1953437,40.7113301],[-75.1956602,40.7104932],[-75.1961102,40.7095585],[-75.1969434,40.7081769],[-75.1974585,40.7073392],[-75.197939,40.706629],[-75.198036,40.7064289],[-75.1982949,40.705926],[-75.1985025,40.7053535],[-75.1993436,40.703436],[-75.1997707,40.7019445],[-75.1999854,40.7014373],[-75.2002375,40.700395],[-75.2004698,40.6996792],[-75.2005257,40.699507],[-75.2007832,40.6989511],[-75.2012671,40.6979005],[-75.2012771,40.6978864],[-75.2016356,40.697378],[-75.2026672,40.6960982],[-75.2029352,40.6957182],[-75.203211,40.6951427],[-75.2035879,40.6942367],[-75.2037349,40.693792],[-75.2040369,40.6925947],[-75.2040737,40.6917488],[-75.2040571,40.6915374],[-75.2040294,40.6911856],[-75.2039994,40.6908231],[-75.2037505,40.6899864],[-75.2035906,40.689449],[-75.2029433,40.6887364],[-75.2025857,40.6879558],[-75.2007832,40.6850758],[-75.1997555,40.6838787],[-75.1980154,40.6820902],[-75.1963703,40.6810492],[-75.1957931,40.680799],[-75.1948809,40.6804937],[-75.1915475,40.6797119],[-75.1901466,40.6794657],[-75.1895699,40.67943],[-75.1889273,40.6794619],[-75.1883617,40.679522],[-75.1876452,40.6796776],[-75.1870506,40.6798161],[-75.18657,40.6799175],[-75.1861259,40.6799737],[-75.1857265,40.6799912],[-75.1852498,40.6799937],[-75.1846791,40.6799679],[-75.1840129,40.6799399],[-75.1834167,40.6798937],[-75.1827097,40.6797988],[-75.1820895,40.6796993],[-75.1814446,40.6795662],[-75.1808011,40.6794002],[-75.180254,40.6792231],[-75.1794235,40.6788625],[-75.1789074,40.6786325],[-75.17828,40.678269],[-75.1779616,40.6779848],[-75.1776048,40.6775745],[-75.1773015,40.6771325],[-75.177111,40.6766797],[-75.176996,40.676288],[-75.1769507,40.6758846],[-75.1769164,40.6754287],[-75.1769349,40.6749477],[-75.1769784,40.6744935],[-75.1770672,40.6739876],[-75.1772254,40.6734766],[-75.1775573,40.672732],[-75.1777711,40.6723323],[-75.1778188,40.6722432],[-75.1779737,40.6720624],[-75.178218,40.6717771],[-75.1794357,40.6703187],[-75.1798374,40.6698837],[-75.1803333,40.6694241],[-75.1810322,40.6687752],[-75.1810712,40.668739],[-75.1813062,40.6683891],[-75.1815721,40.6678445],[-75.1817896,40.6673432],[-75.1819905,40.6669747],[-75.1823341,40.6665296],[-75.1828811,40.6659557],[-75.1832552,40.6656265],[-75.1836987,40.6653167],[-75.1841628,40.6650784],[-75.1848159,40.6647732],[-75.1855027,40.6645043],[-75.1864126,40.6641961],[-75.1868377,40.6640634],[-75.1874005,40.6639871],[-75.1878725,40.6638466],[-75.1884057,40.6636276],[-75.1890766,40.663163],[-75.1900991,40.662351],[-75.1910879,40.6615027],[-75.1917764,40.6608875],[-75.1923112,40.6603222],[-75.1931306,40.6593281],[-75.1937464,40.6584716],[-75.1941274,40.657965],[-75.1947381,40.6572414],[-75.1954067,40.6565282],[-75.1957959,40.6561105],[-75.1960481,40.6559207],[-75.1964874,40.6557173],[-75.1970198,40.655516],[-75.1972953,40.6553267],[-75.1976828,40.6549535],[-75.197856,40.6546909],[-75.1979131,40.6544169],[-75.1979222,40.6541773],[-75.1977784,40.6536681],[-75.1976587,40.6528308],[-75.1976346,40.6525461],[-75.1976662,40.6523336],[-75.1978024,40.6521235],[-75.1980086,40.651915],[-75.1985621,40.6514655],[-75.1988988,40.6511977],[-75.1991181,40.6509538],[-75.1993263,40.6506921],[-75.1995625,40.6503066],[-75.1998262,40.6498152],[-75.2000181,40.6493665],[-75.2001379,40.6489785],[-75.2002054,40.6484295],[-75.2002277,40.6478438],[-75.2002293,40.6474976],[-75.2001422,40.6470299],[-75.200001,40.6467603],[-75.1997674,40.6464622],[-75.1994543,40.646109],[-75.1990347,40.6457977],[-75.1981309,40.6453427],[-75.1975249,40.6450274],[-75.1970913,40.6447781],[-75.1966718,40.6444669],[-75.1962213,40.6440485],[-75.1955932,40.6433953],[-75.1952999,40.64307],[-75.1939592,40.6427993],[-75.1932157,40.6421074],[-75.1925923,40.6414356],[-75.1921217,40.6408721],[-75.1914797,40.6394778],[-75.1909329,40.6379151],[-75.1907309,40.6371199],[-75.1907893,40.6366587],[-75.1907462,40.6361829],[-75.1907234,40.6356519],[-75.1906431,40.6352253],[-75.1904406,40.6343803],[-75.1902992,40.6336162],[-75.1901945,40.6330288],[-75.190117,40.6320059],[-75.1900424,40.631214],[-75.1899414,40.6305014],[-75.1897996,40.629637],[-75.1896601,40.6287104],[-75.1894654,40.6277027],[-75.1893863,40.6273806],[-75.1893321,40.6271596],[-75.1893142,40.6270867],[-75.1892469,40.6267122],[-75.1891793,40.6263466],[-75.1891574,40.626018],[-75.1891079,40.6257861],[-75.1890247,40.6255267],[-75.1887713,40.6251393],[-75.1885899,40.6247002],[-75.1885493,40.6242375],[-75.1886092,40.6232798],[-75.1886878,40.6227488],[-75.1887578,40.6224291],[-75.1888716,40.6222111],[-75.1892642,40.621394],[-75.1898516,40.6203592],[-75.1900351,40.6201324],[-75.1902449,40.6199959],[-75.1904177,40.6198834],[-75.1910101,40.6196301],[-75.1917502,40.6194777],[-75.1924041,40.6194478],[-75.1928573,40.6194845],[-75.193378,40.6195848],[-75.193762,40.6196022],[-75.1939219,40.6195841],[-75.1942882,40.6195427],[-75.1951207,40.6194102],[-75.196574,40.6192026],[-75.1975603,40.6190113],[-75.1982052,40.6189101],[-75.1987213,40.6188238],[-75.1994272,40.6186529],[-75.2001122,40.6184194],[-75.2005858,40.6182257],[-75.2008856,40.6180101],[-75.2009573,40.6179585],[-75.201224,40.6176892],[-75.2015166,40.6173493],[-75.2017284,40.61699],[-75.2018443,40.6166995],[-75.201876,40.6164782],[-75.2018379,40.6162553],[-75.2017453,40.6159337],[-75.2015192,40.6154403],[-75.2011129,40.6147832],[-75.2004198,40.6137023],[-75.1999424,40.613079],[-75.1995849,40.6126715],[-75.1988537,40.6119805],[-75.1984267,40.6115626],[-75.1980326,40.6111987],[-75.1976862,40.6108092],[-75.197364,40.6103937],[-75.1971217,40.6100243],[-75.1968938,40.6095841],[-75.1964884,40.6087976],[-75.1964537,40.6087173],[-75.1959651,40.6076767],[-75.1959104,40.6075603],[-75.1955751,40.606878],[-75.1951443,40.6062559],[-75.1945523,40.6055408],[-75.1938302,40.6046685],[-75.1923598,40.6031974],[-75.1920966,40.6027653],[-75.191949,40.6023537],[-75.1919194,40.6019091],[-75.1918936,40.6007051],[-75.1919407,40.5997226],[-75.1919368,40.5988752],[-75.1917568,40.5973147],[-75.1912292,40.5952608],[-75.1912221,40.5952434],[-75.1906814,40.5940321],[-75.1901044,40.592806],[-75.1900911,40.5927778],[-75.1896507,40.5917178],[-75.1895284,40.5912835],[-75.189492,40.5909245],[-75.1894276,40.590288],[-75.1894197,40.5896679],[-75.1896796,40.5884372],[-75.1900119,40.5877088],[-75.1908535,40.5863307],[-75.1912908,40.5857059],[-75.1916342,40.5853397],[-75.1921026,40.5849351],[-75.1928734,40.5843709],[-75.1934398,40.5838201],[-75.1940472,40.5830887],[-75.1950027,40.581671],[-75.1952696,40.5811508],[-75.1954119,40.5805912],[-75.1954986,40.5799609],[-75.1955432,40.5794401],[-75.1955488,40.5790887],[-75.1954907,40.5787249],[-75.1953089,40.5781463],[-75.1950644,40.5775756],[-75.1947655,40.5770469],[-75.1943555,40.57648],[-75.1938686,40.5759614],[-75.1927434,40.5750248],[-75.1914678,40.5739629],[-75.1906749,40.5731086],[-75.1898906,40.5720256],[-75.1895212,40.571624],[-75.1882437,40.570437],[-75.1854376,40.5687574],[-75.1850794,40.568543],[-75.1840234,40.5679474],[-75.1832859,40.5676092],[-75.1813363,40.5669224],[-75.1789424,40.5661397],[-75.1759966,40.5652214],[-75.1744285,40.564716],[-75.1731624,40.564488],[-75.1731149,40.5644794],[-75.1719654,40.5643679],[-75.1686118,40.564282],[-75.166682,40.5641982],[-75.1637413,40.56417],[-75.1637088,40.5641697],[-75.1624092,40.5640548],[-75.1620053,40.5640672],[-75.1613182,40.564162],[-75.1606427,40.5643801],[-75.1598923,40.5646208],[-75.1591248,40.5649198],[-75.1585197,40.5651836],[-75.1579171,40.5654848],[-75.1572345,40.5659129],[-75.1544364,40.5679016],[-75.1542705,40.5680199],[-75.1524043,40.5695237],[-75.1506253,40.5708568],[-75.1501831,40.5711617],[-75.1482599,40.5722425],[-75.1459246,40.5735548],[-75.144263,40.5743042],[-75.1421168,40.5749711],[-75.1401834,40.575471],[-75.1383361,40.5756867],[-75.1361585,40.575709],[-75.134718,40.575605],[-75.1323197,40.5752718],[-75.1297863,40.5747924],[-75.1277979,40.5745619],[-75.1235076,40.574128],[-75.1213609,40.5738432],[-75.1199807,40.5737702],[-75.1189924,40.5737179],[-75.1181226,40.5736316],[-75.1173973,40.5734813],[-75.1165146,40.5732609],[-75.1155881,40.5729609],[-75.1124856,40.5716887],[-75.1061684,40.5695779],[-75.1049412,40.5691061],[-75.1036357,40.5686686],[-75.1014568,40.568012],[-75.1008357,40.5678248],[-75.0998213,40.5673796],[-75.0992992,40.56706],[-75.0976573,40.5659213],[-75.0954551,40.563918],[-75.0931631,40.5618628],[-75.0926319,40.5612999],[-75.0912527,40.5596529],[-75.0907335,40.5592537],[-75.0891712,40.5579662],[-75.0878309,40.5569913],[-75.0871747,40.5563309],[-75.086832,40.5560212],[-75.0859048,40.5551831],[-75.083837,40.553461],[-75.0832658,40.5529532],[-75.082951,40.5526733],[-75.0825844,40.5522961],[-75.0805237,40.5501755],[-75.0799718,40.549616],[-75.0785871,40.5484072],[-75.0780729,40.5479583],[-75.0770702,40.5472304],[-75.075559,40.5461333],[-75.0745248,40.5454929],[-75.0737173,40.5450222],[-75.0729563,40.544652],[-75.0710568,40.5437279],[-75.0690902,40.5426002],[-75.0686373,40.5422473],[-75.0679051,40.541244],[-75.0676394,40.5407037],[-75.0673981,40.5399995],[-75.067064,40.5382492],[-75.0667412,40.5365583],[-75.0664474,40.5350191],[-75.0660402,40.5326262],[-75.0659954,40.5322911],[-75.0658052,40.5308676],[-75.0655967,40.5296697],[-75.0652592,40.5268818],[-75.0651848,40.5260825],[-75.0651669,40.5258373],[-75.0651717,40.5250532],[-75.0652542,40.5239701],[-75.0652892,40.5237963],[-75.06536,40.5234446],[-75.0655682,40.5224109],[-75.0657221,40.5211518],[-75.0658785,40.5186984],[-75.0656854,40.5171118],[-75.0654145,40.5147025],[-75.0650653,40.5115717],[-75.0649743,40.5103132],[-75.0648614,40.5070207],[-75.064909,40.506152],[-75.0649342,40.5056916],[-75.064966,40.505111],[-75.0649295,40.5037257],[-75.0649089,40.5029454],[-75.0647714,40.5023396],[-75.0643597,40.5014123],[-75.0633429,40.4994574],[-75.0631729,40.4987685],[-75.0630628,40.497146],[-75.0630263,40.4961489],[-75.0630219,40.4961219],[-75.0626231,40.4936604],[-75.0624991,40.4923998],[-75.0623422,40.4908047],[-75.0620493,40.4886384],[-75.0620097,40.4883458],[-75.0620647,40.4878676],[-75.0625924,40.4867841],[-75.0627404,40.486226],[-75.0628182,40.4856251],[-75.0628149,40.4834607],[-75.0629765,40.4816564],[-75.0629827,40.4810539],[-75.0630425,40.4804525],[-75.0633716,40.4789531],[-75.0642325,40.477165],[-75.0646458,40.4766954],[-75.0658482,40.4753398],[-75.0664442,40.4747921],[-75.0668865,40.474501],[-75.0676182,40.4741482],[-75.0679158,40.4738811],[-75.0680887,40.4735974],[-75.0681761,40.4732023],[-75.0682699,40.4699445],[-75.0682004,40.4694362],[-75.0676546,40.4682728],[-75.0673263,40.4670598],[-75.0670672,40.4663552],[-75.0670081,40.4660388],[-75.0670787,40.4656158],[-75.0674075,40.4645688],[-75.0680387,40.4631315],[-75.068149,40.4626136],[-75.0683087,40.4622063],[-75.0689541,40.4613172],[-75.0698971,40.4592571],[-75.0706164,40.4578641],[-75.0708374,40.4572666],[-75.0709874,40.4566537],[-75.0710433,40.4561481],[-75.0709863,40.455777],[-75.0708218,40.4554033],[-75.0698015,40.4539963],[-75.0693167,40.4531084],[-75.0684073,40.4507176],[-75.0669476,40.4477389],[-75.0662094,40.4460096],[-75.0660732,40.4453763],[-75.0659767,40.4437441],[-75.0658315,40.4424395],[-75.065722,40.4419075],[-75.0654084,40.4410729],[-75.0647014,40.4397423],[-75.064283,40.4385409],[-75.0644239,40.4372266],[-75.0645038,40.4367819],[-75.064473,40.4364356],[-75.0633195,40.4339162],[-75.0628714,40.4324955],[-75.0624497,40.4305403],[-75.0623483,40.4294832],[-75.0622713,40.4261458],[-75.0619568,40.4244063],[-75.061759,40.4239297],[-75.0615239,40.4233632],[-75.0613202,40.4228723],[-75.0608209,40.4219813],[-75.0604437,40.4211495],[-75.0603952,40.4210425],[-75.0601878,40.4206518],[-75.0598482,40.420124],[-75.0595309,40.4196328],[-75.0593786,40.4194481],[-75.0592557,40.4192981],[-75.0584885,40.4183648],[-75.0579979,40.4178382],[-75.0573691,40.4172816],[-75.0569056,40.416951],[-75.0558913,40.4164388],[-75.0540203,40.4158355],[-75.0525825,40.4154467],[-75.0518208,40.4153045],[-75.0500282,40.4150673],[-75.0498139,40.4150287],[-75.048216,40.4147406],[-75.047961,40.4146665],[-75.0477774,40.4146132],[-75.0475027,40.4145271],[-75.0463102,40.4141364],[-75.0453657,40.4136258],[-75.0445677,40.4130017],[-75.0438082,40.412393],[-75.0428329,40.4115002],[-75.0422097,40.4106447],[-75.0416678,40.4100573],[-75.0412888,40.4097638],[-75.0406317,40.409624],[-75.0402884,40.4094916],[-75.039876,40.4093109],[-75.0393104,40.4089694],[-75.0372186,40.4077158],[-75.0356263,40.4068602],[-75.0349678,40.4065064],[-75.0335928,40.4057192],[-75.0324064,40.4051583],[-75.0318434,40.404994],[-75.03055,40.4046947],[-75.0281389,40.4040363],[-75.0273781,40.4038762],[-75.0256984,40.4037302],[-75.0241376,40.4038088],[-75.0227358,40.4040249],[-75.0213743,40.4043034],[-75.0202777,40.4045833],[-75.0133644,40.406197],[-75.0104597,40.4069945],[-75.0079322,40.407559],[-75.0069678,40.4076825],[-75.0061084,40.4077064],[-75.0046411,40.4077369],[-75.0037252,40.4078421],[-75.0024385,40.408194],[-75.0012932,40.4087339],[-75.0003875,40.4092956],[-74.9998953,40.4096626],[-74.9993374,40.4100621],[-74.9984837,40.4103824],[-74.9976834,40.4104928],[-74.9969357,40.4105287],[-74.9960449,40.4104888],[-74.9947165,40.410389],[-74.9924616,40.4099957],[-74.9906027,40.4094147],[-74.9883946,40.4084387],[-74.9876951,40.4080248],[-74.9870152,40.4074718],[-74.9865741,40.4071547],[-74.9859541,40.4067089],[-74.9858415,40.4066279],[-74.9847955,40.4057547],[-74.9838739,40.4051623],[-74.9833982,40.4048566],[-74.9818156,40.4040838],[-74.979172,40.4028991],[-74.9782416,40.4024821],[-74.9770838,40.4020458],[-74.9730215,40.400764],[-74.9702827,40.4000447],[-74.9689338,40.3995794],[-74.9675952,40.398861],[-74.9668047,40.3983356],[-74.9665578,40.3981365],[-74.9656668,40.3974179],[-74.9651733,40.396877],[-74.9648896,40.3965659],[-74.9645248,40.3960834],[-74.9640335,40.3953368],[-74.9636331,40.3946406],[-74.9629939,40.3930405],[-74.9624568,40.3912877],[-74.9619032,40.3899429],[-74.9612148,40.3884968],[-74.9609661,40.3880497],[-74.9601261,40.3869104],[-74.9570196,40.3819589],[-74.9563071,40.3808063],[-74.9554769,40.3791706],[-74.95441,40.3770684],[-74.9542563,40.3766833],[-74.9541817,40.3764965],[-74.953922,40.3758515],[-74.9534579,40.3746891],[-74.952981,40.3735144],[-74.9524382,40.3723479],[-74.950312,40.3679672],[-74.9499279,40.3672802],[-74.9489693,40.3655659],[-74.9487465,40.3649213],[-74.9486988,40.364786],[-74.9485204,40.3642808],[-74.9483566,40.3636493],[-74.9482799,40.3633536],[-74.9480629,40.3625172],[-74.947479,40.3611937],[-74.9474199,40.3610596],[-74.9466562,40.3589008],[-74.9462049,40.3579459],[-74.9461747,40.3578819],[-74.9461003,40.3566984],[-74.9459838,40.3553844],[-74.9459437,40.3549319],[-74.94558,40.354187],[-74.9455484,40.3522633],[-74.9455108,40.3511555],[-74.9454628,40.3497411],[-74.9454293,40.348756],[-74.9452498,40.3473073],[-74.9450382,40.3462721],[-74.9445219,40.3449523],[-74.9441517,40.3441463],[-74.9437424,40.3432549],[-74.942909,40.341683],[-74.9429062,40.3416777],[-74.9427349,40.3413545],[-74.942001,40.340119],[-74.9416335,40.339641],[-74.9404207,40.3382787],[-74.9392805,40.3372472],[-74.9383122,40.3364749],[-74.9353528,40.3344448],[-74.9338349,40.3334452],[-74.9330736,40.3329564],[-74.9316193,40.332157],[-74.9286842,40.3303247],[-74.9271286,40.3294141],[-74.9261616,40.328922],[-74.9253557,40.3284709],[-74.9245326,40.3280101],[-74.9238209,40.3275402],[-74.9229687,40.3268283],[-74.9218407,40.3257723],[-74.9185763,40.3230842],[-74.9160015,40.3208819],[-74.9151745,40.3203433],[-74.9140189,40.3196897],[-74.9109957,40.3181864],[-74.9108166,40.3180973],[-74.9068492,40.3164324],[-74.9035033,40.3156606],[-74.9022333,40.3154982],[-74.9003374,40.3154207],[-74.8979374,40.3154686],[-74.8966662,40.3152727],[-74.8940521,40.3142784],[-74.89242,40.3134648],[-74.8904316,40.3121733],[-74.8878807,40.3107033],[-74.8866453,40.3099157],[-74.885843,40.3093143],[-74.88206,40.3064781],[-74.8779844,40.3032011],[-74.8766136,40.3019981],[-74.8760258,40.3014822],[-74.8732725,40.2998075],[-74.8729007,40.2995338],[-74.8723001,40.2990916],[-74.8709522,40.2978926],[-74.8701424,40.2968492],[-74.8690937,40.2958508],[-74.8683318,40.2951253],[-74.8682299,40.2950283],[-74.867593,40.2944219],[-74.8653029,40.2922413],[-74.8640051,40.2903585],[-74.8633558,40.2894164],[-74.8611578,40.286326],[-74.8605432,40.2853537],[-74.8601756,40.2847187],[-74.8584451,40.2817291],[-74.8576232,40.2801074],[-74.8567389,40.2779899],[-74.8565737,40.2773908],[-74.8565498,40.2772921],[-74.8565018,40.2770938],[-74.8562846,40.2757999],[-74.8554309,40.2743478],[-74.8544725,40.2723356],[-74.85375,40.2708188],[-74.8536936,40.2706724],[-74.8533233,40.2697104],[-74.8530907,40.269163],[-74.8521918,40.2675987],[-74.8519488,40.2671759],[-74.8518743,40.2670554],[-74.8517044,40.2667802],[-74.850762,40.2656678],[-74.8480625,40.261181],[-74.8472183,40.2597778],[-74.8471419,40.2596463],[-74.8467521,40.2589751],[-74.8466007,40.2587144],[-74.845793,40.2576726],[-74.8452936,40.2568876],[-74.8446827,40.255662],[-74.8443115,40.2549036],[-74.8438223,40.2536551],[-74.8432774,40.2525414],[-74.8423866,40.2507207],[-74.8422115,40.2504423],[-74.841681,40.2498321],[-74.8407521,40.2489939],[-74.8400461,40.2484361],[-74.8384723,40.2473448],[-74.8360979,40.2461765],[-74.8356459,40.2460121],[-74.8351415,40.2458285],[-74.8340273,40.2454231],[-74.8305157,40.2442356],[-74.8260537,40.2425078],[-74.8243504,40.2418497],[-74.8216954,40.2407094],[-74.8215475,40.2404614],[-74.8211755,40.2398023],[-74.8207975,40.2392784],[-74.8201156,40.2387016],[-74.8195816,40.2383912],[-74.8195341,40.2383636],[-74.8194513,40.2383154],[-74.8185412,40.2377865],[-74.8171752,40.2372285],[-74.8155263,40.2364017],[-74.8147398,40.2360659],[-74.8138791,40.2358094],[-74.8114756,40.2353266],[-74.8106911,40.235169],[-74.8097822,40.2349385],[-74.8080041,40.234379],[-74.8072396,40.2340799],[-74.8041798,40.2326575],[-74.8017916,40.2317754],[-74.7998026,40.2309217],[-74.7971622,40.2296091],[-74.7966642,40.2294158],[-74.7961383,40.2293212],[-74.7950115,40.2292293],[-74.7944276,40.2291151],[-74.7937436,40.228863],[-74.7922806,40.2281576],[-74.7902961,40.2270233],[-74.7877849,40.2255355],[-74.7859412,40.2242628],[-74.785083,40.2237453],[-74.782009,40.2218915],[-74.7817556,40.22175],[-74.7807394,40.2211823],[-74.7781373,40.2198393],[-74.7774976,40.2195092],[-74.777031,40.2192415],[-74.7762012,40.2187654],[-74.775681,40.218467],[-74.7753079,40.218253],[-74.7726053,40.2164935],[-74.7722017,40.2161731],[-74.7717019,40.2156703],[-74.7712368,40.2150073],[-74.7706087,40.2141121],[-74.7698286,40.2127982],[-74.7690289,40.2114512],[-74.7685366,40.2101973],[-74.7684538,40.2099865],[-74.7681421,40.2089946],[-74.7681412,40.2089925],[-74.7680971,40.2088871],[-74.7680432,40.2087581],[-74.7678139,40.20821],[-74.7675101,40.2077022],[-74.7672707,40.2073662],[-74.7669077,40.2068567],[-74.7656085,40.2052434],[-74.7655978,40.2052312],[-74.7639062,40.2032994],[-74.7626918,40.2018382],[-74.7622738,40.2012542],[-74.7620648,40.2009621],[-74.7619623,40.2008405],[-74.7606656,40.1993028],[-74.7604352,40.1988849],[-74.7596423,40.1965965],[-74.7589977,40.1942671],[-74.7579663,40.1916257],[-74.7573721,40.1897587],[-74.7569327,40.1887661],[-74.7565076,40.1879959],[-74.755892,40.1871652],[-74.7551774,40.1863875],[-74.7546088,40.1858501],[-74.7544121,40.1856642],[-74.7531957,40.1847624],[-74.7520662,40.1840851],[-74.7515777,40.1838339],[-74.7506254,40.1833442],[-74.749392,40.1828308],[-74.7478141,40.1822633],[-74.7463964,40.1817533],[-74.7452015,40.1814631],[-74.7430208,40.1810732],[-74.7421131,40.1808459],[-74.7410455,40.1804109],[-74.739892,40.1797328],[-74.7382832,40.1784849],[-74.7373235,40.1777404],[-74.7358111,40.176442],[-74.7339149,40.1745409],[-74.7303845,40.1713752],[-74.7290969,40.1699158],[-74.7280566,40.1688703],[-74.7258152,40.1660528],[-74.7236265,40.1636812],[-74.7231402,40.163054],[-74.7225239,40.161941],[-74.7221472,40.1609856],[-74.7216457,40.1592134],[-74.7212521,40.1578227],[-74.7211635,40.1555357],[-74.7211448,40.1550536],[-74.7211073,40.154086],[-74.7219656,40.1499284],[-74.7233943,40.1476936],[-74.723723,40.1471794],[-74.723811,40.1470417],[-74.7259997,40.1454425],[-74.7311066,40.1423259],[-74.7346005,40.1398265],[-74.7357809,40.1387791],[-74.7375428,40.1374066],[-74.7392625,40.1358627],[-74.7399711,40.1354461],[-74.7408514,40.1350529],[-74.7420516,40.134668],[-74.7433487,40.1343234],[-74.7444668,40.1341255],[-74.7471022,40.1341749],[-74.7502724,40.1349568],[-74.751721,40.1350889],[-74.7534497,40.1350203],[-74.753756,40.134988],[-74.755753,40.1347772],[-74.757434,40.1346693],[-74.7584511,40.1345255],[-74.7595723,40.1342519],[-74.7607791,40.1337156],[-74.7637693,40.1320741],[-74.7652563,40.1312577],[-74.7668663,40.1303739],[-74.7695892,40.1289878],[-74.7732746,40.1270022],[-74.7764629,40.1251258],[-74.7793713,40.123414],[-74.7812145,40.1224021],[-74.782622,40.1217763],[-74.7837502,40.1214403],[-74.7849764,40.121196],[-74.7861427,40.1210563],[-74.7876631,40.1210316],[-74.7896159,40.1212298],[-74.7946023,40.1221839],[-74.7956219,40.1223154],[-74.796855,40.1224745],[-74.7994602,40.1229221],[-74.8015924,40.1234428],[-74.8047303,40.1244166],[-74.8066949,40.1251337],[-74.8083411,40.1258187],[-74.8095557,40.1262174],[-74.8121093,40.126847],[-74.8144009,40.1275198],[-74.8156974,40.1278037],[-74.8170073,40.1279462],[-74.818249,40.1279776],[-74.8196611,40.1279073],[-74.8209166,40.1276211],[-74.8219606,40.1272727],[-74.8225703,40.1270693],[-74.8234075,40.1266417],[-74.8241521,40.1262614],[-74.8255837,40.1250892],[-74.8264704,40.1240784],[-74.8273878,40.1226603],[-74.8283906,40.1207894],[-74.8286688,40.1203045],[-74.8300641,40.1178734],[-74.8321096,40.1139554],[-74.83262,40.1128052],[-74.8333937,40.1101193],[-74.8336386,40.1090131],[-74.8340453,40.1078509],[-74.8346447,40.1062824],[-74.8350257,40.1050783],[-74.835823,40.1033791],[-74.8366084,40.1019576],[-74.8373371,40.101091],[-74.8377109,40.100716],[-74.8380253,40.1004004],[-74.8396116,40.0995048],[-74.8412181,40.0987835],[-74.841425,40.0986906],[-74.8422231,40.0983747],[-74.8431671,40.0980011],[-74.8436948,40.097858],[-74.8466659,40.0970522],[-74.8482709,40.0964855],[-74.8497157,40.0958138],[-74.8530555,40.0939505],[-74.8550172,40.0927352],[-74.8558021,40.0920892],[-74.8565206,40.091414],[-74.8566299,40.0913113],[-74.8570171,40.0909239],[-74.8581545,40.0894255],[-74.8590071,40.0879551],[-74.8593448,40.0870268],[-74.8599709,40.0849728],[-74.8602275,40.0844274],[-74.8606614,40.0839415],[-74.8613049,40.0835989],[-74.8621828,40.0832345],[-74.8631864,40.0828731],[-74.8643312,40.0825705],[-74.8661785,40.0822301],[-74.8687836,40.081812],[-74.8700833,40.0816633],[-74.8734421,40.0812789],[-74.8750506,40.0810567],[-74.8762099,40.080837],[-74.8774992,40.0805107],[-74.8798269,40.079851],[-74.8807464,40.079555],[-74.8807668,40.0795484],[-74.8819762,40.0791591],[-74.8836924,40.0785118],[-74.8849892,40.0779784],[-74.8891042,40.0762858],[-74.8914727,40.0755027],[-74.8932159,40.0750624],[-74.8974237,40.0741175],[-74.899002,40.0737184],[-74.8995118,40.0735894],[-74.9003978,40.0732795],[-74.9012439,40.0729835],[-74.9043861,40.0717362],[-74.9058234,40.0713024],[-74.9089596,40.0706399],[-74.9093995,40.070547],[-74.9109449,40.0702773],[-74.9118935,40.0701117],[-74.9119098,40.0701109],[-74.9138413,40.0700104],[-74.9158147,40.0701463],[-74.9178838,40.070723],[-74.9199054,40.0715323],[-74.9209211,40.0718201],[-74.9220249,40.0718179],[-74.9236313,40.0716232],[-74.9279733,40.0706184],[-74.9297892,40.0699611],[-74.9326652,40.0688163],[-74.9333874,40.0685288],[-74.9422676,40.0645064],[-74.9445252,40.063275],[-74.9495228,40.0601809],[-74.9521359,40.0588582],[-74.9547711,40.0579102],[-74.9575095,40.0571958],[-74.9600999,40.05642],[-74.9618562,40.0557974],[-74.9689407,40.0527594],[-74.9743916,40.0498029],[-74.979038,40.0462589],[-74.981517,40.0442736],[-74.983913,40.042711],[-74.9858017,40.0410114],[-74.9873315,40.0396349],[-74.9885248,40.0385611],[-74.9890359,40.0381011],[-74.9894243,40.0377553],[-74.9906481,40.0367665],[-74.9944025,40.0337703],[-74.9964765,40.0321341],[-75.0000186,40.0293397],[-75.003853,40.026996],[-75.0061061,40.0254383],[-75.0094835,40.0231032],[-75.010369,40.022491],[-75.012421,40.020925],[-75.013776,40.020166],[-75.015515,40.019511],[-75.019645,40.018436],[-75.0239642,40.0176306],[-75.0275,40.017079],[-75.027736,40.0170113],[-75.0298,40.016419],[-75.030583,40.016194],[-75.030938,40.016092],[-75.031371,40.015976],[-75.031914,40.015831],[-75.034216,40.015219],[-75.038389,40.013793],[-75.0400581,40.0131672],[-75.041267,40.012714],[-75.0423357,40.0122646],[-75.042889,40.012032],[-75.04297,40.011998],[-75.04305,40.011964],[-75.043229,40.011889],[-75.0437912,40.0116527],[-75.044878,40.011196],[-75.04709,40.009941],[-75.0481356,40.0090769],[-75.0501122,40.0074434],[-75.0515883,40.0060577],[-75.052225,40.00546],[-75.053405,40.004568],[-75.053712,40.004078],[-75.0538278,40.003894],[-75.054205,40.0032947],[-75.056296,39.9999729],[-75.0567,39.999331],[-75.058089,39.997404],[-75.058502,39.994801],[-75.0594177,39.9926987],[-75.0599122,39.9915317],[-75.0599838,39.9914462],[-75.0610616,39.9899973],[-75.062064,39.98865],[-75.064175,39.986027],[-75.064627,39.985631],[-75.065096,39.985218],[-75.065331,39.985012],[-75.065372,39.9849751],[-75.065391,39.984958],[-75.065416,39.984936],[-75.065437,39.984917],[-75.06545,39.984905],[-75.065516,39.984848],[-75.065581,39.98479],[-75.065643,39.984735],[-75.065652,39.984728],[-75.065703,39.984683],[-75.065748,39.984643],[-75.066371,39.9840959],[-75.0675947,39.9831554],[-75.068593,39.982388],[-75.068802,39.98224],[-75.071264,39.980493],[-75.071506,39.980357],[-75.0742869,39.9787858],[-75.075605,39.978041],[-75.0787478,39.9773427],[-75.0802,39.97702],[-75.0831061,39.9759788],[-75.085831,39.975102],[-75.08714,39.975009],[-75.089658,39.97483],[-75.090861,39.974744],[-75.092365,39.974536],[-75.0938934,39.9743243],[-75.096372,39.973981],[-75.102287,39.972377],[-75.10604,39.971104],[-75.1081211,39.9703131],[-75.1124474,39.9685115],[-75.1143917,39.9676954],[-75.1188903,39.9655679],[-75.1192321,39.9654324],[-75.119491,39.965372],[-75.1219062,39.9639069],[-75.123821,39.962744],[-75.12391,39.962701],[-75.1249651,39.9621836],[-75.125421,39.96196],[-75.125701,39.961823],[-75.1286431,39.9601116],[-75.1296827,39.9595068],[-75.1297697,39.9594562],[-75.1306908,39.9586761],[-75.1317959,39.9576136],[-75.1325748,39.9567246],[-75.1338667,39.954586],[-75.1339368,39.95447],[-75.1343742,39.9534127],[-75.1345592,39.9529994],[-75.1348144,39.9524291],[-75.1352125,39.9512402],[-75.1356722,39.9493342],[-75.1359919,39.9476744],[-75.136302,39.9447059],[-75.1363868,39.9430427],[-75.1362363,39.9400338],[-75.136221,39.939764],[-75.136204,39.938663],[-75.13623,39.937697],[-75.136195,39.936793],[-75.136177,39.936548],[-75.1361489,39.9352506],[-75.1361325,39.9344889],[-75.1361515,39.933904],[-75.1361415,39.9334288],[-75.1359238,39.9292325],[-75.1354731,39.9273152],[-75.1349109,39.9259853],[-75.1323934,39.9217691],[-75.131631,39.920143],[-75.1303301,39.9175791],[-75.1301061,39.9170409],[-75.1288938,39.9141147],[-75.1282967,39.9118451],[-75.1283739,39.9096944],[-75.1286273,39.908584],[-75.128887,39.907446],[-75.1293302,39.9059328],[-75.1294238,39.9056134],[-75.1295069,39.9053294],[-75.1295453,39.9051984],[-75.129584,39.905066],[-75.129634,39.904826],[-75.1304875,39.9025242],[-75.1311336,39.900841],[-75.1313729,39.9002175],[-75.1343895,39.8943984],[-75.135255,39.8931349],[-75.136177,39.891789],[-75.137296,39.889966],[-75.138527,39.88889],[-75.1395379,39.8879691],[-75.141138,39.8860178],[-75.1431616,39.8848859],[-75.145146,39.8841977],[-75.147366,39.883921],[-75.148893,39.883727],[-75.150653,39.883504],[-75.1521411,39.8833852],[-75.162872,39.882649],[-75.1662325,39.8825727],[-75.168658,39.882503],[-75.169129,39.882493],[-75.172647,39.882421],[-75.174539,39.88236],[-75.1752848,39.8823359],[-75.1800773,39.8822065],[-75.1805734,39.8821748],[-75.181386,39.882123],[-75.183956,39.881885],[-75.185735,39.881607],[-75.187214,39.881267],[-75.187889,39.881095],[-75.18877,39.880832],[-75.190099,39.880348],[-75.190809,39.880027],[-75.1921776,39.8793151],[-75.192738,39.879006],[-75.193462,39.878549],[-75.1936751,39.8784162],[-75.194171,39.878107],[-75.19471,39.877741],[-75.195018,39.877521],[-75.195236,39.877365],[-75.195361,39.877276],[-75.195489,39.877167],[-75.195908,39.876811],[-75.196404,39.876418],[-75.196761,39.876098],[-75.197123,39.875818],[-75.197424,39.875515],[-75.197636,39.875294],[-75.199049,39.87399],[-75.199468,39.873552],[-75.199857,39.873222],[-75.1999414,39.8731817],[-75.2002244,39.8730467],[-75.2032465,39.871605],[-75.204087,39.871204],[-75.2050232,39.8707732],[-75.2109156,39.8673004],[-75.2114167,39.867005],[-75.212906,39.8660983],[-75.2154961,39.8645214],[-75.2168563,39.8636932],[-75.2197368,39.8619395],[-75.2208659,39.8614154],[-75.2217963,39.8609836],[-75.2226178,39.8606739],[-75.2239033,39.8601893],[-75.2247086,39.859931],[-75.2281649,39.8588224],[-75.2286918,39.8586534],[-75.2317921,39.857659],[-75.234135,39.8569075],[-75.234617,39.8567529],[-75.2430665,39.8548573],[-75.2469736,39.8539808],[-75.2487035,39.8536926],[-75.251228,39.8532204],[-75.2541924,39.8526672],[-75.2573279,39.852082],[-75.2617704,39.8512529],[-75.265627,39.8505331],[-75.2686748,39.8499642],[-75.2712305,39.8496733],[-75.2753094,39.849209],[-75.2804522,39.8491336],[-75.2809232,39.8491267],[-75.2822273,39.8491076],[-75.2870622,39.8489652],[-75.2896442,39.8488892],[-75.2919915,39.8490004],[-75.2941246,39.8491015],[-75.3041495,39.8495766],[-75.3081241,39.8497649],[-75.3143617,39.8500605],[-75.3165314,39.8499947],[-75.3184909,39.8498976],[-75.3208519,39.8497805],[-75.3249972,39.8496145],[-75.3397649,39.8465863],[-75.3414798,39.8461385],[-75.3420876,39.8458811],[-75.3458926,39.8439001],[-75.3560792,39.8387358],[-75.3569668,39.8381093],[-75.3573404,39.8378456],[-75.3633579,39.8335982],[-75.3650736,39.8323871],[-75.3701512,39.8288029],[-75.3723573,39.8273172],[-75.3755224,39.8251856],[-75.3816051,39.8213092],[-75.384555,39.8193436],[-75.385577,39.8183639],[-75.3859291,39.8179499],[-75.3862857,39.8174475],[-75.3873902,39.8154872],[-75.3881142,39.8142104],[-75.3885594,39.8135808],[-75.3891278,39.8129418],[-75.3905229,39.8117552],[-75.3925214,39.810533],[-75.3953083,39.8090986],[-75.3977278,39.8079984],[-75.398605,39.807646],[-75.3996541,39.8072483],[-75.4005987,39.806903],[-75.403622,39.8057885],[-75.4071775,39.8043404],[-75.4104278,39.8030365],[-75.4140163,39.8016236],[-75.4052809,39.7962274],[-75.4083336,39.7951268],[-75.4097727,39.7946817],[-75.4109314,39.7942222],[-75.411679,39.7938057],[-75.4124079,39.7934898],[-75.4131741,39.7931165],[-75.4141273,39.7927862],[-75.4154916,39.7922979],[-75.4169867,39.7916517],[-75.4185753,39.7909481],[-75.4214721,39.7898279],[-75.4258641,39.7881334],[-75.4308541,39.7864531],[-75.4345546,39.7851749],[-75.436573,39.7843132],[-75.4380128,39.7836141],[-75.4391708,39.7828339],[-75.4398997,39.7822307],[-75.4408715,39.7815126],[-75.4419181,39.780737],[-75.4425909,39.7803779],[-75.4438992,39.7792576],[-75.4446093,39.7784964],[-75.4453756,39.7778213],[-75.4461605,39.7773186],[-75.4471439,39.7765548],[-75.4477865,39.7755663],[-75.4484527,39.7743856],[-75.4479235,39.7739876],[-75.4474138,39.773629],[-75.4490761,39.7720758],[-75.4502348,39.7712139],[-75.4510197,39.7707686],[-75.4519839,39.7695732],[-75.4530195,39.7685421],[-75.4548697,39.7672492],[-75.4558416,39.7666746],[-75.4568321,39.7664447],[-75.4579161,39.766416],[-75.4598128,39.7659854],[-75.4630774,39.7622618],[-75.4634481,39.7616752],[-75.4631698,39.7592325],[-75.4631677,39.7584426],[-75.4634481,39.7574081],[-75.4641396,39.7560289],[-75.4648124,39.7550375],[-75.4652609,39.7539599],[-75.4655599,39.7529253],[-75.4659524,39.7514885],[-75.4668308,39.7498217],[-75.4680082,39.7471634],[-75.4683259,39.7460282],[-75.4688119,39.7452378],[-75.4688866,39.7444618],[-75.4690334,39.7437423],[-75.4693165,39.7431685],[-75.4695968,39.7426799],[-75.4700267,39.7425506],[-75.4704191,39.7426224],[-75.4706808,39.7422631],[-75.4707753,39.7420224],[-75.4709798,39.7415015],[-75.4710546,39.7408261],[-75.4713162,39.74028],[-75.4718208,39.7395327],[-75.4719935,39.7393493],[-75.4722133,39.7391159],[-75.4728487,39.7387997],[-75.4731851,39.7384979],[-75.473316,39.7379949],[-75.4735589,39.7373051],[-75.474411,39.7356311],[-75.4748111,39.7353936],[-75.4750727,39.7349768],[-75.4751288,39.734675],[-75.4749419,39.7344594],[-75.4751101,39.7341576],[-75.4754278,39.7337839],[-75.4756521,39.7336833],[-75.4760234,39.7337425],[-75.4761711,39.7335546],[-75.4760633,39.7334965],[-75.4757829,39.7334103],[-75.47554,39.7330797],[-75.4755026,39.7325048],[-75.4754027,39.7313445],[-75.4756269,39.7292448],[-75.4772026,39.7257192],[-75.4772594,39.7250306],[-75.4771962,39.7248749],[-75.4770725,39.7247575],[-75.4767174,39.72447],[-75.4769603,39.722745],[-75.4767735,39.72263],[-75.4766987,39.7223138],[-75.4766426,39.7214369],[-75.4764081,39.7206129],[-75.4764415,39.720446],[-75.476437,39.7193525],[-75.476589,39.7183801],[-75.4769603,39.7174406],[-75.4768482,39.7169374],[-75.4767735,39.7167074],[-75.4770725,39.716463],[-75.4771659,39.7160605],[-75.4771846,39.7157873],[-75.4774276,39.7155861],[-75.4776518,39.715356],[-75.4780256,39.7152698],[-75.4784809,39.7152914],[-75.4787358,39.7149391],[-75.478848,39.7145797],[-75.4788666,39.7142347],[-75.4789601,39.7140478],[-75.4793339,39.7141772],[-75.4797077,39.7145653],[-75.4801001,39.7147091],[-75.4807356,39.7146947],[-75.4816513,39.714551],[-75.4822681,39.714551],[-75.482511,39.7147522],[-75.4830946,39.7147407],[-75.483053,39.7156579],[-75.4834149,39.7159379],[-75.4838193,39.7160461],[-75.4843239,39.7160605],[-75.4848089,39.7162446],[-75.4854452,39.7162186],[-75.4860846,39.7160368],[-75.4868843,39.7157729],[-75.4877181,39.7152366],[-75.4886636,39.7146558],[-75.4892952,39.713904],[-75.4903231,39.7128545],[-75.4909399,39.7119488],[-75.4913323,39.7113881],[-75.4916379,39.7111499],[-75.4920051,39.7109855],[-75.492136,39.7106548],[-75.4918556,39.7105111],[-75.4916127,39.7103529],[-75.4917061,39.7100797],[-75.4921173,39.7093753],[-75.4930891,39.7083976],[-75.4939675,39.7074774],[-75.4957804,39.7043717],[-75.4961168,39.7036528],[-75.4961289,39.7021176],[-75.4962476,39.7017548],[-75.496584,39.7019992],[-75.4969017,39.7020855],[-75.4971073,39.7019417],[-75.4968457,39.7017116],[-75.4967148,39.7014672],[-75.496883,39.7011652],[-75.497724,39.7007626],[-75.4985464,39.7007195],[-75.499107,39.7006188],[-75.49935,39.7002593],[-75.5000458,39.6998567],[-75.5006936,39.6998869],[-75.5014591,39.6998265],[-75.5021462,39.6996151],[-75.5029117,39.6990412],[-75.5047259,39.6982349],[-75.5061872,39.6978775],[-75.506789,39.6975651],[-75.507348,39.6971834],[-75.5084669,39.6958241],[-75.5092972,39.6944979],[-75.5099609,39.6938029],[-75.5096839,39.6931356],[-75.5095465,39.6925616],[-75.5099064,39.6880352],[-75.5101524,39.6867413],[-75.5099281,39.6863818],[-75.5094795,39.6863099],[-75.5092366,39.6862092],[-75.5092927,39.6858928],[-75.509573,39.68526],[-75.5096851,39.6849004],[-75.5096664,39.6844545],[-75.5099056,39.6836048],[-75.5099125,39.6835792],[-75.5100963,39.6829156],[-75.5108439,39.6808875],[-75.5109186,39.6804273],[-75.5108252,39.6798519],[-75.5107504,39.6790608],[-75.5113623,39.6763874],[-75.5122829,39.6733646],[-75.5128062,39.6715664],[-75.5141145,39.6696819],[-75.5154227,39.6677254],[-75.5168244,39.6656106],[-75.5179831,39.6644453],[-75.5194596,39.6631361],[-75.5210855,39.6618412],[-75.5221695,39.6612082],[-75.5227676,39.6606902],[-75.5233469,39.6598126],[-75.5240197,39.658791],[-75.5248794,39.657827],[-75.525627,39.6570501],[-75.5262998,39.6565752],[-75.5271222,39.6556975],[-75.5268605,39.6553666],[-75.5271969,39.6545896],[-75.5275707,39.653827],[-75.528094,39.6535248],[-75.5283183,39.6530931],[-75.5288416,39.652978],[-75.5294209,39.6524168],[-75.5298508,39.6517837],[-75.5316449,39.6501145],[-75.5329719,39.648877],[-75.5335139,39.6484453],[-75.5339437,39.6484021],[-75.5342614,39.6480279],[-75.5351772,39.6473228],[-75.5354949,39.6471501],[-75.536392,39.6471357],[-75.5371022,39.6471933],[-75.5377189,39.6467328],[-75.5389711,39.6463299],[-75.5406718,39.6458981],[-75.541625,39.6460852],[-75.5424965,39.6453975],[-75.5437742,39.6437971],[-75.5458861,39.6412066],[-75.5467832,39.6403863],[-75.5476055,39.6398394],[-75.5486521,39.6383426],[-75.5488577,39.6378964],[-75.5490633,39.6377237],[-75.5496239,39.6376949],[-75.5502407,39.6379396],[-75.5508201,39.6377237],[-75.5531001,39.6365291],[-75.5544084,39.6358095],[-75.5557727,39.6349459],[-75.5568193,39.6338665],[-75.5571931,39.6332763],[-75.5576416,39.6322112],[-75.5579219,39.6316067],[-75.5583144,39.6311317],[-75.5583705,39.6304696],[-75.5588564,39.6299658],[-75.559068,39.6296429],[-75.5592302,39.6285551],[-75.5596787,39.62618],[-75.5598469,39.6249997],[-75.5598656,39.6226964],[-75.5597212,39.6209298],[-75.5592863,39.6191406],[-75.5589189,39.6180164],[-75.5580902,39.6169523],[-75.5578472,39.6161173],[-75.5577921,39.6152558],[-75.5576229,39.6137274],[-75.55738,39.6128923],[-75.5570249,39.6122156],[-75.5569875,39.6117261],[-75.5571557,39.6110494],[-75.5575482,39.6103871],[-75.5577724,39.6099408],[-75.5577351,39.6094368],[-75.5576188,39.6089438],[-75.5573239,39.6081986],[-75.5570062,39.6074066],[-75.5565016,39.6066867],[-75.5561461,39.6061466],[-75.5555961,39.6056656],[-75.5555671,39.6052036],[-75.5555297,39.6048004],[-75.5550438,39.604498],[-75.5542962,39.6038645],[-75.5536234,39.6022085],[-75.5536607,39.6019024],[-75.5505322,39.6006663],[-75.549975,39.6000345],[-75.549645,39.5996395],[-75.5483633,39.5989565],[-75.547708,39.5980421],[-75.5473361,39.5977283],[-75.5463797,39.5971961],[-75.5450691,39.596773],[-75.5444138,39.5965001],[-75.54367,39.5957904],[-75.5429616,39.5949579],[-75.5423901,39.5945081],[-75.5415979,39.594221],[-75.5410666,39.5941391],[-75.5401279,39.5941391],[-75.5393841,39.5940709],[-75.5383391,39.5938525],[-75.5377193,39.5936751],[-75.537489,39.5932793],[-75.5373119,39.5925969],[-75.5372063,39.5920457],[-75.536267,39.5915188],[-75.5351689,39.5909865],[-75.533575,39.5898264],[-75.5322821,39.5890075],[-75.5317508,39.5887891],[-75.5314674,39.5883524],[-75.5302872,39.5867542],[-75.5295193,39.5861686],[-75.5288109,39.5855271],[-75.5279642,39.5845249],[-75.5275003,39.5842577],[-75.5262605,39.5842441],[-75.5249677,39.5840939],[-75.5229768,39.5834875],[-75.5219392,39.5831931],[-75.5212485,39.5831931],[-75.5197785,39.5831658],[-75.5192826,39.5829064],[-75.5184148,39.5827426],[-75.5170156,39.5819373],[-75.5167854,39.5816507],[-75.516621,39.5811169],[-75.5160416,39.5808317],[-75.5155988,39.5809136],[-75.5151737,39.5808453],[-75.5148195,39.5803403],[-75.5146601,39.579685],[-75.5145539,39.5793438],[-75.5140049,39.5790435],[-75.5136221,39.5784911],[-75.5129068,39.5781562],[-75.512588,39.5777467],[-75.5124463,39.5768457],[-75.5122185,39.5730956],[-75.511902,39.5706373],[-75.5115578,39.5679638],[-75.5127876,39.5664685],[-75.5134813,39.5654242],[-75.5149401,39.5631372],[-75.5154117,39.5623627],[-75.5163949,39.5608151],[-75.5169973,39.5596409],[-75.5174695,39.5587134],[-75.5180301,39.5576433],[-75.5185966,39.556613],[-75.5195814,39.5552268],[-75.5209971,39.5535958],[-75.5224417,39.5521728],[-75.5244507,39.5503581],[-75.5268229,39.5483597],[-75.5280072,39.5473792],[-75.5289204,39.5465832],[-75.5301218,39.5454543],[-75.5327147,39.5426506],[-75.5333093,39.5417544],[-75.5336636,39.5412354],[-75.5336636,39.5406891],[-75.5335927,39.5402384],[-75.5331499,39.5394326],[-75.5322113,39.5380258],[-75.5316947,39.5374296],[-75.5309184,39.5368784],[-75.5298027,39.5365506],[-75.5286692,39.5360862],[-75.5278899,39.5356765],[-75.5272523,39.534775],[-75.5270575,39.5340784],[-75.5271461,39.5329037],[-75.5271992,39.5325075],[-75.526845,39.5317289],[-75.5266502,39.5308274],[-75.5266306,39.5298862],[-75.5268273,39.5283276],[-75.5268273,39.5276309],[-75.5267387,39.5270162],[-75.5267033,39.5267293],[-75.5266856,39.5261966],[-75.5271461,39.5250081],[-75.5272169,39.5244753],[-75.5271992,39.5241338],[-75.5270752,39.5238605],[-75.5271107,39.5235327],[-75.5273409,39.5232185],[-75.5274117,39.522713],[-75.5274649,39.5223578],[-75.5277128,39.5220163],[-75.5279253,39.5214834],[-75.5280316,39.5204588],[-75.528191,39.5195571],[-75.5281202,39.5187374],[-75.5279076,39.5181363],[-75.5273586,39.5175488],[-75.5271812,39.517011],[-75.5273763,39.5162918],[-75.5278545,39.5154857],[-75.5286692,39.5140511],[-75.5292713,39.5133543],[-75.5297672,39.5124252],[-75.5300152,39.5104986],[-75.530086,39.5049509],[-75.5301214,39.5046229],[-75.5298558,39.5041856],[-75.5293953,39.5025868],[-75.5293599,39.5016439],[-75.5292359,39.5012476],[-75.5285342,39.500715],[-75.5281556,39.5004276],[-75.5274472,39.4999493],[-75.5272169,39.4997443],[-75.5272523,39.499471],[-75.5276951,39.499307],[-75.5280139,39.4991157],[-75.5278899,39.4987331],[-75.5278663,39.4984594],[-75.5278545,39.4983231],[-75.5279216,39.4980825],[-75.533699,39.4972298],[-75.5377275,39.4969365],[-75.5382146,39.4969011],[-75.5384379,39.4968848],[-75.5421469,39.4966148],[-75.5425604,39.4965831],[-75.5425725,39.4965822],[-75.5431143,39.4965406],[-75.5474955,39.4962048],[-75.5531983,39.4959451],[-75.5589658,39.4957644],[-75.563386,39.4830549]],[[-74.0472219,40.6908633],[-74.0472209,40.6908892],[-74.0472133,40.690917],[-74.0472041,40.6909398],[-74.047189,40.690962],[-74.0471724,40.6909803],[-74.0471496,40.6909979],[-74.0471232,40.6910138],[-74.0470937,40.6910277],[-74.0470605,40.6910372],[-74.0470212,40.6910442],[-74.0469829,40.6910489],[-74.0461778,40.691104],[-74.0461524,40.6911293],[-74.0461245,40.6911292],[-74.0461132,40.691129],[-74.0460787,40.6911267],[-74.0460458,40.6911231],[-74.0460174,40.6911182],[-74.0459898,40.6911115],[-74.0459617,40.6911024],[-74.0459271,40.6910896],[-74.0458907,40.6910753],[-74.0445985,40.6905663],[-74.0438883,40.6901864],[-74.0435049,40.6896932],[-74.0434871,40.6896706],[-74.04347,40.6896489],[-74.043465,40.6896421],[-74.0435113,40.689208],[-74.0436327,40.688777],[-74.0439725,40.6885868],[-74.0441445,40.6885605],[-74.0443758,40.6885252],[-74.0447779,40.6885981],[-74.0453031,40.6888646],[-74.0453147,40.6888513],[-74.0453632,40.6888759],[-74.045357,40.6888833],[-74.0462749,40.6893396],[-74.046752,40.6898984],[-74.0467971,40.6899522],[-74.046845,40.6900082],[-74.0468962,40.6900682],[-74.0469401,40.6901196],[-74.0471981,40.6904236],[-74.0471319,40.6904559],[-74.0470101,40.6905177],[-74.0470244,40.6905703],[-74.0470351,40.6906098],[-74.047146,40.690714],[-74.0472028,40.6907986],[-74.0472123,40.6908169],[-74.0472201,40.6908408],[-74.0472219,40.6908633]],[[-74.0407472,40.7001669],[-74.0407303,40.7001925],[-74.0406966,40.7002152],[-74.0406477,40.7002136],[-74.0406121,40.7002008],[-74.0405689,40.7001879],[-74.0405278,40.7001765],[-74.0404958,40.7001623],[-74.0404601,40.7001494],[-74.0404152,40.7001264],[-74.0403756,40.7001122],[-74.0403288,40.7001007],[-74.0402827,40.7001113],[-74.0402491,40.700117],[-74.0401871,40.700114],[-74.0401534,40.7001026],[-74.0401196,40.700094],[-74.040082,40.7000925],[-74.0400483,40.700074],[-74.040022,40.700061],[-74.0399938,40.7000412],[-74.0399657,40.7000183],[-74.0399339,40.6999941],[-74.0399002,40.6999811],[-74.0398588,40.6999655],[-74.0398251,40.6999554],[-74.0397827,40.6999518],[-74.0397453,40.6999503],[-74.0397134,40.6999275],[-74.0396891,40.699899],[-74.0396647,40.6998733],[-74.0396215,40.6998561],[-74.0395859,40.6998533],[-74.0395465,40.6998431],[-74.0395109,40.6998161],[-74.0394771,40.6997818],[-74.0394283,40.6997632],[-74.0393815,40.6997504],[-74.0393298,40.6997268],[-74.0392866,40.6997081],[-74.0392548,40.6996867],[-74.0392097,40.699681],[-74.0391629,40.6996767],[-74.0391214,40.6996709],[-74.0390746,40.699668],[-74.0390239,40.6996623],[-74.0389901,40.6996622],[-74.0389358,40.6996549],[-74.0388927,40.6996251],[-74.0388796,40.6996022],[-74.0388382,40.6995622],[-74.0388149,40.6995316],[-74.0388017,40.6994874],[-74.0387962,40.699439],[-74.0387831,40.6994062],[-74.0387719,40.6993976],[-74.0387588,40.6993677],[-74.0387475,40.6993362],[-74.0387232,40.699302],[-74.038697,40.6992793],[-74.0386642,40.6992628],[-74.0386321,40.6992385],[-74.0385985,40.6992101],[-74.038561,40.6991929],[-74.0385329,40.6991722],[-74.0385101,40.6991469],[-74.0384936,40.6991151],[-74.0384982,40.699074],[-74.0384668,40.6990169],[-74.0384589,40.6989808],[-74.0384629,40.6989239],[-74.0384669,40.6988698],[-74.0384551,40.6988247],[-74.0384355,40.6987917],[-74.0384116,40.6987557],[-74.038396,40.6987285],[-74.0383801,40.6987135],[-74.0383683,40.6986866],[-74.0383723,40.6986686],[-74.0383919,40.6986656],[-74.0384197,40.6986655],[-74.0384529,40.6986809],[-74.038477,40.6986908],[-74.0385048,40.698702],[-74.0385269,40.6987117],[-74.0385693,40.6987301],[-74.0386064,40.6987175],[-74.038623,40.6986979],[-74.0386028,40.6986769],[-74.0386211,40.6986713],[-74.0386342,40.698667],[-74.0386528,40.6986628],[-74.0386807,40.69866],[-74.0387123,40.698654],[-74.038744,40.6986371],[-74.0387796,40.698636],[-74.0388273,40.6986241],[-74.0388788,40.6986109],[-74.0389252,40.698607],[-74.0389596,40.6985951],[-74.0390065,40.6985937],[-74.039061,40.6985967],[-74.0391153,40.6985924],[-74.0391679,40.6985954],[-74.0392054,40.698604],[-74.0392448,40.6986141],[-74.039285,40.6986319],[-74.0393171,40.6986648],[-74.0393415,40.6986841],[-74.0393648,40.6987087],[-74.0393763,40.6987314],[-74.0394115,40.6987374],[-74.0394385,40.6987394],[-74.0394688,40.6987519],[-74.0394876,40.6987775],[-74.0395083,40.6987803],[-74.0395382,40.6987875],[-74.0395853,40.6987904],[-74.0396316,40.6987899],[-74.0396471,40.69879],[-74.0396695,40.6987755],[-74.0399309,40.6985897],[-74.0400782,40.6987147],[-74.040234,40.6988328],[-74.0402387,40.6988362],[-74.040215,40.6988538],[-74.0401502,40.6989014],[-74.0401454,40.6988975],[-74.0400963,40.6989342],[-74.0400595,40.6989072],[-74.0400437,40.6989027],[-74.0400282,40.6988979],[-74.0399861,40.6988865],[-74.0399512,40.6988816],[-74.0399097,40.6988835],[-74.0398682,40.6988933],[-74.0398243,40.6989111],[-74.039798,40.6989367],[-74.0397962,40.6989767],[-74.0398149,40.6990109],[-74.0398618,40.6990423],[-74.0398992,40.699068],[-74.0399479,40.6990979],[-74.03998,40.6991236],[-74.0400698,40.6991722],[-74.040158,40.6991965],[-74.0401863,40.6992152],[-74.0401899,40.6992451],[-74.0401899,40.6992778],[-74.0402106,40.699315],[-74.0402425,40.6993335],[-74.040278,40.6993506],[-74.0403156,40.699365],[-74.0403511,40.6993749],[-74.0404019,40.6993934],[-74.0404262,40.6994134],[-74.0404384,40.6994384],[-74.0404553,40.6994669],[-74.0404666,40.6994927],[-74.0404664,40.6995282],[-74.0404702,40.6995581],[-74.0404842,40.6995945],[-74.0405124,40.6996274],[-74.0405311,40.6996573],[-74.0405535,40.6996801],[-74.0405779,40.69971],[-74.0406004,40.6997386],[-74.0406117,40.6997657],[-74.0406173,40.6998026],[-74.0406154,40.6998284],[-74.0406237,40.6998605],[-74.0406443,40.6998832],[-74.0406631,40.6999075],[-74.0406744,40.6999346],[-74.0406744,40.6999616],[-74.0406837,40.699983],[-74.0406874,40.70001],[-74.0406912,40.70005],[-74.0407023,40.7000713],[-74.0407192,40.7000956],[-74.0407248,40.7001055],[-74.0407397,40.7001311],[-74.0407472,40.7001669]]]}}]}