{"type":"FeatureCollection","licence":"Data © OpenStreetMap contributors, ODbL 1.0. http://osm.org/copyright","features":[{"type":"Feature","properties":{"place_id":320942653,"osm_type":"relation","osm_id":165473,"place_rank":8,"category":"boundary","type":"administrative","importance":0.7530735903832835,"addresstype":"state","name":"Nevada","display_name":"Nevada, United States"},"bbox":[-120.0065184,35.0018894,-114.0402955,42.0002550],"geometry":{"type":"Polygon","coordinates":[[[-120.0065184,39.0032856],[-119.9671426,38.9764031],[-119.9513704,38.9655715],[-119.9479669,38.9632339],[-119.9459503,38.9618488],[-119.9440178,38.9605434],[-119.9433418,38.9600892],[-119.9430796,38.9599111],[-119.9421556,38.959314],[-119.9420754,38.9592495],[-119.9419733,38.9591637],[-119.9419558,38.9591515],[-119.9402676,38.9579704],[-119.9388667,38.9569849],[-119.938764,38.9569127],[-119.9386085,38.9567945],[-119.9373333,38.95593],[-119.933276,38.9531554],[-119.9285966,38.9499759],[-119.9241611,38.9468168],[-119.9219652,38.9454125],[-119.9048355,38.9337033],[-119.9044161,38.9334164],[-119.9005524,38.9307726],[-119.8962471,38.9278265],[-119.8926144,38.9253406],[-119.8760129,38.9139787],[-119.8760131,38.9139426],[-119.8622622,38.9044202],[-119.8605611,38.9032502],[-119.8577678,38.901329],[-119.8516688,38.897134],[-119.8499183,38.8959299],[-119.8458341,38.8931431],[-119.8438417,38.8917835],[-119.8302412,38.8823904],[-119.8288589,38.8814357],[-119.8253944,38.8790479],[-119.8208375,38.875907],[-119.8206365,38.8757685],[-119.8201792,38.8754533],[-119.8198565,38.8752309],[-119.8195715,38.8750357],[-119.8189772,38.8746248],[-119.8184697,38.874275],[-119.8178993,38.8738818],[-119.8160828,38.8726297],[-119.8147316,38.8716983],[-119.8143276,38.8714198],[-119.813166,38.8706192],[-119.8115006,38.8694711],[-119.8078908,38.8669827],[-119.8068407,38.8662589],[-119.7972246,38.8596296],[-119.7928779,38.8566328],[-119.7920837,38.8560856],[-119.7910601,38.8553795],[-119.7908769,38.8552532],[-119.7870215,38.852595],[-119.7868002,38.8524424],[-119.7790165,38.8470767],[-119.764632,38.8371596],[-119.751421,38.8280504],[-119.7510096,38.8277667],[-119.728835,38.8125417],[-119.7250361,38.8099331],[-119.7237172,38.8090223],[-119.7142808,38.8025051],[-119.7131623,38.8017327],[-119.7095837,38.7992609],[-119.7029764,38.7946971],[-119.697676,38.7910358],[-119.6910493,38.7864581],[-119.681822,38.7800387],[-119.67726,38.7769314],[-119.6688636,38.77113],[-119.6654414,38.7687653],[-119.6648402,38.7683434],[-119.6607864,38.7655375],[-119.6532591,38.7603177],[-119.6353705,38.7479015],[-119.634859,38.747545],[-119.6304639,38.7444812],[-119.6260044,38.7413724],[-119.6194019,38.7368278],[-119.6072405,38.7284562],[-119.5982515,38.7222312],[-119.5931435,38.7186935],[-119.588018,38.7151441],[-119.5866545,38.7141993],[-119.5831381,38.7117664],[-119.5801695,38.7097125],[-119.5780971,38.7082709],[-119.5777365,38.7080201],[-119.5758317,38.706695],[-119.5731741,38.7048463],[-119.5573554,38.6938411],[-119.552563,38.6905066],[-119.5510261,38.6894494],[-119.5487341,38.6878728],[-119.5486498,38.6878202],[-119.5485654,38.6877675],[-119.5482845,38.6875922],[-119.5475921,38.6871019],[-119.5474472,38.6870019],[-119.5473245,38.6869188],[-119.5466644,38.6864617],[-119.5434578,38.6842395],[-119.5408583,38.6824379],[-119.5285725,38.6739224],[-119.5195904,38.6676951],[-119.5010003,38.6547824],[-119.4596013,38.6259167],[-119.4580468,38.6249102],[-119.4475811,38.6175982],[-119.4415062,38.6133535],[-119.375995,38.5675634],[-119.3588931,38.5557721],[-119.3424863,38.5442793],[-119.3300837,38.5354279],[-119.3229713,38.5306418],[-119.3077032,38.52],[-119.3045761,38.5178202],[-119.3,38.5146303],[-119.2879265,38.5062133],[-119.2789675,38.4999159],[-119.2647741,38.4900414],[-119.2647151,38.49],[-119.2509886,38.480363],[-119.2489137,38.4789138],[-119.2361525,38.47],[-119.2292862,38.4652034],[-119.2154686,38.4554692],[-119.207706,38.45],[-119.202432,38.4462839],[-119.2,38.4445832],[-119.1853692,38.4343512],[-119.177159,38.4285796],[-119.1615529,38.4176075],[-119.16,38.4165156],[-119.1571281,38.4144963],[-119.1259826,38.392694],[-119.0624551,38.3475578],[-119.0255608,38.3216165],[-119.0203979,38.3179668],[-118.9948325,38.3001086],[-118.9934954,38.2991646],[-118.9504009,38.2687223],[-118.9241861,38.249921],[-118.9030142,38.234997],[-118.8845849,38.2219219],[-118.857596,38.2030275],[-118.8384379,38.1894354],[-118.8144611,38.1724507],[-118.7977987,38.1605713],[-118.7977672,38.1605049],[-118.7977353,38.1604378],[-118.7905197,38.1553528],[-118.7779972,38.1464501],[-118.7752034,38.1442925],[-118.6824043,38.0782217],[-118.6355267,38.0447377],[-118.6259226,38.0377104],[-118.6216694,38.0344323],[-118.6108082,38.0268973],[-118.588425,38.0113604],[-118.5475236,37.9824066],[-118.524811,37.9661344],[-118.5171822,37.9606246],[-118.516299,37.9598724],[-118.5009242,37.9489913],[-118.4960427,37.9451474],[-118.4754069,37.9302709],[-118.4681657,37.9250683],[-118.4654419,37.9231057],[-118.450321,37.9121983],[-118.4351852,37.9012951],[-118.428163,37.8962361],[-118.4248217,37.8938263],[-118.4040029,37.8787798],[-118.403482,37.8784094],[-118.3985324,37.8748835],[-118.395086,37.872411],[-118.3050435,37.8075255],[-118.2760005,37.786667],[-118.2509479,37.7686362],[-118.2509475,37.7685755],[-118.2449246,37.7641354],[-118.2447631,37.7640178],[-118.244468,37.7638047],[-118.2318877,37.7546795],[-118.2255378,37.7501383],[-118.2211311,37.7469243],[-118.2047471,37.7351174],[-118.1873242,37.7225521],[-118.1852689,37.7210027],[-118.1849018,37.7207111],[-118.1846969,37.7205466],[-118.1491525,37.6948571],[-118.1255661,37.6778165],[-118.1095648,37.6662435],[-118.0918227,37.6532907],[-118.0724557,37.6395176],[-118.0645946,37.6338613],[-118.0551383,37.6270566],[-118.0538163,37.6261104],[-118.0521783,37.6249222],[-118.0222945,37.6025585],[-118.0219603,37.6023167],[-118.0174269,37.5990369],[-118.0124553,37.5954374],[-118.0076937,37.5919916],[-118.0073838,37.5917683],[-118.0008188,37.5872862],[-117.9966106,37.5842683],[-117.9875254,37.577428],[-117.9833206,37.5746444],[-117.9795851,37.5721714],[-117.9637777,37.56021],[-117.9106595,37.5213379],[-117.8811179,37.4999188],[-117.875927,37.4961116],[-117.8759268,37.4961678],[-117.8403787,37.4700047],[-117.839602,37.4694443],[-117.8330472,37.4646911],[-117.8068308,37.445611],[-117.7478587,37.401979],[-117.7385776,37.3954427],[-117.6944655,37.3628018],[-117.6807724,37.3535085],[-117.6695867,37.3451652],[-117.6608051,37.3385445],[-117.6403871,37.3231473],[-117.6259155,37.31263],[-117.6259153,37.3125827],[-117.5886827,37.2852388],[-117.5672925,37.2694318],[-117.565533,37.2681197],[-117.5652432,37.2679035],[-117.5411454,37.2499306],[-117.5412932,37.2499307],[-117.5228548,37.2362943],[-117.5064546,37.224179],[-117.5061886,37.2239824],[-117.4698408,37.1971242],[-117.4544196,37.1857219],[-117.4161497,37.1574182],[-117.3907931,37.1385942],[-117.3759575,37.1275314],[-117.3725559,37.1249321],[-117.350524,37.1086733],[-117.3330919,37.0955753],[-117.3174141,37.0838218],[-117.2915285,37.0646984],[-117.2871119,37.0613336],[-117.2859371,37.0604386],[-117.2859095,37.0604598],[-117.2858819,37.0604948],[-117.2858684,37.0605328],[-117.285835,37.0605275],[-117.2857945,37.0605212],[-117.2858468,37.0603698],[-117.2855636,37.060154],[-117.2844382,37.0592966],[-117.2825161,37.0578322],[-117.2696184,37.048389],[-117.2509032,37.0344907],[-117.236996,37.0240583],[-117.2269331,37.0167006],[-117.2046678,36.9999366],[-117.1660009,36.9711106],[-117.1258989,36.9409467],[-117.1258996,36.9410817],[-117.1019055,36.923131],[-117.0830252,36.908948],[-117.0378842,36.8749443],[-117.0224066,36.8634128],[-116.978082,36.830176],[-116.9328546,36.7960495],[-116.9281896,36.7925663],[-116.9125071,36.7808552],[-116.8900846,36.7639285],[-116.880767,36.7569902],[-116.8714431,36.7499456],[-116.8473824,36.7317146],[-116.8470622,36.731472],[-116.8418104,36.7274921],[-116.8099857,36.7033419],[-116.7787959,36.6798309],[-116.7508864,36.6587372],[-116.7508859,36.65869],[-116.7300118,36.6429042],[-116.7297649,36.6427175],[-116.6810056,36.6058313],[-116.678115,36.603644],[-116.6547183,36.58597],[-116.6467609,36.579958],[-116.5982178,36.5428082],[-116.5708741,36.5220221],[-116.5487119,36.5051224],[-116.5440359,36.5015068],[-116.5229223,36.4852702],[-116.4444232,36.4254106],[-116.4288455,36.4135964],[-116.4223084,36.4085293],[-116.4166469,36.4041406],[-116.4094431,36.3985557],[-116.3936623,36.3865902],[-116.378531,36.374956],[-116.3758746,36.3729614],[-116.3501529,36.3532027],[-116.3227641,36.3321757],[-116.3086415,36.3210094],[-116.293674,36.309853],[-116.2833517,36.3017494],[-116.2827384,36.3012699],[-116.2820567,36.3007504],[-116.2508768,36.2769342],[-116.2320483,36.2625363],[-116.2163726,36.2504396],[-116.201543,36.2389859],[-116.189651,36.2298358],[-116.1812807,36.2233948],[-116.1464532,36.1965143],[-116.1321511,36.1855132],[-116.1136915,36.1713119],[-116.1082246,36.1672084],[-116.1070361,36.1663163],[-116.0981261,36.1593487],[-116.0812067,36.1461761],[-116.0644869,36.1331772],[-116.0538088,36.124963],[-116.0347203,36.1101043],[-116.0121928,36.0926597],[-116.0008552,36.0839914],[-115.9956573,36.0799334],[-115.9527907,36.0466997],[-115.9339329,36.0320751],[-115.9120053,36.0149912],[-115.8944295,36.001205],[-115.8541779,35.97],[-115.8500007,35.9667468],[-115.8459501,35.9636045],[-115.8382642,35.9575912],[-115.8339769,35.9542367],[-115.8188391,35.9423911],[-115.7834827,35.9148635],[-115.758265,35.8952315],[-115.7322483,35.8749725],[-115.7322053,35.8749722],[-115.7050772,35.8538577],[-115.6995963,35.8494938],[-115.6480334,35.8090898],[-115.6207942,35.7877371],[-115.5954552,35.767956],[-115.5746892,35.7516137],[-115.5498349,35.732058],[-115.5085255,35.699586],[-115.5008275,35.6935543],[-115.5008071,35.6933978],[-115.4888679,35.6840638],[-115.4719626,35.670756],[-115.4377205,35.6438833],[-115.4176443,35.628132],[-115.4095762,35.6218493],[-115.3961339,35.6112111],[-115.3932107,35.6087167],[-115.3917386,35.6075629],[-115.39155,35.6073571],[-115.3914662,35.6073349],[-115.3914091,35.6073197],[-115.3912898,35.607202],[-115.3911706,35.6070843],[-115.3911309,35.6070746],[-115.391091,35.6070649],[-115.3908631,35.606855],[-115.3901177,35.60623],[-115.3900008,35.6061477],[-115.389669,35.6058819],[-115.3896358,35.6059065],[-115.3894469,35.6057674],[-115.3685754,35.5893712],[-115.3531311,35.5771684],[-115.3481505,35.5731608],[-115.3325354,35.5608322],[-115.3256859,35.5553963],[-115.3193485,35.5504277],[-115.3056732,35.5395714],[-115.2795214,35.5188782],[-115.2740539,35.5145535],[-115.2606283,35.5039469],[-115.255439,35.5000593],[-115.255394,35.4999252],[-115.2508488,35.4962603],[-115.2507142,35.496185],[-115.2380489,35.4860138],[-115.2288956,35.4788174],[-115.2253833,35.4758923],[-115.225294,35.4758179],[-115.2121561,35.4655313],[-115.2027944,35.4581345],[-115.1905491,35.4483812],[-115.1851813,35.444167],[-115.1709957,35.4328859],[-115.1608238,35.4247548],[-115.1596308,35.4238385],[-115.1594914,35.4237248],[-115.1376192,35.406326],[-115.1338978,35.403363],[-115.1269767,35.3979525],[-115.1033369,35.3791637],[-115.0975899,35.3745055],[-115.0931347,35.3709176],[-115.0919302,35.3699588],[-115.0833112,35.3630668],[-115.0686686,35.3514001],[-115.0398497,35.3284152],[-115.0164692,35.309733],[-115.0008589,35.2972093],[-114.9491577,35.2559967],[-114.9485945,35.2555461],[-114.9474341,35.2546121],[-114.9356733,35.2452826],[-114.9284741,35.2393615],[-114.9158071,35.2291568],[-114.9112737,35.2255654],[-114.8791009,35.1998376],[-114.8758035,35.1972003],[-114.8493262,35.1759756],[-114.8241442,35.1557524],[-114.7839532,35.1233852],[-114.7466568,35.0933833],[-114.6955301,35.0522454],[-114.6842211,35.0431239],[-114.6791056,35.0389954],[-114.6753395,35.0359538],[-114.6477801,35.0137214],[-114.6426396,35.009617],[-114.6410599,35.0083558],[-114.6392681,35.0069252],[-114.6392427,35.0069049],[-114.6386546,35.0064354],[-114.638449,35.0062713],[-114.6372809,35.0053386],[-114.6351108,35.0036059],[-114.6350169,35.0035309],[-114.6349202,35.0034537],[-114.6347333,35.0033045],[-114.6329611,35.0018894],[-114.6348667,35.0053586],[-114.6362503,35.0087968],[-114.6372614,35.0123208],[-114.6378923,35.0159035],[-114.6381608,35.0203344],[-114.6377868,35.02476],[-114.6367755,35.0291179],[-114.6351412,35.0333469],[-114.632907,35.0373875],[-114.6301041,35.0411828],[-114.626772,35.0446796],[-114.6229577,35.0478287],[-114.6200279,35.0500271],[-114.6196031,35.0503458],[-114.6179018,35.0514173],[-114.6159964,35.0526175],[-114.6121645,35.0546267],[-114.6102606,35.0556997],[-114.6101323,35.0557847],[-114.6100438,35.0558512],[-114.6099543,35.0559184],[-114.6099062,35.0559545],[-114.6085261,35.0569504],[-114.6069855,35.058361],[-114.6056609,35.0599116],[-114.604571,35.0615801],[-114.6037312,35.0633428],[-114.6031535,35.0651748],[-114.602846,35.0670499],[-114.6028132,35.0689416],[-114.6030555,35.070823],[-114.6035695,35.0726674],[-114.6043479,35.0744487],[-114.6053795,35.0761415],[-114.6066499,35.0777219],[-114.6138382,35.0834815],[-114.613876,35.0835057],[-114.6178868,35.0860549],[-114.6222496,35.0882574],[-114.6353817,35.0934545],[-114.6402916,35.095753],[-114.644866,35.0984756],[-114.6452957,35.0989381],[-114.6456559,35.0994387],[-114.6459417,35.0999704],[-114.646149,35.100526],[-114.646275,35.1010977],[-114.646318,35.1016775],[-114.6462773,35.1022574],[-114.6461535,35.1028294],[-114.6459789,35.1034059],[-114.6457249,35.1039622],[-114.6453947,35.1044911],[-114.6449926,35.1049856],[-114.6445241,35.1054392],[-114.6439951,35.105846],[-114.6434128,35.1062006],[-114.6427041,35.1065843],[-114.6420432,35.1070213],[-114.6414359,35.1075076],[-114.6408878,35.1080388],[-114.6401239,35.1089383],[-114.6356863,35.113676],[-114.6340084,35.115468],[-114.6318694,35.1169654],[-114.6299244,35.1180456],[-114.6295402,35.118259],[-114.6270496,35.1193328],[-114.6244285,35.1201734],[-114.6217093,35.1207704],[-114.6189259,35.1211165],[-114.6161127,35.1212074],[-114.6130366,35.1213301],[-114.6064353,35.1215935],[-114.6012211,35.1220498],[-114.5965004,35.1225939],[-114.5924421,35.1230493],[-114.5884323,35.1237347],[-114.5863501,35.1243264],[-114.5843687,35.1251165],[-114.5825163,35.1260939],[-114.5808192,35.1272445],[-114.5793016,35.1285521],[-114.577985,35.129998],[-114.5768881,35.1315618],[-114.5760513,35.1332816],[-114.575597,35.1343307],[-114.5750582,35.1352781],[-114.5750231,35.1353398],[-114.5743346,35.1362999],[-114.5738377,35.1371974],[-114.5734608,35.1381331],[-114.5732082,35.1390964],[-114.5730827,35.1400762],[-114.5730859,35.1410614],[-114.5732176,35.1420407],[-114.5734763,35.1430028],[-114.5738166,35.144348],[-114.5739637,35.1457162],[-114.5739159,35.1470892],[-114.5736736,35.1484484],[-114.5732403,35.1497754],[-114.5716095,35.1536001],[-114.5708434,35.1555367],[-114.570369,35.1575347],[-114.5701933,35.1595649],[-114.5693466,35.1711471],[-114.5693735,35.1721303],[-114.5693769,35.1722126],[-114.5693798,35.1722842],[-114.5694039,35.1726457],[-114.5695019,35.1734395],[-114.5697641,35.1755798],[-114.5698929,35.1787018],[-114.5697856,35.1833669],[-114.5696947,35.1844433],[-114.5697351,35.1855217],[-114.5699063,35.1865915],[-114.5702067,35.1876421],[-114.5706332,35.1886631],[-114.5713306,35.1899958],[-114.5714424,35.1902407],[-114.5715232,35.1904936],[-114.5715719,35.1907519],[-114.5715881,35.1910129],[-114.5716545,35.1935107],[-114.5716657,35.1942714],[-114.5718268,35.1995218],[-114.5731168,35.2021427],[-114.5750214,35.2048389],[-114.5762117,35.2060421],[-114.5774314,35.207122],[-114.5781986,35.2078259],[-114.5788692,35.2085929],[-114.5794355,35.209414],[-114.579891,35.21028],[-114.5802305,35.2111808],[-114.5804501,35.212106],[-114.5808794,35.2202403],[-114.5848276,35.2492642],[-114.5874217,35.2644248],[-114.5920374,35.2792587],[-114.5943795,35.2856208],[-114.5959556,35.2921377],[-114.5967509,35.298748],[-114.596758,35.3053896],[-114.5966151,35.3142537],[-114.5960446,35.3212504],[-114.596427,35.3282551],[-114.5977574,35.3351816],[-114.6000195,35.3419448],[-114.6098901,35.3646259],[-114.6662808,35.4643053],[-114.6740056,35.4845758],[-114.6788121,35.4979236],[-114.6791239,35.5012357],[-114.6789937,35.5045556],[-114.6784231,35.5078445],[-114.6774187,35.5110637],[-114.6759924,35.5141754],[-114.6741609,35.5171432],[-114.6719457,35.5199321],[-114.6695721,35.5225691],[-114.6675262,35.5253822],[-114.6658277,35.5283442],[-114.6644928,35.5314271],[-114.6635343,35.5346011],[-114.6626759,35.5615571],[-114.6628314,35.5631082],[-114.6631966,35.5646358],[-114.663767,35.5661212],[-114.6645357,35.5675462],[-114.6654932,35.5688934],[-114.6666278,35.5701462],[-114.6679256,35.5712895],[-114.6693707,35.5723091],[-114.673439,35.5750895],[-114.6739052,35.5754979],[-114.6743081,35.5759485],[-114.6746422,35.5764349],[-114.6749025,35.5769503],[-114.6750855,35.5774872],[-114.6751886,35.5780381],[-114.6752101,35.578595],[-114.6751499,35.57915],[-114.6750088,35.5796952],[-114.6747888,35.5802229],[-114.6744931,35.5807255],[-114.6741258,35.5811958],[-114.6736922,35.5816271],[-114.6731985,35.5820134],[-114.6726517,35.582349],[-114.6720596,35.5826293],[-114.6714307,35.5828501],[-114.6684046,35.584147],[-114.6655795,35.5857153],[-114.6629923,35.5875349],[-114.6606764,35.589582],[-114.6603018,35.59],[-114.658662,35.59183],[-114.6569751,35.5942497],[-114.6556378,35.5968097],[-114.6544856,35.5991223],[-114.6536801,35.6015298],[-114.6532327,35.6039981],[-114.6531499,35.6064921],[-114.6534328,35.6089763],[-114.6537033,35.61],[-114.6540774,35.6114154],[-114.6550744,35.6137747],[-114.6564098,35.6160206],[-114.6580646,35.6181214],[-114.6600152,35.620047],[-114.6631157,35.6222823],[-114.6659133,35.6247676],[-114.6683776,35.627476],[-114.67,35.6297135],[-114.6704818,35.630378],[-114.6722031,35.633442],[-114.6740147,35.636611],[-114.6762774,35.6395822],[-114.6766876,35.64],[-114.678959,35.6423133],[-114.68,35.643147],[-114.6820214,35.6447657],[-114.6854211,35.6469045],[-114.6862845,35.6474477],[-114.6870665,35.6480669],[-114.687757,35.6487542],[-114.6883471,35.6495007],[-114.6886495,35.65],[-114.6888293,35.6502968],[-114.6891972,35.6511321],[-114.6894462,35.651996],[-114.689573,35.6528772],[-114.689576,35.6537644],[-114.6894551,35.6546462],[-114.6889401,35.6586911],[-114.6875573,35.664772],[-114.6857976,35.67],[-114.6855498,35.6707363],[-114.682932,35.676542],[-114.6821741,35.6779712],[-114.6816165,35.6794599],[-114.681266,35.6809898],[-114.6811271,35.6825418],[-114.6812014,35.6840966],[-114.6814881,35.6856351],[-114.6819835,35.6871382],[-114.6826816,35.6885872],[-114.6835736,35.6899641],[-114.6836133,35.69],[-114.6848256,35.6910951],[-114.6896858,35.6939298],[-114.6942845,35.6970852],[-114.6983763,35.7006714],[-114.7,35.7024976],[-114.7019006,35.7046351],[-114.7028362,35.7074266],[-114.7033272,35.71],[-114.7033817,35.7102855],[-114.7035302,35.7131758],[-114.7032798,35.7160614],[-114.7026338,35.7189061],[-114.7016001,35.7216743],[-114.7,35.7256676],[-114.698124,35.7303493],[-114.6967646,35.7378009],[-114.6965791,35.7456764],[-114.6968717,35.7478034],[-114.6968975,35.7499434],[-114.6966561,35.7520745],[-114.6961285,35.7537742],[-114.6957644,35.7546947],[-114.695458,35.7552484],[-114.6952352,35.7558277],[-114.6950992,35.7564245],[-114.6950518,35.7570302],[-114.6950937,35.7576361],[-114.6952244,35.7582336],[-114.695442,35.7588143],[-114.6957434,35.7593697],[-114.6961242,35.759892],[-114.6989823,35.7646221],[-114.6999569,35.7668288],[-114.7006344,35.7691074],[-114.7010069,35.7714318],[-114.7010702,35.7737751],[-114.7008235,35.7761104],[-114.7002698,35.7784107],[-114.6990682,35.7838419],[-114.6987211,35.7851823],[-114.698576,35.7865469],[-114.6986349,35.7879156],[-114.698897,35.7892686],[-114.6993583,35.7905861],[-114.7000123,35.7918487],[-114.7033597,35.7963044],[-114.7048122,35.7981925],[-114.7065354,35.7999244],[-114.7101403,35.8032658],[-114.7105706,35.8037796],[-114.7109211,35.8043318],[-114.7111867,35.8049144],[-114.7113635,35.8055187],[-114.7114489,35.8061359],[-114.7114417,35.806757],[-114.7113419,35.8073728],[-114.7110629,35.8081036],[-114.7095395,35.8098786],[-114.7089086,35.8105343],[-114.7081914,35.8111289],[-114.7073971,35.8116549],[-114.7065354,35.8121059],[-114.704733,35.8130804],[-114.7042643,35.8134768],[-114.7038514,35.8139121],[-114.7034992,35.8143812],[-114.7032119,35.8148785],[-114.7029929,35.8153982],[-114.7028447,35.815934],[-114.7024156,35.818022],[-114.701996,35.8194679],[-114.7013785,35.8208664],[-114.7005708,35.8221995],[-114.6995831,35.8234505],[-114.6969224,35.8269301],[-114.6963015,35.8280702],[-114.6958558,35.8292629],[-114.6955918,35.8304907],[-114.6955135,35.8317353],[-114.6955878,35.8323275],[-114.6957496,35.8329081],[-114.6959963,35.8334687],[-114.6963244,35.8340011],[-114.6967292,35.8344977],[-114.7052694,35.8455955],[-114.7056079,35.8461506],[-114.7058629,35.8467343],[-114.7060307,35.8473383],[-114.7061091,35.8479542],[-114.7060968,35.8485733],[-114.7059941,35.8491869],[-114.7058024,35.8497862],[-114.7055244,35.8503629],[-114.705164,35.8509088],[-114.7047264,35.8514163],[-114.7042176,35.8518781],[-114.7036449,35.8522878],[-114.7030163,35.8526396],[-114.7002053,35.8534918],[-114.6995559,35.8536028],[-114.6988946,35.8536494],[-114.6982312,35.8536309],[-114.6976771,35.8535392],[-114.6971134,35.8535019],[-114.6965483,35.8535196],[-114.6959899,35.853592],[-114.6954461,35.8537181],[-114.6949249,35.853896],[-114.6944337,35.8541233],[-114.6939797,35.8543965],[-114.6935692,35.8547119],[-114.6932083,35.8550648],[-114.6929022,35.8554502],[-114.6926552,35.8558626],[-114.6924708,35.8562959],[-114.6923518,35.856744],[-114.6920803,35.8574114],[-114.6917134,35.858048],[-114.691256,35.858645],[-114.6907148,35.859194],[-114.6900973,35.8596872],[-114.6894121,35.8601178],[-114.6852064,35.8618742],[-114.6826955,35.8626808],[-114.6800879,35.8632513],[-114.6774173,35.8635784],[-114.6755675,35.8638712],[-114.6737626,35.864311],[-114.6720203,35.8648935],[-114.6703577,35.865613],[-114.6658516,35.86803],[-114.6633411,35.8695254],[-114.663037,35.8697685],[-114.6627708,35.8700392],[-114.6625463,35.8703337],[-114.6623668,35.8706478],[-114.6622348,35.8709769],[-114.6621521,35.8713165],[-114.66212,35.8716617],[-114.6621389,35.8720075],[-114.6622085,35.8723489],[-114.6623278,35.8726813],[-114.6624953,35.8729997],[-114.6627083,35.8732997],[-114.662964,35.8735769],[-114.6632586,35.8738275],[-114.663588,35.8740479],[-114.6639475,35.8742348],[-114.6643319,35.8743857],[-114.6647358,35.8744983],[-114.6668855,35.8750411],[-114.6689415,35.875785],[-114.6699965,35.8763045],[-114.6709685,35.8769212],[-114.671844,35.8776264],[-114.6726108,35.8784104],[-114.675808,35.8822874],[-114.6768835,35.8836545],[-114.6781233,35.884927],[-114.6795147,35.8860921],[-114.6810436,35.8871378],[-114.6942401,35.8960555],[-114.6957925,35.8970778],[-114.6971814,35.8982443],[-114.6983864,35.8995379],[-114.69939,35.9009399],[-114.7002948,35.9025715],[-114.7013926,35.9041233],[-114.702673,35.9055806],[-114.7049772,35.9078734],[-114.7073293,35.9101341],[-114.7077626,35.9109272],[-114.7080792,35.9117557],[-114.708275,35.9126083],[-114.7083472,35.9134736],[-114.7082949,35.9143398],[-114.7073079,35.9255481],[-114.7072161,35.9260058],[-114.7071886,35.926469],[-114.7072257,35.9269317],[-114.7073268,35.927388],[-114.7074907,35.9278323],[-114.7077154,35.9282588],[-114.7079979,35.9286621],[-114.7083346,35.9290371],[-114.7087214,35.929379],[-114.7091532,35.9296835],[-114.7134018,35.932811],[-114.7157316,35.9344941],[-114.7182942,35.9359383],[-114.7203317,35.9368952],[-114.7223711,35.9378494],[-114.7288514,35.941046],[-114.7293879,35.9415232],[-114.7298493,35.9420494],[-114.7302289,35.9426169],[-114.730521,35.9432173],[-114.7307214,35.9438419],[-114.7308271,35.9444816],[-114.7308367,35.9451268],[-114.7307498,35.9457683],[-114.730568,35.9463966],[-114.7284222,35.9530322],[-114.7282232,35.9536648],[-114.7281059,35.9543107],[-114.7280715,35.9549629],[-114.7281204,35.9556145],[-114.7282521,35.9562586],[-114.7284651,35.9568882],[-114.7292376,35.9600146],[-114.7297607,35.9615654],[-114.7304771,35.9630648],[-114.7313791,35.964497],[-114.7324575,35.965847],[-114.7337008,35.9671006],[-114.7353276,35.9685916],[-114.7367628,35.9702062],[-114.7379923,35.9719284],[-114.7401527,35.9752308],[-114.7418476,35.9787065],[-114.7430563,35.9823125],[-114.7433662,35.9831301],[-114.7435517,35.9839719],[-114.7436102,35.9848257],[-114.7435407,35.985679],[-114.7433444,35.9865193],[-114.743024,35.9873341],[-114.7425843,35.9881117],[-114.7410822,35.9894312],[-114.74072,35.9896996],[-114.7403976,35.9899994],[-114.7401193,35.9903269],[-114.7398886,35.9906777],[-114.7397084,35.9910474],[-114.7395812,35.9914312],[-114.7395084,35.9918242],[-114.7394911,35.9922214],[-114.7395295,35.9926176],[-114.7396231,35.9930077],[-114.7404005,35.9958302],[-114.7412226,35.9988148],[-114.7415424,35.9999757],[-114.7428847,36.0049686],[-114.7431446,36.0060781],[-114.7432415,36.0072046],[-114.743174,36.0083325],[-114.742943,36.0094461],[-114.7428203,36.0098383],[-114.7427394,36.0100636],[-114.7426951,36.0101868],[-114.7425518,36.01053],[-114.7422983,36.0110123],[-114.7420057,36.0115692],[-114.7414205,36.0124048],[-114.7413808,36.0124587],[-114.7413199,36.0125413],[-114.7412738,36.0126038],[-114.7412685,36.012611],[-114.7406262,36.0134261],[-114.7401895,36.0139963],[-114.7400563,36.0141219],[-114.7384917,36.0152714],[-114.7383565,36.0153741],[-114.7382549,36.0154513],[-114.7380286,36.0156181],[-114.7373518,36.016195],[-114.737338,36.0162067],[-114.7372907,36.0162499],[-114.7372398,36.016287],[-114.7372349,36.0162902],[-114.7364216,36.0167104],[-114.735806,36.0170285],[-114.7346792,36.0176106],[-114.7330894,36.0188637],[-114.7315293,36.0200933],[-114.7303219,36.0210449],[-114.7293634,36.0218004],[-114.7269874,36.0245759],[-114.7253437,36.0261498],[-114.7232344,36.0269102],[-114.7223776,36.0282355],[-114.722125,36.0292445],[-114.7250966,36.0355036],[-114.7253244,36.0359835],[-114.7351241,36.0384443],[-114.7425764,36.0389978],[-114.7444539,36.0412812],[-114.7434754,36.044838],[-114.7420368,36.0471707],[-114.7403469,36.0499109],[-114.7359095,36.0531897],[-114.735019,36.0546903],[-114.7361348,36.0589247],[-114.7401259,36.0622205],[-114.7422342,36.0695418],[-114.7423661,36.07],[-114.7426533,36.0709972],[-114.7474145,36.0743127],[-114.7538743,36.0788108],[-114.7565764,36.0806923],[-114.7554101,36.0848474],[-114.7542437,36.0890025],[-114.7528392,36.0903336],[-114.7503215,36.0927195],[-114.7463302,36.0965018],[-114.7439695,36.0985604],[-114.738948,36.1034971],[-114.7203471,36.1064246],[-114.7155897,36.1074425],[-114.7145417,36.1076667],[-114.7024824,36.1102467],[-114.6976494,36.1112807],[-114.6938837,36.1120864],[-114.6899562,36.1129266],[-114.682186,36.1145889],[-114.6745683,36.1153543],[-114.6653376,36.1169749],[-114.6622443,36.1189779],[-114.6600437,36.1230594],[-114.6589686,36.1254504],[-114.6580786,36.1262214],[-114.6521828,36.1288776],[-114.6410883,36.1361571],[-114.6356973,36.1396941],[-114.6338206,36.1409253],[-114.631716,36.142306],[-114.6299888,36.1426571],[-114.629572,36.1424543],[-114.6277412,36.1415636],[-114.6264225,36.1394402],[-114.621883,36.13213],[-114.616694,36.130101],[-114.6107239,36.1328262],[-114.608264,36.133949],[-114.6028641,36.1376952],[-114.597212,36.142103],[-114.5778907,36.1493977],[-114.572031,36.15161],[-114.5618645,36.1513457],[-114.5570433,36.1528911],[-114.5477067,36.1511046],[-114.540416,36.1511935],[-114.5382956,36.1506355],[-114.5354832,36.1491624],[-114.5325982,36.1489415],[-114.5181197,36.1501046],[-114.5159805,36.1502764],[-114.511721,36.150956],[-114.5067114,36.1482768],[-114.5046309,36.1456289],[-114.5048201,36.1424136],[-114.5053875,36.137496],[-114.506144,36.134659],[-114.5057657,36.1314437],[-114.5044418,36.1297414],[-114.5021721,36.1287957],[-114.4961198,36.1278501],[-114.4946979,36.128092],[-114.4928801,36.1284013],[-114.487034,36.129396],[-114.4801346,36.1332398],[-114.4786903,36.1340444],[-114.4775807,36.1346626],[-114.4719412,36.1378043],[-114.470152,36.138801],[-114.463637,36.139695],[-114.4622226,36.1393973],[-114.458369,36.138586],[-114.453325,36.130726],[-114.448654,36.12641],[-114.4477202,36.1262095],[-114.446605,36.12597],[-114.427169,36.136305],[-114.41695,36.145761],[-114.412373,36.147254],[-114.405475,36.147371],[-114.3877282,36.145107],[-114.3845264,36.1446985],[-114.3778714,36.1438495],[-114.3753572,36.1427132],[-114.3733094,36.1417876],[-114.3710143,36.1392726],[-114.3641955,36.1318001],[-114.363109,36.130246],[-114.3594208,36.1270731],[-114.3498649,36.1211518],[-114.3457017,36.1191852],[-114.3433266,36.1175312],[-114.3403361,36.1153564],[-114.3326021,36.11032],[-114.325909,36.1042586],[-114.3248148,36.1031546],[-114.3231666,36.1010714],[-114.3186451,36.0953563],[-114.3129692,36.0881815],[-114.3091542,36.0809374],[-114.3096822,36.0767749],[-114.314206,36.066619],[-114.3139346,36.063745],[-114.3126762,36.0611833],[-114.2930399,36.0522216],[-114.2880369,36.0499382],[-114.2875256,36.0497047],[-114.280202,36.046362],[-114.2752027,36.0407953],[-114.270645,36.03572],[-114.268272,36.0318001],[-114.266721,36.029238],[-114.263146,36.025937],[-114.2562968,36.0213563],[-114.2509158,36.018459],[-114.2455211,36.0157912],[-114.2416687,36.013886],[-114.2357365,36.0143268],[-114.2330959,36.014523],[-114.2317037,36.0146265],[-114.2214142,36.015391],[-114.2140886,36.0159354],[-114.2114485,36.0163695],[-114.2076439,36.0169951],[-114.2019711,36.0184227],[-114.1983396,36.0194858],[-114.192076,36.0214326],[-114.1769373,36.0275135],[-114.1693092,36.0283154],[-114.1680283,36.0280409],[-114.166733,36.0277633],[-114.1598607,36.0262906],[-114.1591715,36.0260427],[-114.1558279,36.0248399],[-114.1537922,36.0244774],[-114.1515771,36.0247922],[-114.1502187,36.025754],[-114.1483907,36.0284272],[-114.1469038,36.0327763],[-114.13735,36.0404854],[-114.136637,36.0420618],[-114.1369222,36.0467459],[-114.1364941,36.053011],[-114.1360551,36.059436],[-114.1343073,36.0648135],[-114.1187246,36.0876122],[-114.1176206,36.0936005],[-114.1193053,36.1004551],[-114.120232,36.1030115],[-114.1214438,36.1099547],[-114.1203026,36.1119455],[-114.1181422,36.113433],[-114.1138021,36.115956],[-114.11043,36.1174211],[-114.1096448,36.1182466],[-114.1092458,36.1195574],[-114.108554,36.1210688],[-114.106984,36.1227358],[-114.1042504,36.1246634],[-114.1010217,36.1278656],[-114.1000707,36.1288689],[-114.0998413,36.1298511],[-114.0994645,36.1309146],[-114.0984263,36.1327882],[-114.0944255,36.1342466],[-114.0934746,36.1360891],[-114.0921056,36.1378822],[-114.0896441,36.1405227],[-114.089198,36.1415904],[-114.0894828,36.1433901],[-114.0893471,36.1441713],[-114.0892604,36.145672],[-114.0893884,36.1472767],[-114.0904264,36.1476783],[-114.0910521,36.1482544],[-114.0912496,36.1491932],[-114.0904331,36.1494942],[-114.0896517,36.1499539],[-114.0900752,36.1504349],[-114.0906036,36.15076],[-114.0901432,36.1513695],[-114.0895422,36.1519842],[-114.0887339,36.1523824],[-114.0881856,36.1526114],[-114.0859771,36.1529455],[-114.0851386,36.1536051],[-114.0843742,36.1543645],[-114.0831791,36.1551848],[-114.0818129,36.1560633],[-114.0789638,36.1587379],[-114.0765848,36.1613053],[-114.0751698,36.1634338],[-114.0747583,36.1658987],[-114.0743611,36.1696052],[-114.0730605,36.1735623],[-114.0707449,36.1783697],[-114.0689366,36.1809028],[-114.0681935,36.1813415],[-114.0677938,36.1822985],[-114.0660608,36.1836053],[-114.0603982,36.187662],[-114.0577841,36.189044],[-114.0555225,36.1901434],[-114.053249,36.1911499],[-114.0495163,36.1928052],[-114.0478976,36.1939642],[-114.0467739,36.1951165],[-114.046606,36.195271],[-114.0466131,36.1961527],[-114.0467658,36.2311907],[-114.0471921,36.2527185],[-114.0477292,36.2963312],[-114.0462856,36.381214],[-114.0462876,36.3813462],[-114.0463258,36.383255],[-114.0474715,36.441403],[-114.0477554,36.4558069],[-114.0480419,36.4703405],[-114.0486027,36.4987774],[-114.0489697,36.5174256],[-114.0489781,36.5178499],[-114.0489811,36.517999],[-114.0489835,36.5181249],[-114.0490139,36.5196634],[-114.0490419,36.5210383],[-114.0490424,36.5213188],[-114.0490492,36.5226353],[-114.0490501,36.5228098],[-114.049057,36.5240844],[-114.0490631,36.5252844],[-114.0490784,36.5281858],[-114.0490791,36.5282949],[-114.0496416,36.5794954],[-114.049796,36.5935447],[-114.0499568,36.6225261],[-114.0501022,36.6391477],[-114.0501464,36.6442026],[-114.0505461,36.680496],[-114.0500073,36.8009072],[-114.0500421,36.8041735],[-114.0501532,36.813896],[-114.0501505,36.8168131],[-114.0501634,36.8168456],[-114.0501738,36.8168748],[-114.0501638,36.8171533],[-114.0501739,36.8175666],[-114.0501251,36.8178925],[-114.0501125,36.8283791],[-114.0503545,36.8431421],[-114.0501375,36.9997794],[-114.0509424,37.0728128],[-114.0508846,37.0753239],[-114.0515831,37.0876306],[-114.0516938,37.2275453],[-114.0518,37.293044],[-114.0518,37.293548],[-114.0518188,37.3556298],[-114.0518372,37.3569638],[-114.051863,37.360529],[-114.0518989,37.4041791],[-114.051943,37.4180754],[-114.0519445,37.4182192],[-114.0526606,37.4314556],[-114.0526773,37.4663382],[-114.0527932,37.472384],[-114.052696,37.4916744],[-114.052685,37.5025759],[-114.0528195,37.5313416],[-114.0528506,37.5697756],[-114.0528283,37.5735259],[-114.0528241,37.5742523],[-114.0524166,37.6043749],[-114.0521932,37.6394071],[-114.0521297,37.6500259],[-114.0518721,37.6630219],[-114.0518292,37.7240178],[-114.051728,37.7459587],[-114.0517608,37.7462346],[-114.05167,37.746958],[-114.0510692,37.756276],[-114.049919,37.765586],[-114.048473,37.809861],[-114.049677,37.823645],[-114.049928,37.852508],[-114.049658,37.881368],[-114.050423,37.999961],[-114.0500306,38.1377468],[-114.0500292,38.1382291],[-114.0499781,38.1487627],[-114.0502376,38.2212875],[-114.0502198,38.2443168],[-114.0499555,38.5729326],[-114.049057,38.677505],[-114.0490822,38.6793885],[-114.049083,38.68],[-114.0493973,38.9201712],[-114.049357,38.9292035],[-114.0493785,38.9294359],[-114.0493404,38.9403097],[-114.0493538,38.9404615],[-114.0493449,38.9405791],[-114.0493398,38.9406471],[-114.0493364,38.9409365],[-114.0493123,38.9495688],[-114.0492952,38.949597],[-114.0492759,38.949626],[-114.047649,39.5427421],[-114.0472877,39.6675892],[-114.047339,39.7246585],[-114.0473014,39.7467068],[-114.0472451,39.7796533],[-114.0470295,39.9060943],[-114.0469906,39.9205146],[-114.0469515,39.9351528],[-114.0468303,39.9806071],[-114.0467974,39.9930995],[-114.046555,39.996899],[-114.046647,40.0030422],[-114.048378,40.118565],[-114.0438121,40.689748],[-114.0437372,40.6990726],[-114.0436126,40.7261665],[-114.0437586,40.7477143],[-114.0437874,40.7555834],[-114.0402955,40.9999938],[-114.0413718,41.9937386],[-114.107259,41.993831],[-114.107428,41.993965],[-114.108139,41.9939645],[-114.2818513,41.9942316],[-114.2846889,41.9941515],[-114.3401371,41.9944071],[-114.6348118,41.996029],[-114.6478888,41.9965018],[-114.6687966,41.9968299],[-114.6693168,41.9968313],[-114.6839655,41.99687],[-114.720721,41.9969672],[-114.961258,41.9976031],[-114.9744874,41.9975335],[-114.9880686,41.9977026],[-115.0104319,41.9967729],[-115.0384216,41.9961779],[-115.1431915,41.9960897],[-115.5265477,41.9968531],[-115.7649849,41.9968196],[-115.791344,41.9969246],[-115.8178255,41.9969086],[-115.8707424,41.9967002],[-115.929742,41.996622],[-115.986243,41.9962811],[-116.1219087,41.9976338],[-116.1336093,41.9976213],[-116.1686081,41.9976253],[-116.1802952,41.9976232],[-116.2027439,41.9975631],[-116.2124738,41.9975514],[-116.378098,41.9965049],[-116.3978076,41.9964372],[-116.417487,41.9967177],[-116.4407391,41.9966883],[-116.4911833,41.9972888],[-116.5203966,41.9973003],[-116.5708637,41.9976053],[-116.5980417,41.9976384],[-116.6353303,41.9978126],[-116.6356016,41.9978139],[-116.6626644,41.9979336],[-116.7261629,41.9981952],[-116.8052379,41.9984542],[-116.9349718,41.998879],[-116.969156,41.998991],[-116.9891482,41.9988407],[-117.0087322,41.9995873],[-117.0174175,41.9999184],[-117.0262469,42.000255],[-117.0284256,42.00024],[-117.0479253,42.0001056],[-117.0677049,41.9999692],[-117.0873232,42.0000037],[-117.1265309,42.0000222],[-117.1655753,42.0000973],[-117.217551,41.999887],[-117.3072195,41.9996041],[-117.3105816,41.9995935],[-117.3652109,41.9994153],[-117.3870695,41.999344],[-117.4036131,41.9993295],[-117.4866541,41.9992568],[-117.4996599,41.9992465],[-117.5193096,41.9992282],[-117.5300374,41.9990797],[-117.5301984,41.9990775],[-117.5389054,41.9989569],[-117.5781847,41.9986475],[-117.5978285,41.9984933],[-117.6107769,41.9983632],[-117.6131299,41.9983408],[-117.6174646,41.9983844],[-117.6372332,41.9983967],[-117.657033,41.9984098],[-117.6572084,41.9984065],[-117.6768244,41.99843],[-117.6966113,41.9984265],[-117.7164336,41.9984162],[-117.7361867,41.9985145],[-117.7376613,41.9985145],[-117.7560092,41.9985138],[-117.7757957,41.9984595],[-117.7955733,41.9984078],[-117.8153656,41.9983562],[-117.8632806,41.9983254],[-117.873467,41.998335],[-117.8867555,41.99828],[-118.1237867,41.9972988],[-118.1240348,41.9972961],[-118.1971966,41.9969951],[-118.2264609,41.996963],[-118.2411263,41.9969547],[-118.3002335,41.9966188],[-118.3003192,41.9966177],[-118.347476,41.9962288],[-118.4165109,41.9958768],[-118.4818596,41.9955436],[-118.501002,41.995446],[-118.6008403,41.9938982],[-118.6202349,41.9936189],[-118.6397424,41.9931134],[-118.66055,41.9930406],[-118.681374,41.9929677],[-118.695987,41.9929165],[-118.7021886,41.9928948],[-118.7230146,41.9928219],[-118.7393689,41.9927647],[-118.7438366,41.992749],[-118.7646572,41.9926761],[-118.773616,41.9926448],[-118.7830332,41.9926118],[-118.7854787,41.9926032],[-118.8243973,41.992719],[-118.8710505,41.992877],[-119.001022,41.993793],[-119.1640762,41.993436],[-119.164159,41.9934361],[-119.1997543,41.9934878],[-119.2000993,41.9934895],[-119.204452,41.9935498],[-119.2046033,41.9935537],[-119.2083649,41.9935684],[-119.2319118,41.9937721],[-119.251033,41.993843],[-119.3211664,41.994183],[-119.3213797,41.994184],[-119.324432,41.993599],[-119.36018,41.994247],[-119.444598,41.995478],[-119.5022399,41.9957242],[-119.511827,41.9956773],[-119.5582809,41.9956662],[-119.645875,41.9961555],[-119.72573,41.996296],[-119.790087,41.997544],[-119.848907,41.997281],[-119.872929,41.997641],[-119.876054,41.997199],[-119.986678,41.995842],[-119.9995297,41.9949298],[-119.9993828,41.9793993],[-119.9994174,41.9739744],[-119.9995739,41.9659233],[-119.9995906,41.9513395],[-119.9995298,41.9368436],[-119.9995812,41.8932496],[-119.9994339,41.8748928],[-119.9993384,41.8748902],[-119.9993295,41.8633854],[-119.9991987,41.8487706],[-119.999077,41.8140777],[-119.9988425,41.7991449],[-119.9986683,41.7845106],[-119.9986337,41.769817],[-119.9987203,41.7498944],[-119.9986077,41.7498913],[-119.9986594,41.7467994],[-119.998641,41.7260498],[-119.9987276,41.7117643],[-119.9987706,41.6809793],[-119.9988309,41.6695256],[-119.9988397,41.654914],[-119.9989435,41.6404309],[-119.9989775,41.624892],[-119.9989774,41.611442],[-119.9991588,41.5825872],[-119.9991492,41.5472523],[-119.9992879,41.5245431],[-119.9993047,41.5101336],[-119.9994955,41.4998945],[-119.9992963,41.4998937],[-119.9994873,41.4522254],[-119.9995391,41.4232813],[-119.9996343,41.4079105],[-119.9996428,41.3602905],[-119.9995997,41.3354236],[-119.9998425,41.2852157],[-120.0002326,41.2163635],[-120.0002839,41.199343],[-119.9999195,41.1873368],[-119.999798,41.1842534],[-119.9997802,41.1836317],[-119.9998149,41.1691501],[-119.9997968,41.1546446],[-120.0002481,41.1442632],[-120.0003346,41.1399827],[-119.9999528,41.1248871],[-120.0000208,41.0860888],[-119.9998461,41.0410963],[-119.9998192,41.0198762],[-119.9998976,40.999897],[-119.9997667,40.9998981],[-119.9997149,40.9770113],[-119.9996017,40.9495021],[-119.9994111,40.9107548],[-119.9993503,40.890457],[-119.9993499,40.8748977],[-119.9992024,40.8748985],[-119.9988548,40.8303061],[-119.9986897,40.8030428],[-119.9987246,40.7737762],[-119.998551,40.7591716],[-119.9984636,40.7499012],[-119.998169,40.7295113],[-119.9978125,40.6980184],[-119.997561,40.6834567],[-119.9973002,40.6567488],[-119.9971176,40.6423374],[-119.9968749,40.6249025],[-119.9968312,40.6249014],[-119.9967186,40.6137703],[-119.9966141,40.5994918],[-119.9962324,40.5851157],[-119.9959287,40.5705116],[-119.9958677,40.5560942],[-119.9958155,40.5232396],[-119.9958589,40.510649],[-119.995833,40.4999027],[-119.9958936,40.4998999],[-119.9957632,40.4831837],[-119.9957369,40.4686231],[-119.9957365,40.4541527],[-119.9956064,40.4292672],[-119.9956324,40.4105056],[-119.9956059,40.3816281],[-119.9958749,40.3749155],[-119.9966387,40.3237063],[-119.9963171,40.2934648],[-119.9962479,40.2733765],[-119.9962388,40.2498984],[-119.9963686,40.2499018],[-119.9965421,40.2297206],[-119.9965593,40.2152054],[-119.996906,40.1862597],[-119.99689,40.1728799],[-119.9968713,40.1571689],[-119.9971132,40.1249098],[-119.9972176,40.124872],[-119.9973478,40.0990101],[-119.9972731,40.0772806],[-119.9972518,40.0710747],[-119.997256,40.0700427],[-119.9973123,40.0562094],[-119.9973811,40.0392763],[-119.9975457,40.0107577],[-119.9977537,39.9999043],[-119.99791,39.9998767],[-119.9982723,39.9673424],[-119.9985346,39.9437747],[-119.9990549,39.8749146],[-119.9991246,39.8749254],[-119.9999916,39.8277465],[-120.0005297,39.7968589],[-120.0007031,39.7663894],[-120.0007214,39.765601],[-120.0010554,39.751174],[-120.0010848,39.7499057],[-120.0011087,39.743948],[-120.0011195,39.7358676],[-120.001133,39.7339838],[-120.001215,39.722449],[-120.0013632,39.7080436],[-120.0012763,39.6919349],[-120.0011871,39.6791689],[-120.0011547,39.6745235],[-120.001116,39.6738816],[-120.001114,39.6732259],[-120.001113,39.6724757],[-120.0011356,39.6703768],[-120.0011606,39.6645503],[-120.0011633,39.6600703],[-120.0011776,39.6566873],[-120.0012012,39.651252],[-120.0012678,39.635755],[-120.0012804,39.6321179],[-120.0013028,39.6248733],[-120.0012325,39.6068397],[-120.001281,39.6031994],[-120.0013811,39.6029257],[-120.0014245,39.5903404],[-120.0014291,39.587633],[-120.001433,39.5853179],[-120.001444,39.5788196],[-120.001439,39.5777434],[-120.0014052,39.5703842],[-120.0014402,39.5665707],[-120.0015327,39.5565053],[-120.0016067,39.5487091],[-120.0016208,39.5469252],[-120.0016742,39.5401568],[-120.0016915,39.5379646],[-120.0016981,39.5370519],[-120.0017033,39.5364],[-120.00174,39.534444],[-120.0017399,39.5343894],[-120.001736,39.530583],[-120.001841,39.524678],[-120.0019,39.521064],[-120.002061,39.51268],[-120.002035,39.512183],[-120.002082,39.509099],[-120.002114,39.508412],[-120.00216,39.50548],[-120.002139,39.505357],[-120.002155,39.504362],[-120.002299,39.495799],[-120.002303,39.495515],[-120.002317,39.494657],[-120.002375,39.491087],[-120.002496,39.487086],[-120.0025872,39.4801635],[-120.0026536,39.4763862],[-120.0026495,39.4728625],[-120.002718,39.4692306],[-120.0028404,39.4684121],[-120.0027794,39.468382],[-120.0026813,39.4683328],[-120.0026289,39.4683038],[-120.0027058,39.4680046],[-120.0027404,39.4654207],[-120.0027968,39.4618754],[-120.0027997,39.461749],[-120.0029612,39.4547682],[-120.0030378,39.4515431],[-120.0030426,39.4513437],[-120.0030448,39.4512532],[-120.0031386,39.4475934],[-120.0031676,39.4460221],[-120.0032485,39.4397227],[-120.0033726,39.4325805],[-120.0033967,39.4311876],[-120.0034158,39.4300935],[-120.0034261,39.4294972],[-120.0035599,39.4217912],[-120.0035727,39.4210566],[-120.0036253,39.4180273],[-120.0036427,39.4170156],[-120.0036653,39.4157058],[-120.0036759,39.4150923],[-120.0037156,39.4127884],[-120.0037273,39.4121091],[-120.0037379,39.4114951],[-120.0037659,39.4098707],[-120.0037711,39.4095724],[-120.0037839,39.4088262],[-120.0037911,39.4084118],[-120.0038177,39.40687],[-120.0038773,39.4034116],[-120.0040075,39.3965068],[-120.0041547,39.388705],[-120.0043205,39.3799103],[-120.0044144,39.3749092],[-120.004429,39.3739992],[-120.0045497,39.3671185],[-120.0046246,39.3628453],[-120.0046798,39.3596279],[-120.004935,39.3449228],[-120.0051559,39.3306434],[-120.0052437,39.3249676],[-120.0053047,39.3210186],[-120.0053219,39.3199064],[-120.0053424,39.3185788],[-120.0053758,39.3164185],[-120.0053779,39.315912],[-120.0053787,39.3157232],[-120.0054059,39.3091489],[-120.0054361,39.3018704],[-120.0054825,39.2906927],[-120.0054573,39.2874134],[-120.0054587,39.2870847],[-120.0054901,39.2800009],[-120.0055142,39.2729085],[-120.0055589,39.2596723],[-120.0055632,39.2584096],[-120.0056188,39.246303],[-120.0056412,39.2414267],[-120.0056428,39.2410889],[-120.0056449,39.2406711],[-120.00565,39.2387184],[-120.0056648,39.2330634],[-120.0056729,39.2299677],[-120.0056743,39.2294192],[-120.0056745,39.2293569],[-120.0056757,39.2289268],[-120.0056759,39.228852],[-120.005674,39.2286339],[-120.0056724,39.2284448],[-120.005691,39.2279316],[-120.0057037,39.2275244],[-120.0057012,39.2273774],[-120.0057021,39.2273124],[-120.0056953,39.2270257],[-120.0057161,39.2259951],[-120.0057247,39.224096],[-120.0057274,39.2234934],[-120.0057276,39.223458],[-120.0057219,39.223159],[-120.0057148,39.2227911],[-120.0057138,39.2227411],[-120.0057109,39.2226616],[-120.0057145,39.2218485],[-120.0057147,39.2217945],[-120.0059617,39.1655489],[-120.0060785,39.1125657],[-120.0062846,39.0674303],[-120.0065184,39.0032856]]]}}]}