{"type":"FeatureCollection","licence":"Data © OpenStreetMap contributors, ODbL 1.0. http://osm.org/copyright","features":[{"type":"Feature","properties":{"place_id":327158912,"osm_type":"relation","osm_id":165476,"place_rank":8,"category":"boundary","type":"administrative","importance":0.7611682386050798,"addresstype":"state","name":"Oregon","display_name":"Oregon, United States"},"bbox":[-124.7035410,41.9926032,-116.4631465,46.2923965],"geometry":{"type":"Polygon","coordinates":[[[-124.703541,42.770369],[-124.70299,42.761726],[-124.700342,42.752526],[-124.699129,42.749832],[-124.698266,42.749832],[-124.695965,42.745453],[-124.690712,42.738254],[-124.682414,42.730185],[-124.676227,42.72599],[-124.664637,42.720482],[-124.65273,42.717263],[-124.64213,42.716113],[-124.630198,42.716289],[-124.626222,42.716614],[-124.623956,42.71696],[-124.620625,42.717665],[-124.616067,42.717018],[-124.609412,42.716536],[-124.601616,42.716627],[-124.596827,42.717126],[-124.590439,42.718095],[-124.584689,42.719302],[-124.582785,42.716598],[-124.579294,42.712067],[-124.575521,42.709292],[-124.574619,42.707129],[-124.571762,42.703612],[-124.566135,42.697491],[-124.561233,42.692755],[-124.558391,42.690992],[-124.553098,42.687708],[-124.544129,42.683817],[-124.544139,42.683808],[-124.545799,42.679691],[-124.547427,42.6724],[-124.547234,42.665071],[-124.545722,42.657166],[-124.543687,42.654022],[-124.543245,42.651049],[-124.54059,42.644492],[-124.537197,42.639724],[-124.535298,42.63767],[-124.530312,42.63228],[-124.522599,42.626861],[-124.518649,42.624832],[-124.519551,42.624832],[-124.51402,42.622065],[-124.508492,42.619564],[-124.501218,42.617325],[-124.492548,42.615414],[-124.473554,42.614734],[-124.472913,42.610752],[-124.476177,42.603365],[-124.476404,42.599073],[-124.479941,42.591481],[-124.480838,42.581577],[-124.479422,42.573951],[-124.475196,42.565146],[-124.474073,42.562805],[-124.465351,42.553033],[-124.467892,42.55082],[-124.479218,42.547635],[-124.489838,42.542901],[-124.490109,42.542722],[-124.50122,42.535388],[-124.50122,42.535054],[-124.503078,42.533431],[-124.506313,42.530608],[-124.512165,42.524336],[-124.515403,42.519258],[-124.518687,42.511076],[-124.524869,42.509154],[-124.53523,42.504915],[-124.544309,42.499833],[-124.547516,42.499833],[-124.551036,42.497078],[-124.554651,42.494142],[-124.556273,42.492597],[-124.557035,42.491871],[-124.558918,42.489732],[-124.560893,42.487594],[-124.564396,42.482744],[-124.567221,42.477791],[-124.568968,42.472095],[-124.569748,42.467704],[-124.570438,42.463379],[-124.570179,42.458849],[-124.569509,42.454586],[-124.567626,42.449714],[-124.565352,42.443565],[-124.561756,42.438283],[-124.559797,42.435859],[-124.555815,42.432487],[-124.554757,42.430335],[-124.552817,42.426536],[-124.549664,42.42206],[-124.546634,42.418658],[-124.544048,42.416419],[-124.5427,42.415252],[-124.537862,42.411808],[-124.532572,42.408396],[-124.527094,42.405552],[-124.521158,42.40321],[-124.514137,42.400862],[-124.509224,42.399765],[-124.504305,42.399171],[-124.501224,42.397917],[-124.499696,42.397408],[-124.497879,42.396866],[-124.495835,42.396459],[-124.494154,42.396086],[-124.494406,42.395625],[-124.494613,42.395246],[-124.495347,42.393736],[-124.495944,42.392561],[-124.496312,42.391587],[-124.496863,42.390445],[-124.497504,42.389304],[-124.497873,42.388229],[-124.498241,42.387323],[-124.4987,42.38645],[-124.498977,42.385341],[-124.499439,42.38383],[-124.499626,42.382688],[-124.49995,42.381412],[-124.500321,42.380068],[-124.500508,42.378825],[-124.50065,42.377515],[-124.500791,42.376641],[-124.500838,42.376137],[-124.500797,42.375162],[-124.500844,42.374835],[-124.500396,42.372917],[-124.500379,42.370567],[-124.500212,42.367682],[-124.500007,42.365101],[-124.499353,42.360947],[-124.498635,42.357836],[-124.497751,42.355331],[-124.496624,42.352193],[-124.49533,42.349593],[-124.493806,42.346864],[-124.492014,42.344339],[-124.491116,42.342976],[-124.49013,42.341749],[-124.486544,42.338278],[-124.488563,42.335629],[-124.490497,42.333249],[-124.491498,42.331589],[-124.492926,42.328914],[-124.494071,42.325875],[-124.494608,42.322107],[-124.494635,42.321869],[-124.495345,42.315649],[-124.495253,42.310413],[-124.494904,42.305751],[-124.494118,42.301768],[-124.492743,42.296014],[-124.490334,42.290646],[-124.487975,42.287155],[-124.484788,42.283242],[-124.481905,42.280499],[-124.480013,42.279204],[-124.479708,42.278995],[-124.478258,42.278002],[-124.47924,42.275671],[-124.480946,42.27155],[-124.482174,42.268207],[-124.482469,42.266854],[-124.484444,42.257832],[-124.485684,42.249837],[-124.48573,42.248514],[-124.485882,42.247471],[-124.485655,42.244151],[-124.485419,42.24214],[-124.485142,42.240265],[-124.48451,42.235374],[-124.484255,42.232692],[-124.483673,42.229613],[-124.482969,42.227005],[-124.482031,42.2241],[-124.481974,42.223961],[-124.481305,42.222332],[-124.480056,42.219599],[-124.477213,42.214776],[-124.473535,42.207482],[-124.471356,42.203723],[-124.469587,42.20177],[-124.466925,42.198522],[-124.463306,42.194987],[-124.457122,42.190047],[-124.451961,42.187844],[-124.451805,42.187075],[-124.451424,42.186342],[-124.449507,42.183921],[-124.447366,42.181504],[-124.44565,42.179818],[-124.441233,42.176697],[-124.439284,42.173035],[-124.438003,42.170671],[-124.436634,42.168443],[-124.435088,42.166318],[-124.434262,42.165539],[-124.433514,42.164832],[-124.433992,42.164153],[-124.434523,42.162063],[-124.434873,42.158264],[-124.435099,42.154904],[-124.435326,42.149865],[-124.435261,42.149202],[-124.434954,42.146043],[-124.434383,42.143266],[-124.433635,42.140625],[-124.432929,42.139495],[-124.433273,42.138885],[-124.433416,42.137473],[-124.432834,42.134226],[-124.432455,42.131848],[-124.431528,42.12921],[-124.431139,42.128142],[-124.43037,42.126374],[-124.429513,42.124836],[-124.428862,42.122862],[-124.428055,42.121179],[-124.426977,42.119394],[-124.425988,42.117912],[-124.425726,42.115861],[-124.425645,42.113575],[-124.425382,42.11159],[-124.425029,42.109539],[-124.424406,42.106948],[-124.423603,42.104526],[-124.422934,42.102305],[-124.421993,42.100285],[-124.42132,42.099107],[-124.420646,42.098164],[-124.420651,42.097088],[-124.420659,42.095205],[-124.420669,42.092953],[-124.420455,42.090128],[-124.42006,42.087202],[-124.419752,42.085285],[-124.41904,42.082694],[-124.418241,42.079566],[-124.417526,42.077546],[-124.416273,42.074854],[-124.415107,42.072766],[-124.413894,42.070813],[-124.412503,42.068489],[-124.410931,42.0663],[-124.410679,42.065954],[-124.409314,42.064077],[-124.407065,42.061616],[-124.404815,42.059425],[-124.402429,42.057401],[-124.400087,42.055579],[-124.39725,42.053487],[-124.393913,42.051729],[-124.3922,42.050817],[-124.39035,42.050173],[-124.389726,42.048523],[-124.388875,42.046941],[-124.387486,42.044516],[-124.386186,42.042361],[-124.38448,42.040069],[-124.382685,42.037677],[-124.380753,42.035418],[-124.378821,42.033429],[-124.377966,42.032552],[-124.377422,42.032071],[-124.37621,42.031001],[-124.37576,42.02994],[-124.375047,42.02923],[-124.374062,42.028654],[-124.373393,42.028045],[-124.372544,42.027402],[-124.37165,42.026758],[-124.370444,42.025878],[-124.369639,42.025403],[-124.368789,42.024794],[-124.367357,42.023912],[-124.36606,42.023199],[-124.364897,42.022454],[-124.363958,42.021877],[-124.36257,42.021298],[-124.360915,42.020348],[-124.359437,42.019736],[-124.358047,42.019291],[-124.357061,42.01895],[-124.35621,42.018542],[-124.355136,42.018032],[-124.353791,42.017621],[-124.352716,42.017279],[-124.351549,42.017038],[-124.350204,42.016661],[-124.349173,42.016386],[-124.34834,42.013904],[-124.346603,42.01078],[-124.342879,42.006579],[-124.338659,42.003256],[-124.331962,41.999835],[-124.328835,41.998334],[-124.2170964,41.998598],[-124.2117774,41.9984701],[-124.2114207,41.9984618],[-124.2091928,41.9984873],[-124.2082809,41.9984888],[-124.2081425,41.9984896],[-124.2046129,41.9983426],[-124.2021561,41.9983016],[-124.1969711,41.9982102],[-124.1926182,41.9981335],[-124.182652,41.9979579],[-124.1734156,41.9978179],[-124.1729683,41.9977977],[-124.1636922,41.997639],[-124.13473,41.9971758],[-124.1153079,41.9970509],[-124.1028285,41.9970561],[-124.1023994,41.9967212],[-124.1020024,41.9966973],[-124.1016913,41.9968169],[-124.1003287,41.9967212],[-124.0879637,41.9968209],[-124.0874648,41.9966495],[-124.0766217,41.9965825],[-124.0454132,41.9963824],[-124.012741,41.9963633],[-123.9932256,41.9960282],[-123.8840937,41.9958741],[-123.83443,41.9959355],[-123.8216544,41.995445],[-123.811792,41.9952073],[-123.7962037,41.9956129],[-123.793648,41.995697],[-123.7895679,41.9957804],[-123.7884962,41.9958056],[-123.7875509,41.9958162],[-123.7768981,41.9960088],[-123.7747675,41.9960196],[-123.7672064,41.9962827],[-123.7519536,41.9966547],[-123.7483752,41.9967525],[-123.733878,41.9969819],[-123.7330158,41.9969951],[-123.7322634,41.9970065],[-123.7290799,41.9970641],[-123.7284894,41.9970504],[-123.7223284,41.9969077],[-123.7204953,41.9968596],[-123.7189721,41.9968196],[-123.714785,41.9967097],[-123.7003372,41.9963381],[-123.685348,41.9959398],[-123.6816836,41.9957405],[-123.6663831,41.9953405],[-123.6572315,41.9950959],[-123.6240508,41.9997781],[-123.5831237,42.0004049],[-123.5693655,42.0006218],[-123.5487632,42.0006675],[-123.5363863,42.0008314],[-123.5183832,42.0007667],[-123.5178137,42.0007647],[-123.5025475,42.0007334],[-123.5011903,42.0007306],[-123.5010341,42.0007177],[-123.4731343,42.0006586],[-123.4679014,42.0006361],[-123.441031,42.0005644],[-123.4067807,42.0000952],[-123.3980765,41.9999701],[-123.3795117,41.9997083],[-123.3513856,41.9993365],[-123.3466888,41.999293],[-123.3332441,41.9998364],[-123.3317161,41.9998948],[-123.3135193,42.0006674],[-123.3119915,42.0007],[-123.305043,42.000981],[-123.2952549,42.0010968],[-123.2913323,42.0012519],[-123.2818324,42.0016162],[-123.2756567,42.0017284],[-123.2592056,42.0026985],[-123.2559908,42.0029004],[-123.2511584,42.0031135],[-123.2383881,42.0036225],[-123.2315536,42.0039364],[-123.2313434,42.0039496],[-123.2168006,42.0045555],[-123.2164295,42.0045692],[-123.211527,42.0047493],[-123.1917867,42.0056083],[-123.1749974,42.0065992],[-123.1667359,42.0072134],[-123.1661404,42.0072576],[-123.153918,42.0081663],[-123.1509211,42.0083891],[-123.1502512,42.0084389],[-123.1459166,42.0087612],[-123.13794,42.0084457],[-123.1333782,42.0082653],[-123.1331612,42.0082567],[-123.1291996,42.0081],[-123.1097079,42.007329],[-123.0977284,42.0064483],[-123.0833876,42.0053116],[-123.0808005,42.0051379],[-123.0724961,42.0051017],[-123.0690671,42.0050868],[-123.0647294,42.0050104],[-123.052574,42.0039865],[-123.0454873,42.0033896],[-123.0415419,42.0033578],[-123.0327545,42.0032685],[-123.0129721,42.0031441],[-123.0076515,42.0031197],[-122.9933707,42.003223],[-122.9883048,42.0032596],[-122.9819267,42.0033279],[-122.9795038,42.0033538],[-122.9762946,42.0033881],[-122.9701137,42.0034543],[-122.9685495,42.0034711],[-122.9560965,42.0035151],[-122.9494436,42.0035386],[-122.9335987,42.0036366],[-122.9300455,42.0036586],[-122.9282129,42.0036618],[-122.9256408,42.0036662],[-122.9109607,42.0036915],[-122.8968259,42.0037489],[-122.8803408,42.0039133],[-122.8559044,42.0038677],[-122.8326396,42.0042147],[-122.8169099,42.0042538],[-122.7716304,42.0039936],[-122.7634729,42.004071],[-122.7586253,42.004117],[-122.7350494,42.0041542],[-122.7156649,42.0040986],[-122.7112931,42.004138],[-122.6915666,42.0043158],[-122.6784244,42.0044916],[-122.6574162,42.0048363],[-122.6395612,42.0049654],[-122.6325221,42.005026],[-122.6261393,42.0050809],[-122.6261391,42.0051261],[-122.6011206,42.0059246],[-122.5821507,42.006554],[-122.5626124,42.0070772],[-122.5348685,42.0076818],[-122.5235574,42.0080028],[-122.5155409,42.0080478],[-122.5043293,42.0080654],[-122.5011354,42.0081147],[-122.5011353,42.0080425],[-122.4968037,42.0080559],[-122.4781184,42.0081139],[-122.4602127,42.0082308],[-122.440735,42.0082963],[-122.4358203,42.0083395],[-122.4210894,42.0083517],[-122.4075983,42.0085334],[-122.3972513,42.0087021],[-122.3878763,42.0090984],[-122.376131,42.009499],[-122.376131,42.0094268],[-122.3633267,42.0092892],[-122.3584328,42.0092211],[-122.3436908,42.0090167],[-122.304089,42.0083512],[-122.289533,42.007769],[-122.2821697,42.0079553],[-122.2612838,42.0076471],[-122.2511273,42.0076759],[-122.251127,42.007838],[-122.2452503,42.007723],[-122.2287484,42.0077171],[-122.2115339,42.0076496],[-122.191837,42.0076569],[-122.1719754,42.0075514],[-122.1644404,42.0073977],[-122.1480161,42.006849],[-122.1304377,42.0066951],[-122.1261235,42.0063785],[-122.123649,42.0061344],[-122.1131021,42.0058778],[-122.1028329,42.0058385],[-122.0925893,42.0057716],[-122.0733268,42.0055635],[-122.0539165,42.0052297],[-122.0511815,42.0051709],[-122.0222142,42.0043968],[-122.0011195,42.0038864],[-122.0011198,42.0038278],[-121.9571071,42.0037249],[-121.9019657,42.0034494],[-121.8899766,42.0033587],[-121.8704247,42.0032749],[-121.8551474,42.0031376],[-121.850809,42.0031039],[-121.8419563,42.0030008],[-121.8334457,42.0028773],[-121.8290937,42.002814],[-121.8255929,42.0027614],[-121.7914027,42.0022718],[-121.7511102,42.0014209],[-121.717636,42.000948],[-121.7082,42.0008148],[-121.7080508,42.0008574],[-121.7074966,42.0008113],[-121.7066128,42.0008113],[-121.70624,42.0007884],[-121.7055064,42.0008342],[-121.7053816,42.000766],[-121.6802882,42.0003438],[-121.6506662,42.0000047],[-121.6261058,41.9996704],[-121.622199,41.9995696],[-121.6004539,41.9993023],[-121.5835353,41.9990498],[-121.5641601,41.9987866],[-121.5060422,41.9980907],[-121.4677691,41.9975859],[-121.4479506,41.9973402],[-121.4232203,41.9971944],[-121.3893477,41.9967875],[-121.3761014,41.9967627],[-121.3761012,41.9967988],[-121.338332,41.9963574],[-121.3289828,41.9970772],[-121.3096421,41.9975551],[-121.2995205,41.9977028],[-121.2881838,41.9976605],[-121.2511039,41.9975704],[-121.2501986,41.9972369],[-121.2476119,41.997052],[-121.2420207,41.9970034],[-121.1542568,41.9963502],[-121.1261151,41.9960074],[-121.1059542,41.9954368],[-121.0964284,41.9947077],[-121.0934029,41.9946279],[-121.0655937,41.994006],[-121.0478053,41.9936392],[-121.0352955,41.9933521],[-121.0186014,41.9933043],[-121.0010883,41.9930588],[-120.9900804,41.9930239],[-120.9807974,41.9933209],[-120.9805767,41.9933288],[-120.9803976,41.9933271],[-120.9739451,41.993358],[-120.9591099,41.993431],[-120.9480465,41.9934836],[-120.9457696,41.9934939],[-120.9352852,41.9935366],[-120.9251311,41.993577],[-120.879481,41.993781],[-120.8548085,41.9938478],[-120.8124755,41.9941853],[-120.7975918,41.9941358],[-120.7927312,41.9941209],[-120.7808927,41.9940813],[-120.7781195,41.994046],[-120.7683502,41.9939107],[-120.760706,41.9938108],[-120.7504884,41.9936873],[-120.731249,41.9937464],[-120.7266901,41.9937342],[-120.7220574,41.9937445],[-120.717207,41.9937535],[-120.7060073,41.9937732],[-120.7028487,41.9937794],[-120.7003774,41.9937839],[-120.6980414,41.9937586],[-120.6948295,41.9937238],[-120.6937412,41.9937092],[-120.6685105,41.9934298],[-120.6588904,41.9933215],[-120.6471065,41.993078],[-120.6106097,41.9930856],[-120.5956624,41.993134],[-120.5919097,41.9931586],[-120.5450403,41.9936794],[-120.4907397,41.9937368],[-120.4578398,41.9935383],[-120.4383262,41.993478],[-120.4161118,41.9934481],[-120.3887154,41.9933816],[-120.3267507,41.9930758],[-120.3138273,41.993012],[-120.3013613,41.9930193],[-120.2997762,41.9930178],[-120.2987836,41.9930128],[-120.298099,41.9930093],[-120.2967225,41.9930116],[-120.2959737,41.9930128],[-120.295563,41.9930135],[-120.295,41.9930164],[-120.2947772,41.9930193],[-120.2945596,41.9930238],[-120.294438,41.9930264],[-120.2906392,41.9930233],[-120.274158,41.9931918],[-120.2500339,41.9934603],[-120.2012734,41.9944264],[-120.2000023,41.9943815],[-120.1999615,41.9944332],[-120.1595186,41.9945826],[-120.1260625,41.9946614],[-120.0935541,41.9948273],[-120.0910967,41.9948432],[-120.0837119,41.9948777],[-120.0445318,41.9948816],[-120.0010583,41.9949235],[-119.9995297,41.9949298],[-119.986678,41.995842],[-119.876054,41.997199],[-119.872929,41.997641],[-119.848907,41.997281],[-119.790087,41.997544],[-119.72573,41.996296],[-119.645875,41.9961555],[-119.5582809,41.9956662],[-119.511827,41.9956773],[-119.5022399,41.9957242],[-119.444598,41.995478],[-119.36018,41.994247],[-119.324432,41.993599],[-119.3213797,41.994184],[-119.3211664,41.994183],[-119.251033,41.993843],[-119.2319118,41.9937721],[-119.2083649,41.9935684],[-119.2046033,41.9935537],[-119.204452,41.9935498],[-119.2000993,41.9934895],[-119.1997543,41.9934878],[-119.164159,41.9934361],[-119.1640762,41.993436],[-119.001022,41.993793],[-118.8710505,41.992877],[-118.8243973,41.992719],[-118.7854787,41.9926032],[-118.7830332,41.9926118],[-118.773616,41.9926448],[-118.7646572,41.9926761],[-118.7438366,41.992749],[-118.7393689,41.9927647],[-118.7230146,41.9928219],[-118.7021886,41.9928948],[-118.695987,41.9929165],[-118.681374,41.9929677],[-118.66055,41.9930406],[-118.6397424,41.9931134],[-118.6202349,41.9936189],[-118.6008403,41.9938982],[-118.501002,41.995446],[-118.4818596,41.9955436],[-118.4165109,41.9958768],[-118.347476,41.9962288],[-118.3003192,41.9966177],[-118.3002335,41.9966188],[-118.2411263,41.9969547],[-118.2264609,41.996963],[-118.1971966,41.9969951],[-118.1240348,41.9972961],[-118.1237867,41.9972988],[-117.8867555,41.99828],[-117.873467,41.998335],[-117.8632806,41.9983254],[-117.8153656,41.9983562],[-117.7955733,41.9984078],[-117.7757957,41.9984595],[-117.7560092,41.9985138],[-117.7376613,41.9985145],[-117.7361867,41.9985145],[-117.7164336,41.9984162],[-117.6966113,41.9984265],[-117.6768244,41.99843],[-117.6572084,41.9984065],[-117.657033,41.9984098],[-117.6372332,41.9983967],[-117.6174646,41.9983844],[-117.6131299,41.9983408],[-117.6107769,41.9983632],[-117.5978285,41.9984933],[-117.5781847,41.9986475],[-117.5389054,41.9989569],[-117.5301984,41.9990775],[-117.5300374,41.9990797],[-117.5193096,41.9992282],[-117.4996599,41.9992465],[-117.4866541,41.9992568],[-117.4036131,41.9993295],[-117.3870695,41.999344],[-117.3652109,41.9994153],[-117.3105816,41.9995935],[-117.3072195,41.9996041],[-117.217551,41.999887],[-117.1655753,42.0000973],[-117.1265309,42.0000222],[-117.0873232,42.0000037],[-117.0677049,41.9999692],[-117.0479253,42.0001056],[-117.0284256,42.00024],[-117.0262469,42.000255],[-117.0262619,42.0009447],[-117.0262624,42.0013722],[-117.0262625,42.0014311],[-117.0262695,42.0067978],[-117.0262691,42.0068549],[-117.0263413,42.0620323],[-117.0262851,42.0748408],[-117.0262815,42.0756574],[-117.026098,42.117647],[-117.02659,42.133258],[-117.026195,42.166404],[-117.0263051,42.240846],[-117.0263605,42.2783039],[-117.0263621,42.2785062],[-117.0263444,42.2902612],[-117.0263712,42.3034455],[-117.0263551,42.3097217],[-117.0261572,42.3233004],[-117.0261403,42.3244633],[-117.026129,42.357193],[-117.0265295,42.3748229],[-117.0265362,42.3755883],[-117.026551,42.378557],[-117.0265847,42.4513863],[-117.0266314,42.5522221],[-117.026665,42.624878],[-117.0266598,42.6277191],[-117.026331,42.807015],[-117.026303,42.80717],[-117.026253,42.807447],[-117.0264556,42.9162574],[-117.0266582,43.024876],[-117.026662,43.0839599],[-117.0266954,43.2507542],[-117.0266908,43.2530379],[-117.0266954,43.2802275],[-117.0266975,43.2927481],[-117.0267104,43.3685456],[-117.0267226,43.4398004],[-117.0267293,43.4793339],[-117.0267438,43.5644732],[-117.0267454,43.5738962],[-117.026746,43.577526],[-117.026774,43.578674],[-117.026922,43.593632],[-117.026889,43.596033],[-117.026824,43.600357],[-117.02676,43.601912],[-117.026789,43.610669],[-117.026937,43.617614],[-117.027001,43.621032],[-117.0269153,43.624467],[-117.026909,43.6246074],[-117.026905,43.62488],[-117.026705,43.631659],[-117.0267047,43.6319079],[-117.026685,43.6465333],[-117.026661,43.664385],[-117.026717,43.675523],[-117.0267197,43.6757409],[-117.0267211,43.6758555],[-117.0267671,43.6796077],[-117.0267858,43.6811373],[-117.0266977,43.693842],[-117.026825,43.706193],[-117.026725,43.714815],[-117.026841,43.732905],[-117.026651,43.733935],[-117.0266409,43.7781743],[-117.0266347,43.805093],[-117.0266343,43.8067322],[-117.0266343,43.8067586],[-117.026634,43.808104],[-117.0243824,43.8127525],[-117.0234543,43.8135306],[-117.023052,43.814119],[-117.0224243,43.8154622],[-117.0221669,43.8170453],[-117.0219603,43.8175466],[-117.0213944,43.8201921],[-117.0224941,43.8218642],[-117.022875,43.8227737],[-117.0233578,43.82342],[-117.0238352,43.8240586],[-117.0251012,43.8251346],[-117.0267675,43.8261044],[-117.028183,43.8264195],[-117.0292023,43.8271199],[-117.0299006,43.8278099],[-117.0308586,43.828338],[-117.0311496,43.828459],[-117.0323297,43.8288982],[-117.0326462,43.8290724],[-117.0328555,43.8292426],[-117.0330325,43.8295],[-117.0328072,43.831046],[-117.0324719,43.831611],[-117.0322815,43.8318161],[-117.0320347,43.8321527],[-117.0319301,43.8324933],[-117.031877,43.8328531],[-117.0321447,43.83351],[-117.0323405,43.8342066],[-117.0323177,43.8344978],[-117.0322155,43.8347779],[-117.0316967,43.8355696],[-117.0309994,43.8362661],[-117.0291138,43.8384272],[-117.0279591,43.8392726],[-117.0273019,43.8401268],[-117.0269465,43.840476],[-117.0263189,43.8409151],[-117.0255826,43.8413698],[-117.0251682,43.8416077],[-117.0247927,43.8417896],[-117.0240095,43.8420913],[-117.0234436,43.8422461],[-117.0227978,43.8423255],[-117.0223385,43.8422906],[-117.0218235,43.8422152],[-117.0211798,43.8420333],[-117.0172235,43.8408155],[-117.0158529,43.840238],[-117.0144206,43.8401394],[-117.0129991,43.8402226],[-117.0122668,43.8406656],[-117.0117706,43.8411763],[-117.0113575,43.8417808],[-117.0112395,43.8429774],[-117.010408,43.8442077],[-117.0103008,43.8454225],[-117.0098716,43.8465406],[-117.0101345,43.8483938],[-117.0103866,43.8491211],[-117.0107514,43.8497826],[-117.0119315,43.8511211],[-117.0126611,43.8517942],[-117.0143013,43.8525807],[-117.0196939,43.8538019],[-117.0205307,43.854181],[-117.0212308,43.8551984],[-117.0214963,43.8559701],[-117.0215312,43.857351],[-117.0213863,43.8579216],[-117.0209599,43.8585985],[-117.0199835,43.8593373],[-117.0182006,43.8603483],[-117.0161051,43.8609734],[-117.0150319,43.8614048],[-117.0124712,43.8623435],[-117.0106409,43.8627223],[-117.009877,43.8629421],[-117.0082516,43.8638549],[-117.0032305,43.8642958],[-117.0006558,43.864375],[-116.9990181,43.8645732],[-116.9982818,43.8648644],[-116.9976029,43.8649688],[-116.9967878,43.8649417],[-116.9951785,43.86435],[-116.9939607,43.8640676],[-116.991535,43.8639122],[-116.9899961,43.8639452],[-116.9892654,43.8642236],[-116.9880384,43.8653942],[-116.9869743,43.8658513],[-116.9850075,43.8662315],[-116.9830959,43.8670016],[-116.9825645,43.8678647],[-116.982347,43.86884],[-116.9822529,43.8721149],[-116.9837886,43.8769198],[-116.9837937,43.8769539],[-116.9839602,43.8791315],[-116.9826555,43.8820171],[-116.9761312,43.8950953],[-116.976024,43.895548],[-116.9763954,43.8965893],[-116.976429,43.901293],[-116.970007,43.9048409],[-116.969673,43.9067127],[-116.9692264,43.9092156],[-116.9686888,43.9122279],[-116.9685442,43.9130381],[-116.9681589,43.9151974],[-116.9678931,43.9166869],[-116.966256,43.9185731],[-116.9636658,43.9213626],[-116.9624703,43.9283362],[-116.9682896,43.9372361],[-116.963328,43.9457755],[-116.9636658,43.9526443],[-116.966256,43.9558322],[-116.9677687,43.956639],[-116.9692447,43.9574262],[-116.9702409,43.9586217],[-116.9719882,43.9602157],[-116.9734204,43.9628059],[-116.9746908,43.9670003],[-116.9720214,43.9678363],[-116.9666478,43.9708867],[-116.9587534,43.9786917],[-116.9524912,43.9821979],[-116.9485532,43.984715],[-116.9398524,43.9841594],[-116.9368597,43.9870598],[-116.9352405,43.9909377],[-116.9402157,43.9973147],[-116.943752,44.0009103],[-116.9444519,44.0031436],[-116.9437867,44.0047796],[-116.9422418,44.0061533],[-116.9377142,44.0092862],[-116.936765,44.010608],[-116.9368105,44.0139503],[-116.934485,44.021249],[-116.934727,44.023806],[-116.9351528,44.0247129],[-116.9353101,44.0250481],[-116.937342,44.029376],[-116.943361,44.035645],[-116.9502936,44.039542],[-116.9557331,44.0425997],[-116.9559601,44.0427273],[-116.956246,44.042888],[-116.972504,44.048771],[-116.973185,44.049425],[-116.974016,44.053663],[-116.9756598,44.0624572],[-116.9755825,44.0739724],[-116.9772385,44.0842944],[-116.9773243,44.0851103],[-116.977351,44.085364],[-116.9771862,44.0855199],[-116.974253,44.088295],[-116.9675301,44.0908135],[-116.967203,44.090936],[-116.9670037,44.0909518],[-116.9569531,44.0923392],[-116.9494251,44.0931719],[-116.9439205,44.0939283],[-116.943132,44.09406],[-116.9418719,44.0947459],[-116.9405451,44.095468],[-116.9390485,44.0962826],[-116.937835,44.096943],[-116.933704,44.100039],[-116.928306,44.107326],[-116.9271436,44.1104814],[-116.9275044,44.1159053],[-116.9267244,44.1179775],[-116.9252759,44.1193462],[-116.9206955,44.1223781],[-116.9166743,44.124995],[-116.9162506,44.1255934],[-116.9139711,44.1274115],[-116.9133836,44.1296431],[-116.9120217,44.1381444],[-116.9087039,44.1415253],[-116.902201,44.1456726],[-116.9009594,44.1498642],[-116.8975925,44.1528174],[-116.8948541,44.1551786],[-116.894309,44.158114],[-116.894083,44.160191],[-116.8938015,44.1619186],[-116.8953159,44.1691949],[-116.895757,44.171267],[-116.900103,44.176851],[-116.902752,44.179467],[-116.9034355,44.1798316],[-116.9038181,44.1800357],[-116.9190458,44.1844542],[-116.9234091,44.187311],[-116.925392,44.191544],[-116.9258324,44.1916499],[-116.93572,44.1934871],[-116.940534,44.19371],[-116.945256,44.191677],[-116.947591,44.191264],[-116.965498,44.194126],[-116.967259,44.194581],[-116.9697157,44.1954585],[-116.971675,44.197256],[-116.972453,44.2015382],[-116.9730071,44.2081822],[-116.9727996,44.2122652],[-116.9701505,44.2172031],[-116.9702951,44.2229944],[-116.9737137,44.225932],[-116.9741218,44.2272837],[-116.9723672,44.23367],[-116.9720744,44.2351063],[-116.971958,44.235677],[-116.9724364,44.2369765],[-116.9728239,44.2380291],[-116.973542,44.23998],[-116.9764172,44.2428275],[-116.9811566,44.2444871],[-116.9865065,44.2457248],[-116.9925457,44.2473981],[-117.000967,44.2474347],[-117.016921,44.245391],[-117.020231,44.246063],[-117.025277,44.248505],[-117.027558,44.248881],[-117.031862,44.248635],[-117.03585,44.246805],[-117.042283,44.242775],[-117.045513,44.232005],[-117.0459037,44.2314342],[-117.0466803,44.2302996],[-117.047062,44.229742],[-117.0478138,44.2295131],[-117.0497108,44.2289354],[-117.050057,44.22883],[-117.0504102,44.2288592],[-117.0524713,44.2290298],[-117.05303,44.229076],[-117.0534575,44.2292969],[-117.05651,44.230874],[-117.059352,44.237244],[-117.067284,44.24401],[-117.0674849,44.2441167],[-117.0742373,44.2477016],[-117.07835,44.249885],[-117.089503,44.258234],[-117.090933,44.260311],[-117.0918983,44.2636722],[-117.093578,44.269383],[-117.09457,44.270978],[-117.098531,44.275533],[-117.102242,44.278799],[-117.104208,44.27994],[-117.107673,44.280763],[-117.111617,44.280667],[-117.1131194,44.2802628],[-117.1154396,44.2796386],[-117.118018,44.278945],[-117.121037,44.277585],[-117.130904,44.269453],[-117.13253,44.267045],[-117.133104,44.264236],[-117.133984,44.262972],[-117.138523,44.25937],[-117.143394,44.258262],[-117.1453139,44.2593733],[-117.15706,44.25749],[-117.170342,44.25889],[-117.193129,44.270963],[-117.198147,44.273828],[-117.2064367,44.2809771],[-117.216974,44.288357],[-117.222647,44.297578],[-117.222451,44.298963],[-117.220069,44.301382],[-117.217843,44.30718],[-117.216795,44.308236],[-117.21521,44.309116],[-117.2055,44.311789],[-117.203323,44.313024],[-117.192203,44.32863],[-117.191546,44.329621],[-117.189842,44.335007],[-117.189769,44.336585],[-117.196149,44.346362],[-117.1973342,44.3474077],[-117.206962,44.355206],[-117.210584,44.3577056],[-117.2169134,44.3601604],[-117.2252638,44.3661216],[-117.2279452,44.367972],[-117.2308811,44.3703848],[-117.235123,44.3738517],[-117.2413298,44.3873113],[-117.2430324,44.3909736],[-117.242684,44.3965493],[-117.234835,44.399669],[-117.226977,44.4055809],[-117.225458,44.4077273],[-117.218285,44.420664],[-117.2181184,44.4209883],[-117.2150678,44.4271611],[-117.214631,44.44803],[-117.2155694,44.4537464],[-117.217015,44.459042],[-117.2171492,44.4593909],[-117.2215432,44.4701477],[-117.224451,44.473884],[-117.224707,44.4745502],[-117.225443,44.476422],[-117.225758,44.477223],[-117.225938,44.4793899],[-117.2257237,44.4801086],[-117.225076,44.482346],[-117.224112,44.4837366],[-117.2235029,44.4839226],[-117.216372,44.48616],[-117.2158673,44.4860862],[-117.211148,44.4853633],[-117.208936,44.485661],[-117.2002412,44.4920287],[-117.194311,44.4998819],[-117.192494,44.503272],[-117.191329,44.506784],[-117.1916348,44.5098873],[-117.189759,44.513385],[-117.1853908,44.5192636],[-117.181583,44.52296],[-117.167187,44.523431],[-117.161033,44.525166],[-117.152403,44.5317994],[-117.149242,44.536151],[-117.144161,44.545647],[-117.14293,44.557236],[-117.147934,44.562143],[-117.148255,44.564371],[-117.146032,44.568603],[-117.1436779,44.5704766],[-117.1432603,44.570809],[-117.14248,44.57143],[-117.138066,44.572996],[-117.133963,44.57524],[-117.126009,44.581553],[-117.124754,44.583834],[-117.125267,44.593818],[-117.1213789,44.6108943],[-117.120522,44.614658],[-117.117809,44.620139],[-117.114754,44.624883],[-117.108231,44.62711],[-117.098221,44.640689],[-117.094968,44.652011],[-117.096791,44.657385],[-117.095868,44.664737],[-117.091223,44.668807],[-117.0820353,44.682305],[-117.080772,44.684161],[-117.080555,44.686714],[-117.07912,44.692175],[-117.072221,44.700517],[-117.063824,44.703623],[-117.061799,44.706654],[-117.060454,44.721668],[-117.062273,44.727143],[-117.044217,44.74514],[-117.03827,44.748179],[-117.0151158,44.7563759],[-117.0144038,44.756628],[-117.013802,44.756841],[-117.0127541,44.7567306],[-117.006045,44.756024],[-117.005122,44.7560703],[-116.998903,44.756382],[-116.992003,44.759182],[-116.986502,44.762381],[-116.977802,44.767981],[-116.972902,44.772581],[-116.970902,44.773881],[-116.966801,44.775181],[-116.949001,44.777981],[-116.9368,44.782881],[-116.9347,44.783881],[-116.9318,44.787181],[-116.9307,44.789881],[-116.9308,44.790981],[-116.933099,44.794481],[-116.933799,44.796781],[-116.933699,44.798781],[-116.931099,44.804781],[-116.928099,44.808381],[-116.920498,44.81438],[-116.905771,44.834794],[-116.9035575,44.8379406],[-116.899058,44.840503],[-116.8984885,44.8419598],[-116.897422,44.8442726],[-116.8970886,44.8451818],[-116.897053,44.8452789],[-116.8970352,44.8456847],[-116.8965021,44.8466801],[-116.8961639,44.8474258],[-116.8961221,44.8485454],[-116.8961858,44.8491767],[-116.8964791,44.85003],[-116.8966628,44.8502008],[-116.8969899,44.8505049],[-116.8977033,44.8507601],[-116.8985008,44.8512555],[-116.8988836,44.8518934],[-116.8986236,44.8530352],[-116.8981515,44.8542217],[-116.8970358,44.8554081],[-116.8957698,44.8560318],[-116.8937742,44.8559558],[-116.8896329,44.8556819],[-116.8882274,44.8559709],[-116.8868648,44.8565642],[-116.884247,44.8581157],[-116.8812973,44.8605844],[-116.8783032,44.863074],[-116.8783372,44.8648051],[-116.8781772,44.8654161],[-116.8770158,44.8661767],[-116.8745052,44.8670435],[-116.871701,44.867613],[-116.8703853,44.8677583],[-116.8660214,44.8701376],[-116.8636767,44.8722119],[-116.8626606,44.8746926],[-116.8620598,44.8762132],[-116.8611156,44.8774905],[-116.8594848,44.8788285],[-116.8575966,44.8813829],[-116.8546783,44.8855791],[-116.8524897,44.887449],[-116.8512227,44.8893809],[-116.8514148,44.8907199],[-116.8518638,44.8917984],[-116.851712,44.8923904],[-116.851065,44.8929664],[-116.8501606,44.8940441],[-116.8496853,44.8951217],[-116.8497216,44.8963267],[-116.8491637,44.8991083],[-116.8480855,44.9006798],[-116.846857,44.9023122],[-116.8462884,44.9046559],[-116.8451243,44.9063542],[-116.8430161,44.9082957],[-116.8424045,44.9096406],[-116.841632,44.9124064],[-116.8410527,44.9150049],[-116.8391322,44.9168358],[-116.8380701,44.9186668],[-116.8376839,44.9216904],[-116.8380057,44.9232705],[-116.8374281,44.925033],[-116.8364643,44.9263245],[-116.8340757,44.9283417],[-116.8327915,44.9299551],[-116.8316808,44.9320354],[-116.8317426,44.9333954],[-116.832534,44.9346946],[-116.834315,44.937687],[-116.8361389,44.9412565],[-116.8391641,44.9442854],[-116.842662,44.9472707],[-116.845391,44.9504382],[-116.8466873,44.9521954],[-116.8474686,44.9539525],[-116.8500435,44.9572931],[-116.8509876,44.9592518],[-116.8514168,44.9611801],[-116.8509447,44.9627136],[-116.8503808,44.9633216],[-116.8500435,44.9636853],[-116.8486273,44.9645659],[-116.8465834,44.9654389],[-116.8441533,44.9659475],[-116.8422543,44.9667217],[-116.841525,44.9674675],[-116.839873,44.96835],[-116.837534,44.9690625],[-116.8354954,44.9698661],[-116.8349181,44.9713835],[-116.8333065,44.9730825],[-116.8315899,44.9750862],[-116.8303079,44.9768433],[-116.8286145,44.9787766],[-116.8277745,44.9796569],[-116.8269254,44.9815641],[-116.8261825,44.9824326],[-116.825925,44.9835861],[-116.8263079,44.9841325],[-116.8273434,44.9843416],[-116.8277275,44.9843146],[-116.8291838,44.984164],[-116.8308202,44.984633],[-116.8329632,44.9845574],[-116.8352806,44.9843753],[-116.8374263,44.9840718],[-116.8387138,44.9833433],[-116.8399154,44.9817648],[-116.8410312,44.9804291],[-116.8427479,44.9780613],[-116.8438637,44.9761184],[-116.8446361,44.9746005],[-116.8459236,44.9733254],[-116.8484127,44.9721717],[-116.8503868,44.9719895],[-116.8527042,44.9724146],[-116.8539058,44.9733254],[-116.8543816,44.973859],[-116.8551075,44.9747826],[-116.8557339,44.9752624],[-116.8558112,44.9753216],[-116.856997,44.9760325],[-116.8580078,44.9771766],[-116.8582301,44.9781394],[-116.858133,44.9794001],[-116.8578541,44.981522],[-116.8569593,44.9835689],[-116.8568681,44.983734],[-116.8557232,44.985806],[-116.853751,44.9886912],[-116.8521034,44.991417],[-116.8490993,44.9951196],[-116.8476402,44.9980937],[-116.8442928,45.0016745],[-116.844207,45.0048302],[-116.8450653,45.0073183],[-116.8465592,45.009966],[-116.8466781,45.0101768],[-116.847321,45.01102],[-116.8472767,45.0119301],[-116.8454944,45.0135077],[-116.8448204,45.0141391],[-116.8445503,45.0147819],[-116.8450653,45.0167842],[-116.8461328,45.0188951],[-116.8476402,45.0207279],[-116.848241,45.0221839],[-116.8466961,45.0240646],[-116.8440989,45.0274187],[-116.8423572,45.0296003],[-116.8387138,45.0320719],[-116.8345081,45.033831],[-116.8314263,45.0348281],[-116.8278585,45.0364597],[-116.8225561,45.0400651],[-116.8207752,45.0428073],[-116.8176853,45.0455363],[-116.8149387,45.047113],[-116.8111622,45.0492961],[-116.8073856,45.0519641],[-116.8030082,45.0552384],[-116.79906,45.0583306],[-116.796056,45.0612407],[-116.793996,45.0646357],[-116.7915069,45.068273],[-116.7875587,45.0728799],[-116.7850273,45.0753562],[-116.7845702,45.0759168],[-116.783902,45.079022],[-116.784045,45.079593],[-116.784047,45.080769],[-116.784028,45.080959],[-116.78401,45.081143],[-116.783997,45.08134],[-116.783953,45.08171],[-116.783925,45.082062],[-116.783859,45.082886],[-116.783934,45.083392],[-116.784289,45.085776],[-116.784278,45.086367],[-116.784244,45.088128],[-116.783961,45.090447],[-116.7839,45.091002],[-116.783773,45.09216],[-116.783618,45.093107],[-116.783537,45.093605],[-116.783171,45.09437],[-116.782961,45.09481],[-116.782751,45.095249],[-116.782492,45.09579],[-116.781786,45.096733],[-116.780355,45.098646],[-116.779453,45.099688],[-116.778649,45.100231],[-116.778513,45.100334],[-116.778451,45.100365],[-116.778408,45.100394],[-116.778197,45.100724],[-116.778136,45.100818],[-116.778075,45.100911],[-116.777988,45.101045],[-116.777902,45.101179],[-116.777411,45.10194],[-116.777121,45.102414],[-116.777058,45.102514],[-116.776994,45.102615],[-116.776962,45.102666],[-116.776931,45.102716],[-116.776414,45.103553],[-116.774847,45.105536],[-116.773421,45.106107],[-116.772232,45.106343],[-116.770236,45.10725],[-116.7694847,45.1081304],[-116.766718,45.109301],[-116.762962,45.110477],[-116.759777,45.111721],[-116.754643,45.113972],[-116.75393,45.115283],[-116.753931,45.116651],[-116.753694,45.118777],[-116.753267,45.120491],[-116.752839,45.121768],[-116.752173,45.122037],[-116.750983,45.122272],[-116.748564,45.122945],[-116.747523,45.123584],[-116.74686,45.124223],[-116.746607,45.124878],[-116.746232,45.126813],[-116.746217,45.129381],[-116.745958,45.131187],[-116.745535,45.133038],[-116.742455,45.135265],[-116.736954,45.137499],[-116.733296,45.138486],[-116.731216,45.139934],[-116.729607,45.142091],[-116.728757,45.144381],[-116.728436,45.149628],[-116.728018,45.154237],[-116.727357,45.156324],[-116.725178,45.159222],[-116.724188,45.162924],[-116.72415,45.167734],[-116.724205,45.171501],[-116.723166,45.174362],[-116.720611,45.17948],[-116.717676,45.184364],[-116.716068,45.188908],[-116.714318,45.193419],[-116.711997,45.197426],[-116.709536,45.203015],[-116.708546,45.207356],[-116.708645,45.210013],[-116.709364,45.213408],[-116.70975,45.217243],[-116.709373,45.219463],[-116.708189,45.222089],[-116.706264,45.224464],[-116.704111,45.228154],[-116.70398,45.232786],[-116.703697,45.236093],[-116.702709,45.23791],[-116.702841,45.238952],[-116.703611,45.239759],[-116.703697,45.240099],[-116.703181,45.2408],[-116.700751,45.242939],[-116.7003892,45.2433181],[-116.699715,45.244037],[-116.698852,45.24508],[-116.698765,45.245182],[-116.698661,45.245552],[-116.698481,45.246192],[-116.698447,45.247083],[-116.698435,45.247403],[-116.698363,45.247702],[-116.698104,45.248782],[-116.697472,45.24988],[-116.69746,45.249904],[-116.697384,45.250049],[-116.697309,45.250193],[-116.696901,45.250976],[-116.696829,45.251081],[-116.696163,45.252055],[-116.696142,45.252256],[-116.6961,45.252652],[-116.696059,45.253048],[-116.695952,45.254074],[-116.696017,45.254483],[-116.696047,45.254679],[-116.695801,45.255066],[-116.695619,45.255353],[-116.694573,45.25697],[-116.694286,45.25772],[-116.694158,45.258053],[-116.694031,45.258386],[-116.694001,45.258464],[-116.693971,45.258542],[-116.693813,45.258956],[-116.693616,45.259515],[-116.693596,45.259573],[-116.693575,45.25963],[-116.693554,45.259692],[-116.693532,45.259754],[-116.693526,45.259774],[-116.692809,45.261061],[-116.692482,45.261651],[-116.691388,45.263739],[-116.691153,45.263906],[-116.690981,45.264028],[-116.69081,45.264149],[-116.690407,45.264434],[-116.690004,45.26472],[-116.689485,45.265088],[-116.688581,45.265829],[-116.688499,45.265887],[-116.68828,45.266042],[-116.688062,45.266197],[-116.687772,45.266403],[-116.687668,45.266718],[-116.687586,45.266969],[-116.687503,45.26722],[-116.687439,45.267413],[-116.6871784,45.2676433],[-116.6793876,45.2714532],[-116.6769409,45.2737991],[-116.675587,45.274867],[-116.6749503,45.2757295],[-116.674493,45.276349],[-116.6738415,45.2788788],[-116.672733,45.283183],[-116.6724631,45.2859084],[-116.6722356,45.2882045],[-116.672163,45.288938],[-116.6724258,45.2979821],[-116.672971,45.2998267],[-116.6729912,45.3011791],[-116.6732118,45.3029321],[-116.6728889,45.3051041],[-116.67417,45.3080017],[-116.6737228,45.3110323],[-116.6739446,45.3126799],[-116.674648,45.314342],[-116.6742161,45.3179632],[-116.6739427,45.3202557],[-116.673793,45.321511],[-116.6730136,45.3225007],[-116.6719262,45.3228301],[-116.6712947,45.3235787],[-116.6705428,45.3250848],[-116.6681664,45.3281708],[-116.6663658,45.3317802],[-116.6611938,45.3388616],[-116.6591821,45.3422346],[-116.6559826,45.3474783],[-116.6553993,45.3486078],[-116.655186,45.3488658],[-116.6531038,45.3509627],[-116.6506543,45.3539174],[-116.6457905,45.3605027],[-116.6418708,45.3656009],[-116.6415606,45.3668778],[-116.6415439,45.3669465],[-116.6413745,45.3675726],[-116.6410568,45.3680136],[-116.6403591,45.3682132],[-116.6364336,45.372441],[-116.6345226,45.3752679],[-116.6319902,45.3777561],[-116.630595,45.3800089],[-116.629119,45.38185],[-116.6278278,45.3848536],[-116.6274468,45.3865043],[-116.6266169,45.3878365],[-116.623193,45.391846],[-116.6227638,45.3926898],[-116.6234504,45.393172],[-116.623193,45.3940761],[-116.6215674,45.3948283],[-116.6202858,45.3955499],[-116.6201619,45.3958181],[-116.619057,45.39821],[-116.6167044,45.3995362],[-116.6143284,45.4015856],[-116.6132233,45.4022631],[-116.6131315,45.402312],[-116.61049,45.4037189],[-116.6092337,45.4052152],[-116.6062691,45.4068263],[-116.6059733,45.4070256],[-116.6052764,45.4074951],[-116.6031662,45.4091219],[-116.6022735,45.4095183],[-116.5990745,45.4115525],[-116.5971641,45.4136677],[-116.5967419,45.4148297],[-116.596719,45.4160617],[-116.5962956,45.4169108],[-116.5959758,45.4178916],[-116.5950906,45.420607],[-116.5944446,45.4221987],[-116.5931908,45.4241423],[-116.5924285,45.4273041],[-116.592416,45.427356],[-116.5919678,45.4287831],[-116.5917845,45.4299644],[-116.5908067,45.4340033],[-116.590168,45.4380525],[-116.589368,45.4408283],[-116.5887653,45.4421807],[-116.5883371,45.4431416],[-116.5875385,45.4436698],[-116.586815,45.4441483],[-116.5851469,45.4450016],[-116.5840603,45.4455574],[-116.5828699,45.4474383],[-116.581955,45.4485482],[-116.5814188,45.4490255],[-116.581382,45.448984],[-116.5793281,45.4503013],[-116.5772842,45.4519523],[-116.5759436,45.452601],[-116.569202,45.4555535],[-116.5678966,45.4570353],[-116.5668277,45.458421],[-116.5653433,45.4597726],[-116.5641697,45.4604945],[-116.5623716,45.4611465],[-116.558777,45.4620274],[-116.5562696,45.4624017],[-116.5550973,45.4630316],[-116.5547592,45.4643141],[-116.5551093,45.466017],[-116.5554177,45.467744],[-116.5555764,45.4686328],[-116.5549746,45.47288],[-116.5552888,45.473478],[-116.5554637,45.4738108],[-116.5557305,45.4741346],[-116.5565854,45.4759454],[-116.5584652,45.4786614],[-116.558576,45.4793797],[-116.5586959,45.4801575],[-116.5587982,45.4808208],[-116.5586237,45.4812965],[-116.5580013,45.4829931],[-116.5574294,45.4838258],[-116.5571417,45.4853133],[-116.5569536,45.4866214],[-116.5562354,45.4880614],[-116.5560743,45.4883845],[-116.5557118,45.489792],[-116.5548957,45.4919828],[-116.5540743,45.4931824],[-116.5538755,45.4938048],[-116.5530639,45.4963451],[-116.552978,45.4983305],[-116.553473,45.499107],[-116.5542589,45.5000343],[-116.556897,45.5016144],[-116.5580354,45.5037016],[-116.5569766,45.505747],[-116.5564843,45.5063947],[-116.5557295,45.507388],[-116.5544809,45.5080645],[-116.5533125,45.5082896],[-116.5520422,45.5085343],[-116.5493379,45.5105812],[-116.5448034,45.5134299],[-116.543837,45.514193],[-116.5427142,45.5157279],[-116.5409618,45.518541],[-116.5408207,45.5199434],[-116.5407464,45.520682],[-116.5395026,45.5219087],[-116.5384679,45.5230447],[-116.5379316,45.5231173],[-116.5372649,45.5232076],[-116.5365227,45.5238026],[-116.5358736,45.5251746],[-116.5350178,45.525992],[-116.5342968,45.5283623],[-116.5334893,45.5293446],[-116.5325363,45.5305038],[-116.5331445,45.5327628],[-116.5321212,45.5354979],[-116.5312629,45.5376021],[-116.5296321,45.5383836],[-116.529339,45.5385959],[-116.5277107,45.5397758],[-116.5267139,45.5418704],[-116.5266696,45.5441274],[-116.5266643,45.5441435],[-116.5262847,45.5452969],[-116.5252795,45.5455562],[-116.5246539,45.5457176],[-116.5236326,45.5466889],[-116.5235415,45.5481281],[-116.5249972,45.5495045],[-116.5267139,45.5497449],[-116.5282588,45.5500755],[-116.528688,45.5515481],[-116.5272595,45.5519536],[-116.5260272,45.5540724],[-116.5240904,45.5547823],[-116.5228323,45.5552434],[-116.522472,45.5554726],[-116.5207057,45.5565966],[-116.5189891,45.5570173],[-116.5160709,45.5570173],[-116.5132723,45.5565369],[-116.5121226,45.5565966],[-116.5101485,45.5569872],[-116.5069728,45.5585198],[-116.5049987,45.5598419],[-116.5029388,45.5623057],[-116.5028529,45.5633874],[-116.5034537,45.5654305],[-116.5026812,45.5667674],[-116.5005877,45.5680548],[-116.4989926,45.5689881],[-116.4972976,45.5701356],[-116.4930295,45.5731576],[-116.4915314,45.5736269],[-116.4902736,45.5745779],[-116.4900001,45.5745947],[-116.4891496,45.5749637],[-116.4859788,45.5760522],[-116.4836696,45.5768449],[-116.4829646,45.5770869],[-116.4824933,45.5774211],[-116.4823218,45.5775697],[-116.4819376,45.5779769],[-116.4810273,45.5797832],[-116.4810519,45.5812318],[-116.4822657,45.5817464],[-116.4824394,45.5818201],[-116.4835893,45.5835608],[-116.483277,45.5843517],[-116.4829003,45.5853059],[-116.4828137,45.5855253],[-116.4826827,45.5858572],[-116.4813953,45.5876592],[-116.4761596,45.5898215],[-116.474958,45.5916834],[-116.4725878,45.5929999],[-116.4725401,45.5930264],[-116.4723622,45.593184],[-116.4706664,45.5946864],[-116.4683906,45.5974281],[-116.4663622,45.5997385],[-116.4656235,45.6006032],[-116.4642386,45.6022243],[-116.4640158,45.6028488],[-116.4637762,45.6035897],[-116.4635627,45.6042497],[-116.4637556,45.605251],[-116.4637285,45.6056459],[-116.4635797,45.6078182],[-116.4631465,45.6112757],[-116.4635221,45.6135366],[-116.4635091,45.6152792],[-116.4634986,45.6158638],[-116.4639687,45.616399],[-116.4643463,45.6169838],[-116.4651116,45.6179089],[-116.46517,45.617986],[-116.4652185,45.6180133],[-116.4652627,45.6180383],[-116.469813,45.620604],[-116.4703428,45.6214292],[-116.4727233,45.6251883],[-116.4710255,45.6275917],[-116.4713157,45.6286166],[-116.4726435,45.6299863],[-116.4737022,45.6309468],[-116.4768462,45.6321503],[-116.4791637,45.6321503],[-116.4804099,45.6319592],[-116.4819878,45.6325763],[-116.4829687,45.6338197],[-116.4830389,45.6346428],[-116.4824993,45.636999],[-116.4824846,45.6371325],[-116.4821677,45.6401322],[-116.482386,45.6403062],[-116.482709,45.6405636],[-116.484037,45.6415929],[-116.4861227,45.643215],[-116.4875638,45.6439599],[-116.4881097,45.6446099],[-116.4874716,45.6462222],[-116.4874318,45.6463228],[-116.4872358,45.6473862],[-116.487155,45.6478249],[-116.4875668,45.6492296],[-116.487894,45.649769],[-116.4881679,45.6500972],[-116.4891047,45.6512636],[-116.4898092,45.6521441],[-116.4917247,45.6535277],[-116.4943798,45.6556462],[-116.49451,45.655679],[-116.4962714,45.6571509],[-116.4999986,45.6587893],[-116.50061,45.6595153],[-116.5009348,45.659702],[-116.50124,45.6598775],[-116.504939,45.6615826],[-116.5055175,45.6620152],[-116.5058295,45.6626165],[-116.505857,45.6631711],[-116.5060823,45.6637646],[-116.5061662,45.6639858],[-116.5071445,45.6646707],[-116.5082603,45.6653305],[-116.5092044,45.6664702],[-116.5100627,45.6671899],[-116.5110449,45.6683601],[-116.5117192,45.6691633],[-116.5121194,45.6702258],[-116.5127553,45.6709834],[-116.5139206,45.6722596],[-116.5184741,45.6757066],[-116.5206895,45.6763686],[-116.5216498,45.676786],[-116.5226047,45.6769793],[-116.5228188,45.6770963],[-116.5239556,45.6777177],[-116.528272,45.681473],[-116.5296321,45.6845217],[-116.5301471,45.6860207],[-116.5342801,45.6902133],[-116.535396,45.691734],[-116.5354327,45.69202],[-116.5353681,45.6926656],[-116.5352111,45.6942347],[-116.5365357,45.6963567],[-116.5364601,45.6969502],[-116.5362411,45.698671],[-116.5361977,45.7012098],[-116.5368238,45.7055105],[-116.537302,45.7068209],[-116.5373657,45.7075294],[-116.5372791,45.7093884],[-116.5371893,45.7112162],[-116.537365,45.7120505],[-116.5375337,45.7130108],[-116.5380318,45.7141131],[-116.5380086,45.7150077],[-116.5382098,45.715994],[-116.5381291,45.7178362],[-116.5374492,45.7193717],[-116.5375245,45.7203183],[-116.5373084,45.720844],[-116.5372017,45.7231946],[-116.5368331,45.7251407],[-116.5368207,45.7252063],[-116.5370867,45.7261077],[-116.5371755,45.7277248],[-116.536676,45.7292152],[-116.5361235,45.7307185],[-116.535698,45.734231],[-116.5359379,45.7348179],[-116.536486,45.7352666],[-116.5368484,45.7355633],[-116.5374978,45.7378438],[-116.5386651,45.7390618],[-116.5393963,45.7404863],[-116.5406169,45.7423956],[-116.541578,45.7442343],[-116.5429835,45.7460077],[-116.5437545,45.7467531],[-116.5439461,45.7469384],[-116.544551,45.747684],[-116.5460633,45.7492404],[-116.5463898,45.750412],[-116.5469723,45.7519089],[-116.5476235,45.7525687],[-116.5488169,45.7528261],[-116.5494131,45.7530685],[-116.5498069,45.7531236],[-116.5506221,45.7532577],[-116.5506872,45.7532684],[-116.5519876,45.7533318],[-116.5536618,45.7536397],[-116.5592789,45.7553995],[-116.5596843,45.7558646],[-116.5609603,45.7573281],[-116.5620473,45.7581944],[-116.5633232,45.7588179],[-116.5642561,45.7596705],[-116.5665393,45.7620588],[-116.5669485,45.7626943],[-116.5674142,45.7629557],[-116.5686726,45.7636441],[-116.5711216,45.764271],[-116.5725122,45.7650108],[-116.5735602,45.7653636],[-116.5745759,45.7656587],[-116.5764035,45.7669132],[-116.5776115,45.7680052],[-116.578071,45.7684441],[-116.5791204,45.7694464],[-116.5804439,45.7703215],[-116.5813564,45.7707372],[-116.5846496,45.7722373],[-116.5876059,45.7746336],[-116.5892942,45.7760021],[-116.593004,45.778541],[-116.5933923,45.7788746],[-116.5941586,45.779104],[-116.5967212,45.7793446],[-116.5988911,45.7797476],[-116.5996726,45.7797233],[-116.6004849,45.779698],[-116.6016722,45.7802386],[-116.6023378,45.7805416],[-116.6042995,45.7809084],[-116.60504,45.781018],[-116.6062955,45.7812816],[-116.6172652,45.7825935],[-116.6201073,45.7819885],[-116.6215585,45.7821054],[-116.6238742,45.7820548],[-116.6260427,45.7832784],[-116.6278421,45.7844436],[-116.6306204,45.7850014],[-116.6318564,45.7852271],[-116.6333481,45.7850029],[-116.6340952,45.7845648],[-116.635814,45.783642],[-116.637418,45.7830652],[-116.6388009,45.7821128],[-116.6391636,45.7816003],[-116.6394406,45.7814549],[-116.6396356,45.7813526],[-116.6403068,45.7812065],[-116.640839,45.7810906],[-116.646342,45.779815],[-116.6467928,45.7799005],[-116.6485237,45.7801354],[-116.6492826,45.7799382],[-116.6528839,45.7799926],[-116.6548515,45.7801462],[-116.659629,45.780016],[-116.6603356,45.7803415],[-116.6643472,45.781858],[-116.6651389,45.7824719],[-116.6657652,45.7827814],[-116.6680253,45.7841818],[-116.6694203,45.786084],[-116.6696407,45.7862643],[-116.6706774,45.7871123],[-116.674673,45.7897177],[-116.6749165,45.7899059],[-116.6765069,45.7911353],[-116.6797111,45.7933375],[-116.680139,45.79359],[-116.6803806,45.7940378],[-116.6850596,45.8022009],[-116.687007,45.806319],[-116.6887202,45.808729],[-116.6944401,45.8164882],[-116.6962434,45.8192493],[-116.697192,45.820135],[-116.698079,45.820852],[-116.7004174,45.8210687],[-116.7078284,45.8249421],[-116.70845,45.825117],[-116.7091805,45.8253661],[-116.7107968,45.8259173],[-116.711822,45.826267],[-116.715527,45.826773],[-116.7297817,45.8266963],[-116.7358693,45.8265372],[-116.736268,45.826179],[-116.7378017,45.8255539],[-116.7384366,45.8255512],[-116.7395676,45.8248343],[-116.740486,45.82446],[-116.7415186,45.8241535],[-116.743182,45.8227136],[-116.745219,45.821394],[-116.7458221,45.8211706],[-116.7465907,45.8207135],[-116.7482673,45.8198818],[-116.7489677,45.8196101],[-116.750978,45.818537],[-116.7528377,45.8179001],[-116.7546993,45.8172626],[-116.755288,45.817061],[-116.7564676,45.816904],[-116.759787,45.816167],[-116.7605895,45.8163379],[-116.7634,45.81658],[-116.763962,45.8170042],[-116.7697281,45.8212578],[-116.7731963,45.8223729],[-116.7743539,45.8236859],[-116.7789931,45.8240376],[-116.7809373,45.8245753],[-116.7833076,45.8261928],[-116.788329,45.831928],[-116.7889181,45.8332512],[-116.789066,45.833471],[-116.7889631,45.8357779],[-116.788923,45.836741],[-116.7883788,45.8381494],[-116.78752,45.840204],[-116.787792,45.844267],[-116.7882357,45.8464968],[-116.7894438,45.8492595],[-116.7906054,45.850644],[-116.7920025,45.852666],[-116.7935859,45.8544828],[-116.7940659,45.8551572],[-116.794243,45.8556202],[-116.7944488,45.8563089],[-116.796051,45.858473],[-116.7960157,45.8605784],[-116.797222,45.8618087],[-116.8003635,45.8631924],[-116.802101,45.8642989],[-116.8052993,45.8663374],[-116.809742,45.8730825],[-116.8112767,45.8747007],[-116.8134397,45.8771892],[-116.8139002,45.8777291],[-116.8151889,45.8787839],[-116.819182,45.880938],[-116.8211495,45.8822004],[-116.8230386,45.8830015],[-116.8280099,45.8853981],[-116.830003,45.886405],[-116.8327482,45.8877018],[-116.8403723,45.8910042],[-116.84355,45.892273],[-116.8450306,45.8946389],[-116.8473351,45.8972868],[-116.8500388,45.8996854],[-116.8549871,45.9032127],[-116.857254,45.904159],[-116.859795,45.907264],[-116.8623653,45.9109559],[-116.8631452,45.9128987],[-116.8655234,45.9154921],[-116.866544,45.916958],[-116.8679206,45.9210486],[-116.8686793,45.9230796],[-116.8694043,45.9239105],[-116.8702943,45.9280841],[-116.8696729,45.9309356],[-116.8711735,45.9353168],[-116.8731956,45.9390102],[-116.874572,45.9410332],[-116.8751301,45.9423222],[-116.8753855,45.9450139],[-116.8754728,45.9488604],[-116.8747272,45.9512323],[-116.8756588,45.9543645],[-116.8777345,45.9567874],[-116.8801603,45.9584067],[-116.8815639,45.9587001],[-116.886843,45.958617],[-116.8908616,45.9603443],[-116.8919017,45.9625624],[-116.8935886,45.9662209],[-116.8946912,45.9687923],[-116.8943996,45.9704656],[-116.892935,45.974396],[-116.8924138,45.976112],[-116.8934199,45.9778107],[-116.896237,45.979508],[-116.8985329,45.9813665],[-116.9009767,45.9829722],[-116.9040264,45.9842726],[-116.911409,45.988912],[-116.914177,45.9929543],[-116.9159938,45.9953489],[-116.9174895,45.9954435],[-116.9176278,45.9954494],[-116.9189852,45.9955065],[-116.93308,45.996075],[-116.93618,45.996074],[-116.940681,45.996274],[-116.947781,45.996274],[-116.949781,45.996374],[-116.953081,45.996374],[-116.954681,45.996474],[-116.962481,45.996474],[-116.965481,45.996674],[-116.968581,45.996674],[-116.970281,45.996774],[-116.976981,45.996674],[-116.980182,45.996874],[-116.984382,45.996874],[-116.985882,45.996974],[-116.999382,45.996974],[-116.999882,45.997074],[-117.038458,45.997161],[-117.051304,45.996849],[-117.070047,45.99751],[-117.122161,45.997564],[-117.125988,45.997783],[-117.227855,45.998441],[-117.229971,45.998395],[-117.245873,45.998438],[-117.250116,45.998421],[-117.250994,45.998354],[-117.278445,45.9984515],[-117.337668,45.998662],[-117.3543465,45.9964626],[-117.372032,45.9975368],[-117.376003,45.997806],[-117.3778442,45.997905],[-117.3902907,45.998574],[-117.390738,45.998598],[-117.439943,45.998634],[-117.475164,45.997893],[-117.475399,45.997772],[-117.4798319,45.997829],[-117.5419213,45.9983713],[-117.5463987,45.9984088],[-117.553864,45.9984717],[-117.603163,45.998887],[-117.6032557,45.9988882],[-117.626021,45.999175],[-117.6826393,45.9996032],[-117.717774,45.999869],[-117.7454121,45.9998672],[-117.7800322,45.999865],[-117.780436,45.999865],[-117.785217,46.000082],[-117.8045421,46.0001172],[-117.8420048,46.0001855],[-117.85433,46.000208],[-117.859587,46.000353],[-117.876035,46.000365],[-117.883934,46.000301],[-117.8999725,46.0004172],[-117.910426,46.000493],[-117.9290871,46.0005305],[-117.950206,46.000573],[-117.9777658,46.0007319],[-117.996911,46.000787],[-118.001051,46.000605],[-118.0456939,46.0005891],[-118.05721,46.000585],[-118.076836,46.000392],[-118.096798,46.00057],[-118.1277845,46.0006138],[-118.1382393,46.0005733],[-118.1461353,46.0006116],[-118.1801545,46.0005056],[-118.226074,46.000358],[-118.2289209,46.0004164],[-118.251069,46.00044],[-118.253299,46.000577],[-118.256147,46.000613],[-118.283682,46.000758],[-118.2890701,46.0007231],[-118.304356,46.000624],[-118.345709,46.000619],[-118.366534,46.000691],[-118.367519,46.000755],[-118.37151,46.000557],[-118.37418,46.00051],[-118.3832081,46.0006666],[-118.386333,46.000736],[-118.3873041,46.000749],[-118.3874581,46.0007494],[-118.3947571,46.0007538],[-118.403817,46.000773],[-118.408584,46.000756],[-118.409418,46.0007313],[-118.4112082,46.0007242],[-118.4119024,46.0007296],[-118.41533,46.000756],[-118.440922,46.000796],[-118.472545,46.000963],[-118.492759,46.000922],[-118.500236,46.001008],[-118.520135,46.000903],[-118.5338915,46.0010126],[-118.537323,46.00104],[-118.539699,46.000917],[-118.55431,46.000928],[-118.574583,46.000729],[-118.576504,46.000917],[-118.580319,46.001051],[-118.584714,46.00091],[-118.612763,46.001051],[-118.677896,46.000956],[-118.704307,46.001058],[-118.73251,46.000928],[-118.767877,46.001017],[-118.846751,46.000657],[-118.876105,46.000418],[-118.892229,46.000564],[-118.8936748,46.000473],[-118.935288,46.00067],[-118.949144,46.000477],[-118.9872769,45.99986],[-119.0086667,45.9792292],[-119.0272314,45.969118],[-119.0615137,45.9585483],[-119.0933594,45.9427064],[-119.1263387,45.932789],[-119.1692073,45.9277083],[-119.1955361,45.9279054],[-119.2256486,45.9328026],[-119.2570888,45.939872],[-119.2860788,45.9374247],[-119.2977015,45.9360414],[-119.3225912,45.9330775],[-119.3287248,45.9316581],[-119.3324554,45.9307942],[-119.3645149,45.9215525],[-119.4319061,45.918284],[-119.4504145,45.9173864],[-119.488099,45.9063668],[-119.5245363,45.9085723],[-119.5716186,45.9254834],[-119.6006777,45.9195305],[-119.6236451,45.9056082],[-119.6699902,45.8569136],[-119.7728712,45.8457323],[-119.8027222,45.8476349],[-119.8493597,45.8401846],[-119.8685204,45.8362127],[-119.9072618,45.8281812],[-119.9657892,45.8243813],[-119.9966947,45.8135132],[-120.0148552,45.8071259],[-120.0702529,45.7851606],[-120.1414965,45.7732125],[-120.1706195,45.7619845],[-120.21079,45.7259202],[-120.2834474,45.7211696],[-120.3263485,45.7114248],[-120.4036672,45.6994492],[-120.4826306,45.6944124],[-120.5057592,45.6999539],[-120.5227514,45.7102927],[-120.5593028,45.7383201],[-120.5911594,45.7465143],[-120.6228271,45.7462391],[-120.6350665,45.7457167],[-120.6535118,45.7371877],[-120.6692952,45.7298886],[-120.6895512,45.7157331],[-120.7041599,45.7116774],[-120.7286412,45.7053245],[-120.7885901,45.6864296],[-120.8554309,45.6717347],[-120.870771,45.6608007],[-120.8958379,45.6429291],[-120.9136246,45.6399984],[-120.9141762,45.640296],[-120.9440339,45.6563983],[-120.9531313,45.6567482],[-120.9778346,45.649405],[-120.981618,45.648712],[-120.9835098,45.6483647],[-121.0073854,45.6532035],[-121.0338389,45.65097],[-121.0644757,45.6524976],[-121.0848788,45.6479391],[-121.1201267,45.623172],[-121.1186295,45.6206387],[-121.1171932,45.6182067],[-121.1224239,45.6160803],[-121.1318487,45.609761],[-121.1394016,45.6120526],[-121.1406807,45.6112054],[-121.1455989,45.6079511],[-121.1678661,45.6060967],[-121.1837003,45.6064574],[-121.1964786,45.6165822],[-121.1951999,45.6295685],[-121.2003668,45.6498465],[-121.2157836,45.6712354],[-121.2489785,45.6777628],[-121.2873118,45.6868735],[-121.3123118,45.6998454],[-121.3377284,45.7048451],[-121.3725892,45.7030391],[-121.4017551,45.6928995],[-121.4239771,45.6940798],[-121.4411278,45.6972632],[-121.4628102,45.7012876],[-121.4931325,45.7176415],[-121.4947034,45.7184596],[-121.4991006,45.7207526],[-121.5111132,45.7227934],[-121.5223936,45.7247119],[-121.5329493,45.7265092],[-121.5342438,45.7262224],[-121.6313388,45.7047031],[-121.6684224,45.7051197],[-121.7073117,45.694842],[-121.7350898,45.6940087],[-121.8112019,45.7067171],[-121.8670358,45.6933977],[-121.8778954,45.6862926],[-121.9017585,45.6706766],[-121.9006028,45.6625572],[-121.9006917,45.6622906],[-121.9007806,45.6620239],[-121.9044655,45.6582933],[-121.9081473,45.6545656],[-121.9220032,45.6492253],[-121.9349422,45.6442379],[-121.9408062,45.644324],[-121.9449091,45.6443852],[-121.9517036,45.6448435],[-121.9557869,45.6435935],[-121.9630927,45.6328991],[-121.9830105,45.6228989],[-122.0035666,45.6159546],[-122.0209282,45.6147881],[-122.0442622,45.6095663],[-122.1017639,45.5831776],[-122.1123197,45.5813443],[-122.1416264,45.5840114],[-122.1828777,45.5767891],[-122.2007946,45.5651225],[-122.2413511,45.5507475],[-122.2492326,45.5486575],[-122.2669629,45.5439556],[-122.2966859,45.5437331],[-122.3314924,45.5485107],[-122.3388995,45.5558985],[-122.3523267,45.5692883],[-122.3801054,45.5757879],[-122.3834496,45.5754663],[-122.3917171,45.5747046],[-122.4113566,45.5674267],[-122.4170496,45.5666068],[-122.4389392,45.5634539],[-122.453801,45.5673427],[-122.4552602,45.5681584],[-122.4717769,45.5773905],[-122.4735795,45.5783979],[-122.4928857,45.5834533],[-122.5246087,45.5897028],[-122.5331712,45.5921959],[-122.547887,45.5964802],[-122.5493817,45.5967959],[-122.5510057,45.5971388],[-122.5890302,45.6051682],[-122.5901107,45.6053963],[-122.5970798,45.6065104],[-122.6071391,45.6081185],[-122.6185854,45.6085009],[-122.6420567,45.609285],[-122.6732744,45.6175375],[-122.6750744,45.6180681],[-122.6752243,45.6181122],[-122.6753742,45.6181564],[-122.6771745,45.6186875],[-122.689618,45.6238735],[-122.6911846,45.624693],[-122.6914703,45.6248394],[-122.694319,45.6263319],[-122.7144197,45.6378957],[-122.7318893,45.642595],[-122.7381705,45.6442846],[-122.7405789,45.6454953],[-122.7640049,45.6572705],[-122.774561,45.6806175],[-122.7726868,45.6980039],[-122.7723391,45.7012285],[-122.7622611,45.7286474],[-122.7601172,45.7344784],[-122.7615066,45.7593394],[-122.769646,45.7806725],[-122.7956751,45.8101167],[-122.7959531,45.8251722],[-122.7858142,45.8442834],[-122.7855928,45.8506356],[-122.7853622,45.8572506],[-122.7849813,45.8681723],[-122.791498,45.8763881],[-122.7979818,45.8845612],[-122.7988241,45.8863348],[-122.8080925,45.9058467],[-122.811441,45.9128943],[-122.8062329,45.9323387],[-122.8142336,45.9609497],[-122.8378457,45.9809494],[-122.8560136,46.014352],[-122.8777645,46.0313654],[-122.8844318,46.0602539],[-122.9029665,46.0823386],[-122.904294,46.08392],[-122.960215,46.103922],[-122.9618776,46.104658],[-122.9635401,46.1053969],[-123.005686,46.1348355],[-123.0345757,46.1438352],[-123.0574654,46.1565016],[-123.0744382,46.1609459],[-123.1209402,46.1863066],[-123.166664,46.1889454],[-123.213159,46.173008],[-123.2321382,46.166501],[-123.2643611,46.1510841],[-123.3139177,46.1423335],[-123.3629188,46.1473064],[-123.3905601,46.1501114],[-123.4284793,46.179778],[-123.4300355,46.1912224],[-123.4236201,46.2194165],[-123.4322602,46.2396942],[-123.4655404,46.2628054],[-123.5012649,46.2705552],[-123.5409879,46.2603883],[-123.5859891,46.2564717],[-123.649268,46.259082],[-123.6881297,46.2501093],[-123.7402993,46.2691364],[-123.8719712,46.2348292],[-123.9296137,46.2386613],[-123.9712285,46.2673276],[-124.0012864,46.2780217],[-124.0213576,46.2923965],[-124.0248704,46.2920582],[-124.0256711,46.2919814],[-124.036567,46.290938],[-124.0386224,46.2830212],[-124.0306775,46.2712151],[-124.0353859,46.2639926],[-124.0846248,46.249825],[-124.1568004,46.249825],[-124.1536,46.245309],[-124.150289,46.237032],[-124.149096,46.233114],[-124.147029,46.228857],[-124.143753,46.22473],[-124.141205,46.220707],[-124.137878,46.216242],[-124.133536,46.211706],[-124.126264,46.205102],[-124.123418,46.202729],[-124.119521,46.200766],[-124.116788,46.198896],[-124.113867,46.197567],[-124.111281,46.195898],[-124.106661,46.194343],[-124.103742,46.193114],[-124.09927,46.191725],[-124.096011,46.190463],[-124.091197,46.188739],[-124.088524,46.187878],[-124.083231,46.186695],[-124.077163,46.185447],[-124.072554,46.184764],[-124.067313,46.183849],[-124.065698,46.182108],[-124.064366,46.179625],[-124.061478,46.176477],[-124.058451,46.173834],[-124.053934,46.167229],[-124.050658,46.163914],[-124.04835,46.160359],[-124.046618,46.156263],[-124.043185,46.151302],[-124.040282,46.146168],[-124.036787,46.139725],[-124.034128,46.134523],[-124.030897,46.130467],[-124.029032,46.127482],[-124.028242,46.125602],[-124.028282,46.124825],[-124.026887,46.122776],[-124.02541,46.119744],[-124.023064,46.116272],[-124.01988,46.108826],[-124.017841,46.103738],[-124.01619,46.098617],[-124.013671,46.092888],[-124.012494,46.089049],[-124.011563,46.084872],[-124.009796,46.081973],[-124.008265,46.074293],[-124.00633,46.063345],[-124.005125,46.057383],[-124.004899,46.050345],[-124.004486,46.047853],[-124.003682,46.040409],[-124.003376,46.036839],[-124.003408,46.033438],[-124.003199,46.0297],[-124.002783,46.027544],[-124.005546,46.021925],[-124.006794,46.017852],[-124.00791,46.012297],[-124.008125,46.00994],[-124.010504,46.00917],[-124.01318,46.007692],[-124.01581,46.005911],[-124.019168,46.003795],[-124.022884,45.999828],[-124.031909,45.992148],[-124.039544,45.985938],[-124.044391,45.984999],[-124.051176,45.983006],[-124.062364,45.978592],[-124.070819,45.973939],[-124.078916,45.966634],[-124.084898,45.960137],[-124.089905,45.950496],[-124.09192,45.943455],[-124.092434,45.934261],[-124.090571,45.925752],[-124.086508,45.916326],[-124.080158,45.908264],[-124.073727,45.903039],[-124.066417,45.898125],[-124.056556,45.893836],[-124.048283,45.891268],[-124.045819,45.890596],[-124.044674,45.888563],[-124.043353,45.887086],[-124.042999,45.883632],[-124.043437,45.880237],[-124.042202,45.875243],[-124.041916,45.873179],[-124.042543,45.869852],[-124.043278,45.860307],[-124.041995,45.848553],[-124.039191,45.844317],[-124.037704,45.841614],[-124.0409806,45.8384929],[-124.046711,45.832344],[-124.051392,45.826845],[-124.0541946,45.8228169],[-124.0562254,45.8185498],[-124.0579978,45.814442],[-124.0592027,45.8103761],[-124.0599752,45.8044779],[-124.0597001,45.8015652],[-124.0590387,45.7986824],[-124.0585168,45.7972308],[-124.062056,45.789741],[-124.0651046,45.7835628],[-124.067371,45.779268],[-124.068962,45.772719],[-124.070395,45.76274],[-124.0692833,45.7561932],[-124.0673133,45.749841],[-124.0638792,45.744676],[-124.0597585,45.7397207],[-124.0529903,45.7330607],[-124.043799,45.727307],[-124.03045,45.720989],[-124.024805,45.720233],[-124.022044,45.715925],[-124.019116,45.712732],[-124.013897,45.709558],[-124.010805,45.708285],[-124.011657,45.676717],[-124.01348,45.672741],[-124.01485,45.666789],[-124.015868,45.660964],[-124.01616,45.651679],[-124.016256,45.639425],[-124.016648,45.632119],[-124.017593,45.628645],[-124.019071,45.626034],[-124.020379,45.624825],[-124.021339,45.624825],[-124.024674,45.620347],[-124.029324,45.612461],[-124.031073,45.601923],[-124.030894,45.593663],[-124.030367,45.592492],[-124.032471,45.588178],[-124.035538,45.580722],[-124.037112,45.571724],[-124.03623,45.563032],[-124.032279,45.554523],[-124.029032,45.548665],[-124.026926,45.546013],[-124.027101,45.543671],[-124.026661,45.539911],[-124.02666,45.537877],[-124.029728,45.535907],[-124.039104,45.530243],[-124.045936,45.523775],[-124.053115,45.514225],[-124.056434,45.502146],[-124.056234,45.499823],[-124.056402,45.494669],[-124.055326,45.492184],[-124.05478,45.4887],[-124.057694,45.484582],[-124.059367,45.481215],[-124.060598,45.478223],[-124.061914,45.474484],[-124.063496,45.470558],[-124.064549,45.467567],[-124.064535,45.464019],[-124.064876,45.46047],[-124.064243,45.457361],[-124.063953,45.451512],[-124.058949,45.442008],[-124.05316,45.435744],[-124.048088,45.431094],[-124.04346,45.426692],[-124.035819,45.422051],[-124.036163,45.419001],[-124.036498,45.413336],[-124.037549,45.409723],[-124.038773,45.404802],[-124.040175,45.400129],[-124.041046,45.396018],[-124.041827,45.391348],[-124.042787,45.387299],[-124.043308,45.384061],[-124.047023,45.382367],[-124.052683,45.379609],[-124.058164,45.376414],[-124.060195,45.374823],[-124.066488,45.366973],[-124.072782,45.355981],[-124.076977,45.341846],[-124.076977,45.330071],[-124.073829,45.317509],[-124.06124,45.30416],[-124.046552,45.293168],[-124.042356,45.282176],[-124.040257,45.268828],[-124.041305,45.256266],[-124.043006,45.249824],[-124.043336,45.246937],[-124.043322,45.245174],[-124.04436,45.242719],[-124.046282,45.240518],[-124.048986,45.236996],[-124.054837,45.230204],[-124.056917,45.225987],[-124.058211,45.222525],[-124.058889,45.219314],[-124.059827,45.215599],[-124.059487,45.206655],[-124.058486,45.202874],[-124.057042,45.19884],[-124.055163,45.195309],[-124.053987,45.191717],[-124.05113,45.187113],[-124.048103,45.183328],[-124.04508,45.179795],[-124.044444,45.1774],[-124.044863,45.174818],[-124.045633,45.171985],[-124.045792,45.169907],[-124.044792,45.165999],[-124.047793,45.156179],[-124.048195,45.151456],[-124.050131,45.140688],[-124.053653,45.130238],[-124.055808,45.124826],[-124.059851,45.117762],[-124.065245,45.107668],[-124.073334,45.099592],[-124.0825196,45.0855999],[-124.0895258,45.0695921],[-124.093561,45.054166],[-124.0957472,45.0445318],[-124.096724,45.040466],[-124.097475,45.034196],[-124.097475,45.027358],[-124.095973,45.020521],[-124.094469,45.016535],[-124.092215,45.011408],[-124.087707,45.005712],[-124.086205,45.002864],[-124.087707,45.000016],[-124.088504,44.995168],[-124.088877,44.992047],[-124.08944,44.989328],[-124.089719,44.98661],[-124.089615,44.981376],[-124.089708,44.980637],[-124.09032,44.979093],[-124.090836,44.976944],[-124.09078,44.971913],[-124.091012,44.969396],[-124.090629,44.966914],[-124.090627,44.965907],[-124.092135,44.963052],[-124.093734,44.958989],[-124.094766,44.954525],[-124.096698,44.951635],[-124.097497,44.949251],[-124.098482,44.945424],[-124.099505,44.936901],[-124.098884,44.933379],[-124.097932,44.929657],[-124.113781,44.874832],[-124.116574,44.866335],[-124.126228,44.859179],[-124.130426,44.85572],[-124.133295,44.852699],[-124.136209,44.849241],[-124.13902,44.844173],[-124.140878,44.837933],[-124.141563,44.833439],[-124.141761,44.826464],[-124.141351,44.820529],[-124.14062,44.816439],[-124.139553,44.811578],[-124.140728,44.810235],[-124.142364,44.806879],[-124.143715,44.803222],[-124.14431,44.799834],[-124.144716,44.796146],[-124.144417,44.793396],[-124.145251,44.790444],[-124.145757,44.787895],[-124.146252,44.783367],[-124.145956,44.78102],[-124.147757,44.773573],[-124.147638,44.769113],[-124.146758,44.763681],[-124.145307,44.757514],[-124.147294,44.749836],[-124.148312,44.744189],[-124.148207,44.735594],[-124.146792,44.73082],[-124.144352,44.72473],[-124.142174,44.721026],[-124.140369,44.717625],[-124.140667,44.716049],[-124.140632,44.714808],[-124.139118,44.710536],[-124.142175,44.706222],[-124.144408,44.699318],[-124.148258,44.695713],[-124.149311,44.693906],[-124.151041,44.690323],[-124.152307,44.685898],[-124.153242,44.68164],[-124.153962,44.675332],[-124.153363,44.668917],[-124.152005,44.663203],[-124.147849,44.654889],[-124.142044,44.646701],[-124.13744,44.641002],[-124.141436,44.636626],[-124.14506,44.631677],[-124.149078,44.624838],[-124.150834,44.62025],[-124.151922,44.61597],[-124.15234,44.612423],[-124.152328,44.609343],[-124.152077,44.60653],[-124.151221,44.602911],[-124.148393,44.598345],[-124.144119,44.592366],[-124.134313,44.583182],[-124.136135,44.58078],[-124.138012,44.577642],[-124.139865,44.572462],[-124.141236,44.568184],[-124.142662,44.563269],[-124.143959,44.557216],[-124.144763,44.552868],[-124.145783,44.546244],[-124.146088,44.54022],[-124.150901,44.535857],[-124.15553,44.531024],[-124.159672,44.52341],[-124.162619,44.512912],[-124.164557,44.49984],[-124.164909,44.494833],[-124.163914,44.488405],[-124.157581,44.473665],[-124.156955,44.472815],[-124.153428,44.465036],[-124.157014,44.421594],[-124.158588,44.40608],[-124.161595,44.384378],[-124.16352,44.374841],[-124.175142,44.334505],[-124.178253,44.327999],[-124.180068,44.322454],[-124.180816,44.319527],[-124.181652,44.316804],[-124.181871,44.31137],[-124.181483,44.308866],[-124.180581,44.307772],[-124.182275,44.306007],[-124.185663,44.296601],[-124.187649,44.288559],[-124.187674,44.286263],[-124.186518,44.284356],[-124.1876236,44.2761336],[-124.188113,44.270973],[-124.186171,44.262941],[-124.184317,44.257984],[-124.186458,44.249843],[-124.18681,44.248161],[-124.186793,44.244658],[-124.185469,44.237091],[-124.182832,44.230952],[-124.184404,44.227474],[-124.185592,44.221599],[-124.1862,44.216252],[-124.186619,44.204301],[-124.185965,44.199002],[-124.187488,44.195524],[-124.188235,44.191528],[-124.188527,44.185874],[-124.186756,44.176481],[-124.18813,44.170608],[-124.188862,44.168363],[-124.189008,44.164223],[-124.193255,44.158936],[-124.195547,44.154829],[-124.198214,44.149315],[-124.199841,44.145535],[-124.200168,44.142845],[-124.200984,44.139524],[-124.200707,44.136757],[-124.20043,44.135338],[-124.200847,44.132751],[-124.200384,44.131329],[-124.200135,44.129102],[-124.199174,44.1272],[-124.199704,44.124842],[-124.199975,44.12137],[-124.199806,44.116466],[-124.19932,44.111254],[-124.198549,44.106206],[-124.197017,44.101583],[-124.195377,44.097462],[-124.19657,44.09372],[-124.197411,44.089335],[-124.198058,44.083704],[-124.198637,44.0773],[-124.199068,44.07405],[-124.200225,44.069971],[-124.201772,44.062407],[-124.202426,44.056541],[-124.202326,44.053854],[-124.203491,44.049507],[-124.204469,44.0466],[-124.204978,44.043788],[-124.205172,44.040636],[-124.207409,44.037715],[-124.208671,44.034679],[-124.210996,44.03045],[-124.212721,44.024567],[-124.212791,44.019431],[-124.212541,44.014122],[-124.211613,44.011087],[-124.21076,44.008623],[-124.209635,44.00592],[-124.209001,44.003895],[-124.207893,44.002133],[-124.208808,43.999843],[-124.212103,43.979985],[-124.215152,43.953775],[-124.228554,43.874841],[-124.229895,43.865656],[-124.230231,43.86336],[-124.234401,43.839829],[-124.239694,43.811055],[-124.243659,43.791664],[-124.247016,43.776458],[-124.249664,43.766651],[-124.25123,43.761651],[-124.25123,43.760715],[-124.25405,43.74984],[-124.265705,43.701558],[-124.26875,43.699497],[-124.271543,43.696836],[-124.274729,43.693397],[-124.277728,43.689928],[-124.279635,43.687146],[-124.281432,43.683863],[-124.285296,43.672726],[-124.285847,43.668252],[-124.28576,43.664124],[-124.284926,43.659874],[-124.283944,43.656767],[-124.282585,43.653497],[-124.281614,43.650726],[-124.280333,43.648394],[-124.286303,43.624837],[-124.290285,43.610775],[-124.290327,43.610619],[-124.296769,43.585958],[-124.303029,43.568089],[-124.31109,43.547331],[-124.316646,43.533726],[-124.321784,43.519617],[-124.329601,43.499835],[-124.328714,43.499835],[-124.343836,43.465012],[-124.346219,43.462473],[-124.351467,43.454249],[-124.355795,43.446072],[-124.358111,43.440561],[-124.360319,43.434317],[-124.374369,43.412738],[-124.37623,43.40904],[-124.379242,43.404066],[-124.380274,43.402846],[-124.387548,43.399615],[-124.392186,43.396544],[-124.400351,43.39542],[-124.407805,43.393697],[-124.415224,43.390765],[-124.425643,43.385886],[-124.43194,43.381049],[-124.435453,43.377619],[-124.438054,43.374833],[-124.439539,43.374833],[-124.441075,43.372884],[-124.443788,43.366775],[-124.446699,43.358157],[-124.461424,43.350117],[-124.471637,43.339151],[-124.476948,43.329371],[-124.477711,43.324458],[-124.477899,43.323891],[-124.47709,43.310512],[-124.478002,43.303459],[-124.476712,43.294125],[-124.474849,43.288566],[-124.46367,43.27475],[-124.455498,43.268233],[-124.461756,43.261902],[-124.461881,43.261863],[-124.465006,43.257466],[-124.46678,43.253159],[-124.467923,43.249831],[-124.470326,43.245496],[-124.471197,43.23804],[-124.470015,43.228675],[-124.471262,43.219514],[-124.46945,43.208309],[-124.465235,43.200308],[-124.471118,43.190187],[-124.475816,43.178859],[-124.477883,43.170436],[-124.480111,43.165491],[-124.481613,43.15944],[-124.484966,43.158007],[-124.493926,43.153542],[-124.501229,43.148162],[-124.505969,43.143379],[-124.508816,43.13943],[-124.512351,43.133304],[-124.514922,43.127478],[-124.51584,43.12483],[-124.515535,43.124146],[-124.515573,43.119739],[-124.515024,43.114497],[-124.515963,43.111558],[-124.516361,43.102542],[-124.514421,43.094262],[-124.509199,43.085415],[-124.5096,43.081308],[-124.507933,43.073295],[-124.505331,43.067953],[-124.507016,43.063311],[-124.507866,43.060072],[-124.509767,43.056865],[-124.512746,43.050219],[-124.515849,43.039899],[-124.524994,43.01642],[-124.529086,43.007335],[-124.532992,42.99983],[-124.530606,42.99983],[-124.545172,42.970736],[-124.552282,42.954518],[-124.553514,42.95171],[-124.558973,42.945562],[-124.56475,42.933018],[-124.567887,42.930387],[-124.572353,42.922514],[-124.591834,42.914715],[-124.60686,42.903525],[-124.615956,42.892882],[-124.620507,42.883021],[-124.622126,42.877198],[-124.626225,42.875791],[-124.626225,42.87539],[-124.627305,42.874831],[-124.6387,42.867423],[-124.645154,42.861892],[-124.652458,42.850692],[-124.655124,42.84002],[-124.660593,42.836504],[-124.666269,42.831042],[-124.671762,42.825582],[-124.675201,42.819564],[-124.67792,42.81432],[-124.679956,42.809047],[-124.680493,42.805238],[-124.680632,42.804251],[-124.685327,42.801039],[-124.691279,42.796346],[-124.695814,42.791125],[-124.700283,42.784028],[-124.702657,42.776742],[-124.703541,42.770369]]]}}]}