{"type":"FeatureCollection","licence":"Data © OpenStreetMap contributors, ODbL 1.0. http://osm.org/copyright","features":[{"type":"Feature","properties":{"place_id":360807153,"osm_type":"relation","osm_id":392915,"place_rank":8,"category":"boundary","type":"administrative","importance":0.7327677777528233,"addresstype":"state","name":"Rhode Island","display_name":"Rhode Island, United States"},"bbox":[-71.9074310,41.0958340,-71.0885710,42.0189359],"geometry":{"type":"MultiPolygon","coordinates":[[[[-71.907431,41.304579],[-71.844476,41.239997],[-71.809384,41.203235],[-71.791151,41.184281],[-71.790972,41.184101],[-71.79148,41.2501],[-71.79148,41.272165],[-71.77843,41.275111],[-71.772773,41.274765],[-71.765812,41.274245],[-71.759286,41.274591],[-71.749509,41.274999],[-71.747045,41.274974],[-71.742096,41.275369],[-71.73956,41.275449],[-71.732835,41.276876],[-71.728969,41.277964],[-71.723435,41.279617],[-71.719994,41.281149],[-71.718225,41.280943],[-71.711661,41.280601],[-71.705744,41.280739],[-71.700775,41.281601],[-71.695043,41.282647],[-71.685861,41.28539],[-71.678979,41.287346],[-71.672595,41.289079],[-71.666319,41.292487],[-71.659565,41.296653],[-71.656976,41.296897],[-71.651671,41.298318],[-71.651523,41.298362],[-71.645638,41.300124],[-71.64072,41.301821],[-71.637705,41.302691],[-71.636129,41.303157],[-71.634503,41.303756],[-71.632188,41.304842],[-71.624504,41.306143],[-71.624504,41.305997],[-71.598151,41.312594],[-71.585067,41.316775],[-71.575253,41.320955],[-71.556933,41.316254],[-71.543851,41.312598],[-71.526594,41.308804],[-71.51206,41.30808],[-71.5094419,41.3077322],[-71.50661,41.307356],[-71.494805,41.307355],[-71.489356,41.308802],[-71.482996,41.310974],[-71.479876,41.312599],[-71.374495,41.339011],[-71.258257,41.375078],[-71.24996,41.377713],[-71.124594,41.411474],[-71.119322,41.413321],[-71.10398,41.421957],[-71.088571,41.431315],[-71.1145394,41.4788688],[-71.1204946,41.4974252],[-71.120691,41.4995655],[-71.1211501,41.505477],[-71.1212152,41.5063159],[-71.122443,41.522125],[-71.1262877,41.5515633],[-71.1268153,41.5549439],[-71.1278395,41.5632075],[-71.1316195,41.5937162],[-71.138347,41.6036774],[-71.1403081,41.6048495],[-71.1419579,41.6125329],[-71.1401849,41.6238689],[-71.1353068,41.6284884],[-71.1343536,41.6440466],[-71.1325581,41.6603662],[-71.1616906,41.6656488],[-71.1617947,41.6656677],[-71.1620225,41.665709],[-71.1621343,41.6657291],[-71.1761197,41.6682485],[-71.1757837,41.6714928],[-71.1954793,41.6750899],[-71.2013109,41.6819951],[-71.2080166,41.690165],[-71.2082917,41.6905011],[-71.2261575,41.7123461],[-71.2264033,41.7126326],[-71.2610672,41.7520824],[-71.2799768,41.7601216],[-71.2833069,41.7615274],[-71.2834804,41.7616006],[-71.2835306,41.7616219],[-71.2835713,41.7616392],[-71.2836232,41.7616624],[-71.2844031,41.7620107],[-71.2859655,41.7626629],[-71.2861856,41.7627548],[-71.2867481,41.7629895],[-71.2883752,41.7636811],[-71.2911232,41.7648473],[-71.3140061,41.7745571],[-71.3163657,41.7755583],[-71.3177435,41.7761443],[-71.3219408,41.7779244],[-71.3226407,41.7782213],[-71.3231764,41.7784485],[-71.3232194,41.7784667],[-71.3281051,41.7805387],[-71.3283268,41.7806327],[-71.3284718,41.7806942],[-71.3285637,41.780985],[-71.3286235,41.7811712],[-71.328719,41.7813783],[-71.3288631,41.7816673],[-71.32887,41.7818871],[-71.3288391,41.7821632],[-71.3289365,41.7823719],[-71.3289661,41.7825578],[-71.3291237,41.7827272],[-71.3292516,41.7827443],[-71.3293498,41.7826542],[-71.3293351,41.7825134],[-71.3292003,41.7822201],[-71.3292384,41.7820737],[-71.3293367,41.781916],[-71.3294196,41.7818598],[-71.3295066,41.7818634],[-71.3297355,41.7819842],[-71.3299834,41.7822382],[-71.3300302,41.7823689],[-71.3300355,41.7824411],[-71.330006,41.7824994],[-71.3299524,41.7825537],[-71.3297485,41.782762],[-71.3296728,41.7829027],[-71.3296876,41.7830323],[-71.3299128,41.7833087],[-71.3300021,41.7834296],[-71.3300629,41.7835118],[-71.3300257,41.7836174],[-71.3299527,41.7837618],[-71.3299707,41.7839768],[-71.3300485,41.7842316],[-71.3301396,41.7843386],[-71.330243,41.7844956],[-71.3303936,41.7847955],[-71.3304762,41.7850753],[-71.3305191,41.7852845],[-71.3305019,41.7854764],[-71.3303047,41.7858108],[-71.3302529,41.7859819],[-71.3301564,41.786214],[-71.330108,41.7863012],[-71.3300021,41.7865208],[-71.3298295,41.7866966],[-71.3297642,41.7867728],[-71.3297279,41.7868447],[-71.3297084,41.7869319],[-71.3297072,41.7869881],[-71.3296691,41.7871515],[-71.3296094,41.7873715],[-71.3296077,41.7875628],[-71.3297125,41.7877715],[-71.3297049,41.7878559],[-71.3295367,41.7879231],[-71.3294708,41.7880528],[-71.3294277,41.7882513],[-71.3294008,41.7883823],[-71.3295376,41.7884361],[-71.3297409,41.7884477],[-71.3298781,41.788506],[-71.3299138,41.7885212],[-71.3300062,41.7886115],[-71.3301178,41.7885959],[-71.3302112,41.7885397],[-71.3304184,41.7885049],[-71.3305125,41.7885243],[-71.3305695,41.7885672],[-71.3305935,41.7886507],[-71.3305534,41.7886968],[-71.3304479,41.7887192],[-71.3303523,41.7887315],[-71.3302595,41.7887865],[-71.3302465,41.7888237],[-71.3302744,41.7888542],[-71.3303346,41.7888599],[-71.3304514,41.7888376],[-71.3305688,41.7888263],[-71.3306322,41.7888469],[-71.3306591,41.788883],[-71.3306681,41.7889168],[-71.330632,41.7889443],[-71.3305565,41.7889662],[-71.3304781,41.7890202],[-71.3304728,41.7890702],[-71.3305139,41.7891149],[-71.3306012,41.789115],[-71.3307007,41.7890813],[-71.3308393,41.7890703],[-71.3309597,41.7890704],[-71.331059,41.7890999],[-71.3310945,41.7891453],[-71.3311041,41.7891789],[-71.3310867,41.789202],[-71.3310587,41.7892239],[-71.3309984,41.7892937],[-71.330985,41.7893207],[-71.33098,41.7894222],[-71.3309948,41.7894965],[-71.331034,41.7895637],[-71.3311241,41.7895644],[-71.3312056,41.7895171],[-71.331251,41.7894181],[-71.3313114,41.7893504],[-71.3313928,41.7893235],[-71.3314651,41.7893079],[-71.3315344,41.7893193],[-71.3316215,41.7893982],[-71.3316424,41.7894772],[-71.3315638,41.7895537],[-71.3315637,41.789592],[-71.3316029,41.7896238],[-71.3317653,41.7896961],[-71.3320903,41.789798],[-71.3322677,41.7898929],[-71.3323821,41.7899245],[-71.3326349,41.7900354],[-71.3327429,41.7901595],[-71.3327727,41.7902745],[-71.3328086,41.7903851],[-71.3328414,41.7905136],[-71.3328111,41.7905813],[-71.3327387,41.7906397],[-71.3326422,41.7906598],[-71.3325157,41.7906394],[-71.3324796,41.7906551],[-71.3324735,41.7907047],[-71.3325065,41.7907999],[-71.3324971,41.7908444],[-71.3324615,41.7908632],[-71.3322108,41.7909566],[-71.3321957,41.790977],[-71.3322046,41.7909995],[-71.3322556,41.7910582],[-71.3323434,41.7912081],[-71.3324659,41.7913507],[-71.3326218,41.7915704],[-71.3328377,41.7919336],[-71.3329305,41.792114],[-71.3329604,41.7922561],[-71.3330714,41.7924118],[-71.3331553,41.792572],[-71.333191,41.792714],[-71.3331877,41.7927822],[-71.3331755,41.7928159],[-71.3331605,41.7928324],[-71.3331105,41.7928675],[-71.3330802,41.7929369],[-71.3331116,41.7930444],[-71.3331294,41.7930677],[-71.3331478,41.7930852],[-71.3332695,41.7931277],[-71.3334332,41.7931616],[-71.3335095,41.7931617],[-71.3335724,41.793192],[-71.3335902,41.7932356],[-71.3335405,41.7933027],[-71.3334508,41.7933395],[-71.3334417,41.7933664],[-71.3334731,41.79339],[-71.3336031,41.7933968],[-71.3337332,41.7934338],[-71.3338677,41.793528],[-71.3339168,41.7935685],[-71.3339122,41.7936155],[-71.3338585,41.7936496],[-71.3337325,41.7937026],[-71.3336875,41.7937428],[-71.3336784,41.7937831],[-71.3337069,41.7938092],[-71.3337669,41.7938182],[-71.3338749,41.7938435],[-71.3339228,41.7938741],[-71.3339491,41.7939101],[-71.3339924,41.7939264],[-71.3340259,41.7939264],[-71.3340572,41.7939049],[-71.3340999,41.7939045],[-71.3341536,41.7939382],[-71.3342073,41.7940088],[-71.3342383,41.7941397],[-71.334229,41.7942438],[-71.3341481,41.794331],[-71.3341121,41.794388],[-71.3341388,41.794425],[-71.3342241,41.7944385],[-71.3343811,41.7944253],[-71.3344215,41.7944489],[-71.3344348,41.7944759],[-71.3343986,41.7945933],[-71.3344477,41.7946739],[-71.3346448,41.7948353],[-71.3348106,41.7949128],[-71.3350661,41.7949837],[-71.3353038,41.7950277],[-71.3354874,41.7951965],[-71.3354782,41.795338],[-71.3354941,41.7953732],[-71.3355254,41.7954042],[-71.3356101,41.7954577],[-71.3357553,41.7955231],[-71.3358138,41.7955282],[-71.3358388,41.7955232],[-71.3358806,41.7955083],[-71.3359262,41.7954743],[-71.3359915,41.7954663],[-71.3360605,41.79548],[-71.3361913,41.7955047],[-71.3363689,41.7956626],[-71.3364631,41.7957307],[-71.3365974,41.7957581],[-71.3366634,41.7957401],[-71.3367499,41.7957664],[-71.3368119,41.7957638],[-71.3368751,41.7957436],[-71.3369063,41.7956797],[-71.337001,41.7955819],[-71.3371358,41.7954979],[-71.3372229,41.7954844],[-71.337339,41.7955362],[-71.337546,41.7955528],[-71.3377167,41.7955776],[-71.3378439,41.7955695],[-71.3378874,41.7955723],[-71.3378983,41.7956077],[-71.337869,41.7956892],[-71.3379125,41.7957246],[-71.3379736,41.7957397],[-71.3380215,41.7957364],[-71.3380687,41.7957384],[-71.3380988,41.7957516],[-71.3381506,41.7957835],[-71.3383373,41.7958177],[-71.3384135,41.795815],[-71.3385006,41.7958287],[-71.3387389,41.7959088],[-71.3388051,41.7959229],[-71.3388382,41.7959352],[-71.3388589,41.7959657],[-71.3388489,41.7960303],[-71.3390375,41.7962046],[-71.3391569,41.796338],[-71.339468,41.7964069],[-71.3395272,41.7964201],[-71.3396072,41.7963876],[-71.3397052,41.7964067],[-71.3398975,41.7965184],[-71.3399807,41.7966],[-71.3400969,41.7966329],[-71.3401332,41.7966845],[-71.3402239,41.7967445],[-71.3402092,41.7968097],[-71.3402199,41.7968559],[-71.3401762,41.7969157],[-71.3400922,41.797065],[-71.3401031,41.797095],[-71.3401611,41.7971168],[-71.3402193,41.7971142],[-71.3403211,41.7970382],[-71.3404195,41.7970193],[-71.340481,41.797033],[-71.3404955,41.7970738],[-71.340437,41.797177],[-71.3403932,41.7972775],[-71.3404,41.7974895],[-71.3403595,41.7975581],[-71.3403083,41.7976045],[-71.3402095,41.7976115],[-71.3400543,41.7975865],[-71.3398943,41.7976285],[-71.3398423,41.7977481],[-71.3398843,41.7978643],[-71.3399876,41.7979489],[-71.3399873,41.798058],[-71.3399871,41.7981425],[-71.3400434,41.7982164],[-71.3401374,41.7982483],[-71.3404807,41.7982734],[-71.3405982,41.7982911],[-71.3407063,41.7983124],[-71.3407766,41.7984005],[-71.3407809,41.7986047],[-71.3408087,41.798742],[-71.3409728,41.7989464],[-71.34101,41.7991259],[-71.3410896,41.799295],[-71.34113,41.7995912],[-71.3412013,41.7997739],[-71.3411777,41.7998407],[-71.3410646,41.7998651],[-71.3409046,41.7999107],[-71.3408007,41.8000231],[-71.3407436,41.8003294],[-71.340635,41.8005263],[-71.3406856,41.8005937],[-71.3406958,41.8006425],[-71.3406824,41.8006837],[-71.3406203,41.8007586],[-71.3405964,41.8008994],[-71.3406574,41.8009417],[-71.3408077,41.801051],[-71.3408122,41.8010967],[-71.3407603,41.8011601],[-71.3406804,41.8011951],[-71.3406425,41.8012584],[-71.340661,41.801364],[-71.340703,41.8015154],[-71.340745,41.8016739],[-71.340721,41.8018146],[-71.3406124,41.8020116],[-71.3404286,41.8021873],[-71.3403483,41.8022823],[-71.3403387,41.8023842],[-71.3404465,41.8025076],[-71.3405406,41.8025359],[-71.3405968,41.8026064],[-71.3405164,41.8027471],[-71.340488,41.8028457],[-71.34045,41.8029441],[-71.3405345,41.8030956],[-71.3405343,41.8031554],[-71.3405106,41.8032258],[-71.340421,41.8033349],[-71.3401927,41.8036771],[-71.3401935,41.8037498],[-71.3401846,41.8037991],[-71.3401496,41.8038265],[-71.3401091,41.8038482],[-71.3400573,41.8038869],[-71.3399774,41.8038832],[-71.3399067,41.8039043],[-71.3398689,41.8040274],[-71.3397578,41.8043296],[-71.3395637,41.8046366],[-71.3395275,41.8046938],[-71.3394908,41.8047519],[-71.3393724,41.8050193],[-71.3392716,41.8051055],[-71.3392309,41.8051599],[-71.3392181,41.8052407],[-71.3392303,41.8054133],[-71.3391215,41.8056455],[-71.3390882,41.8057827],[-71.3391021,41.8058355],[-71.3391632,41.8058919],[-71.3392995,41.8059237],[-71.3393745,41.8060541],[-71.3393849,41.8061276],[-71.3394119,41.8061668],[-71.3394552,41.8061994],[-71.3395104,41.8062127],[-71.3396398,41.8062898],[-71.3396749,41.8063397],[-71.3396483,41.8063935],[-71.3395332,41.8065224],[-71.3395082,41.8065689],[-71.3394198,41.8067335],[-71.3393581,41.8069587],[-71.3394517,41.8071207],[-71.3394277,41.8073284],[-71.3392199,41.8076695],[-71.3392429,41.8078562],[-71.3391862,41.807944],[-71.3391955,41.8079898],[-71.3392144,41.8080179],[-71.3393412,41.8080428],[-71.3393788,41.808078],[-71.3393834,41.8081097],[-71.3392993,41.8082136],[-71.3392871,41.8082439],[-71.3392808,41.8082702],[-71.3392807,41.8082973],[-71.3392835,41.8083245],[-71.3392881,41.8083507],[-71.3392932,41.8083835],[-71.3392966,41.8084148],[-71.3392981,41.8084484],[-71.3392976,41.8084722],[-71.3475459,41.8232462],[-71.3451984,41.8276768],[-71.3354167,41.8356453],[-71.3425502,41.8446565],[-71.3345772,41.8614717],[-71.3340402,41.862604],[-71.3378154,41.8731862],[-71.3396645,41.8783687],[-71.3404633,41.8806074],[-71.3408902,41.8818039],[-71.3387869,41.8985926],[-71.3493273,41.8973461],[-71.3503601,41.897224],[-71.3508339,41.897168],[-71.3542493,41.8967641],[-71.3547739,41.8967021],[-71.3561243,41.8965424],[-71.3604287,41.8960333],[-71.3608726,41.8959808],[-71.3612565,41.8959354],[-71.3624294,41.8957967],[-71.3637623,41.8956391],[-71.3649456,41.8954992],[-71.381463,41.8935458],[-71.3814503,41.9051649],[-71.3814498,41.9056546],[-71.3814398,41.9148205],[-71.3814326,41.9214669],[-71.3814309,41.9230103],[-71.3814293,41.9245213],[-71.3814101,41.9422246],[-71.3814042,41.9476863],[-71.3813636,41.9850832],[-71.3813327,42.013737],[-71.3813318,42.0145822],[-71.3813271,42.0189359],[-71.4567437,42.0178717],[-71.4576037,42.0178595],[-71.4580071,42.0178538],[-71.458092,42.0178526],[-71.4581162,42.0178523],[-71.4602899,42.0178209],[-71.4616429,42.0178014],[-71.4653364,42.017748],[-71.4671567,42.0177217],[-71.4731956,42.0176344],[-71.4838861,42.0174799],[-71.4914072,42.0173712],[-71.4915515,42.0173691],[-71.4944115,42.0173278],[-71.4982567,42.0172722],[-71.4994255,42.0171858],[-71.4997501,42.0171618],[-71.5019778,42.0169971],[-71.510026,42.0164021],[-71.5115968,42.016286],[-71.5131966,42.0161677],[-71.5276898,42.0150962],[-71.5278436,42.0150848],[-71.5280454,42.0150792],[-71.5286713,42.0150663],[-71.5288863,42.0150619],[-71.5290837,42.0150578],[-71.5291061,42.0150569],[-71.5531017,42.0144726],[-71.559439,42.014342],[-71.5636582,42.0142771],[-71.5662468,42.0142176],[-71.5769152,42.0139724],[-71.5780329,42.0139467],[-71.5783922,42.0139384],[-71.5829622,42.0138334],[-71.5905487,42.013659],[-71.5911036,42.0136462],[-71.6053207,42.0133131],[-71.6067008,42.0132805],[-71.6808666,42.0115301],[-71.771427,42.009481],[-71.771648,42.009471],[-71.777942,42.009148],[-71.780163,42.009032],[-71.782848,42.008894],[-71.783159,42.008878],[-71.783771,42.008847],[-71.787128,42.008674],[-71.787291,42.008667],[-71.787824,42.008638],[-71.790239,42.008514],[-71.799188,42.008053],[-71.7991918,42.0059979],[-71.799195,42.004218],[-71.799192,42.004051],[-71.799108,42.000097],[-71.798815,41.989097],[-71.7987974,41.9877637],[-71.7987706,41.9857268],[-71.798736,41.982989],[-71.798692,41.980313],[-71.798579,41.9719],[-71.79841,41.963711],[-71.7983805,41.9629842],[-71.79838,41.9629709],[-71.798379,41.962946],[-71.798342,41.962003],[-71.798313,41.961238],[-71.798317,41.961212],[-71.7983094,41.9610819],[-71.798303,41.960972],[-71.798298,41.95762],[-71.7982,41.955356],[-71.798188,41.953875],[-71.798168,41.953864],[-71.798099,41.953814],[-71.798068,41.95373],[-71.798058,41.951465],[-71.798055,41.948902],[-71.798126,41.948858],[-71.798089,41.947056],[-71.798038,41.945079],[-71.7980141,41.9415649],[-71.798014,41.941552],[-71.798005,41.941004],[-71.7979472,41.9370935],[-71.797924,41.935515],[-71.79791,41.934115],[-71.79791,41.9340324],[-71.79791,41.933133],[-71.797897,41.932617],[-71.7978941,41.9323738],[-71.797883,41.931011],[-71.797774,41.928553],[-71.7977664,41.9283794],[-71.797732,41.927592],[-71.7977292,41.9275229],[-71.797547,41.923378],[-71.797355,41.917445],[-71.7973,41.916915],[-71.797268,41.916404],[-71.797105,41.912206],[-71.7969,41.906897],[-71.7968283,41.9044546],[-71.796828,41.904446],[-71.796756,41.901955],[-71.796711,41.900416],[-71.796698,41.899921],[-71.796695,41.899822],[-71.796683,41.899377],[-71.796573,41.897195],[-71.796566,41.89714],[-71.796555,41.897066],[-71.796563,41.896967],[-71.796522,41.895288],[-71.79652,41.895252],[-71.796434,41.89172],[-71.796191,41.886142],[-71.795956,41.880622],[-71.795863,41.877688],[-71.795744,41.875097],[-71.795428,41.868618],[-71.795408,41.868192],[-71.795404,41.868109],[-71.795356,41.867126],[-71.795353,41.867074],[-71.795323,41.866465],[-71.795316,41.86632],[-71.795289,41.865771],[-71.795287,41.865748],[-71.795286,41.865713],[-71.794966,41.859972],[-71.794941,41.859475],[-71.794933,41.859334],[-71.794914,41.858966],[-71.794911,41.85891],[-71.794906,41.858805],[-71.79468,41.854409],[-71.794665,41.8540271],[-71.794524,41.850428],[-71.79448,41.849298],[-71.794477,41.849231],[-71.794474,41.849159],[-71.794471,41.849088],[-71.794463,41.848882],[-71.794237,41.843033],[-71.794229,41.842826],[-71.794179,41.841639],[-71.794177,41.841566],[-71.794173,41.841416],[-71.794121,41.841103],[-71.794115,41.840966],[-71.794121,41.840635],[-71.794134,41.840008],[-71.794117,41.839895],[-71.794077,41.83935],[-71.793796,41.832834],[-71.79379,41.832702],[-71.793689,41.830686],[-71.793615,41.829196],[-71.793532,41.827586],[-71.793478,41.82647],[-71.79344,41.825637],[-71.793343,41.822942],[-71.79331,41.8218],[-71.793315,41.821771],[-71.793302,41.821567],[-71.793296,41.821381],[-71.793284,41.821257],[-71.793265,41.82064],[-71.793161,41.817169],[-71.79316,41.817157],[-71.793144,41.816382],[-71.793143,41.816349],[-71.793101,41.814882],[-71.793097,41.814729],[-71.793114,41.814658],[-71.793127,41.814603],[-71.792894,41.812521],[-71.792867,41.810982],[-71.792855,41.81065],[-71.7928,41.809293],[-71.792804,41.809208],[-71.792593,41.804016],[-71.792364,41.800053],[-71.79236,41.799988],[-71.792135,41.795624],[-71.792124,41.795398],[-71.792079,41.795076],[-71.792076,41.79506],[-71.79207,41.794904],[-71.792058,41.794592],[-71.792006,41.793239],[-71.791919,41.790715],[-71.791911,41.79048],[-71.791936,41.789768],[-71.79194,41.789614],[-71.791927,41.78931],[-71.791921,41.789136],[-71.791573,41.781284],[-71.791477,41.779397],[-71.791372,41.777328],[-71.79137,41.777296],[-71.7912544,41.7745056],[-71.791254,41.774497],[-71.791066,41.770202],[-71.791066,41.77018],[-71.790647,41.753866],[-71.790633,41.75333],[-71.790554,41.750117],[-71.7904615,41.7492068],[-71.790327,41.747883],[-71.790323,41.747792],[-71.790314,41.747552],[-71.7903075,41.7473815],[-71.7902391,41.7455725],[-71.790195,41.744409],[-71.790103,41.742935],[-71.790089,41.740991],[-71.79009,41.740934],[-71.790094,41.740632],[-71.790071,41.74016],[-71.790055,41.739784],[-71.790016,41.738876],[-71.789902,41.735714],[-71.789871,41.734739],[-71.789861,41.734428],[-71.789768,41.731556],[-71.789729,41.727463],[-71.789711,41.727254],[-71.789709,41.726692],[-71.789704,41.725198],[-71.789704,41.72508],[-71.789703,41.724563],[-71.789675,41.72376],[-71.789592,41.721354],[-71.789565,41.720552],[-71.789563,41.720496],[-71.789557,41.72033],[-71.789534,41.719667],[-71.789527,41.719446],[-71.789476,41.717942],[-71.789323,41.713432],[-71.789274,41.711987],[-71.789272,41.711929],[-71.789244,41.711137],[-71.789163,41.708762],[-71.789136,41.707971],[-71.789128,41.70772],[-71.789063,41.707621],[-71.78907,41.707553],[-71.789078,41.707481],[-71.789117,41.7074],[-71.789069,41.705964],[-71.789032,41.704919],[-71.788923,41.701784],[-71.788887,41.700739],[-71.788804,41.698336],[-71.788718,41.695694],[-71.788715,41.695598],[-71.788714,41.695561],[-71.788692,41.694943],[-71.788685,41.694735],[-71.788663,41.694093],[-71.788598,41.692167],[-71.788579,41.691592],[-71.788577,41.691526],[-71.788575,41.691479],[-71.78854,41.690464],[-71.788432,41.687279],[-71.788397,41.686218],[-71.788381,41.685768],[-71.788346,41.684705],[-71.788336,41.684421],[-71.788321,41.683972],[-71.788225,41.681141],[-71.787938,41.672647],[-71.7878484,41.6699706],[-71.7878437,41.6698349],[-71.78781,41.669122],[-71.787712,41.667039],[-71.787682,41.66638],[-71.787681,41.666361],[-71.78768,41.666345],[-71.787643,41.665515],[-71.787534,41.663025],[-71.787498,41.662196],[-71.787444,41.660969],[-71.78743,41.66065],[-71.787288,41.65729],[-71.787239,41.656111],[-71.787247,41.656065],[-71.7872473,41.6560544],[-71.787649,41.640274],[-71.7876508,41.6402234],[-71.7876573,41.6399427],[-71.787843,41.63458],[-71.788002,41.628719],[-71.788036,41.627497],[-71.7880388,41.6273963],[-71.788108,41.62486],[-71.788127,41.624189],[-71.788144,41.623554],[-71.788195,41.621651],[-71.7882106,41.6211026],[-71.788213,41.621017],[-71.788216,41.620976],[-71.788291,41.619224],[-71.788376,41.617283],[-71.788409,41.6166467],[-71.788554,41.613848],[-71.788647,41.612057],[-71.788666,41.61166],[-71.788669,41.61162],[-71.788723,41.610471],[-71.7887346,41.6102286],[-71.788742,41.610075],[-71.7887428,41.6100575],[-71.788761,41.609665],[-71.788776,41.609352],[-71.788803,41.608763],[-71.788853,41.607713],[-71.788856,41.60766],[-71.788902,41.607316],[-71.788994,41.604832],[-71.7890386,41.6036617],[-71.789044,41.603521],[-71.789084,41.602186],[-71.7891735,41.5992492],[-71.789206,41.598181],[-71.7892428,41.5969835],[-71.789247,41.596847],[-71.789291,41.596343],[-71.789417,41.594926],[-71.789424,41.594832],[-71.789462,41.594328],[-71.78948,41.593884],[-71.789501,41.593403],[-71.789536,41.592554],[-71.789555,41.592111],[-71.789575,41.591634],[-71.789602,41.590996],[-71.789635,41.590203],[-71.789656,41.589727],[-71.789688,41.588982],[-71.789706,41.588594],[-71.789708,41.588557],[-71.789788,41.586748],[-71.789821,41.586004],[-71.789845,41.585445],[-71.789867,41.584965],[-71.789879,41.584685],[-71.789905,41.584093],[-71.789919,41.583771],[-71.7899356,41.5833984],[-71.789937,41.583366],[-71.789944,41.583213],[-71.789952,41.583036],[-71.789975,41.582507],[-71.789984,41.582331],[-71.789986,41.582279],[-71.789992,41.582122],[-71.789995,41.582071],[-71.790235,41.576608],[-71.7902364,41.5765761],[-71.790428,41.572105],[-71.79043,41.572069],[-71.79046,41.571069],[-71.7904667,41.570881],[-71.790495,41.569918],[-71.790696,41.566289],[-71.790691,41.566242],[-71.790682,41.566149],[-71.790672,41.566058],[-71.790783,41.5642],[-71.790777,41.564073],[-71.790813,41.563371],[-71.790875,41.5625366],[-71.790884,41.562416],[-71.790956,41.561843],[-71.790978,41.561551],[-71.790972,41.561451],[-71.7909759,41.5610735],[-71.7909784,41.5608391],[-71.7909802,41.5606814],[-71.7909848,41.5602895],[-71.7909929,41.5595969],[-71.7909936,41.559539],[-71.791033,41.556177],[-71.791129,41.55326],[-71.791133,41.5531557],[-71.791221,41.550737],[-71.79142,41.545637],[-71.7914201,41.5456336],[-71.791583,41.541481],[-71.7916437,41.5399525],[-71.791936,41.533308],[-71.792053,41.530457],[-71.7921985,41.5269637],[-71.7922041,41.5268277],[-71.792373,41.523247],[-71.792485,41.519772],[-71.792761,41.514078],[-71.792994,41.508777],[-71.7930343,41.5079919],[-71.793046,41.507764],[-71.79315,41.505747],[-71.793222,41.505439],[-71.793416,41.500958],[-71.793533,41.498506],[-71.7935847,41.4974508],[-71.79366,41.495921],[-71.7936733,41.4956447],[-71.793698,41.495131],[-71.7936993,41.4951044],[-71.793963,41.489734],[-71.7939657,41.4896774],[-71.794052,41.487902],[-71.794147,41.486219],[-71.7941478,41.4862048],[-71.79427,41.484049],[-71.7942735,41.4839868],[-71.794717,41.47618],[-71.794778,41.475093],[-71.794963,41.471834],[-71.795025,41.470748],[-71.795103,41.469386],[-71.795337,41.4653],[-71.795415,41.463938],[-71.795461,41.463147],[-71.7956,41.460774],[-71.795647,41.459984],[-71.79584,41.457458],[-71.796296,41.451516],[-71.796363,41.44988],[-71.796388,41.449255],[-71.796468,41.44735],[-71.796503,41.446497],[-71.796609,41.443938],[-71.796645,41.443086],[-71.796649,41.442967],[-71.796664,41.442612],[-71.796669,41.442494],[-71.79667,41.442474],[-71.796671,41.442435],[-71.796678,41.44226],[-71.796681,41.442202],[-71.796684,41.442115],[-71.796695,41.441858],[-71.796699,41.441772],[-71.796699,41.441747],[-71.796702,41.441672],[-71.796703,41.441648],[-71.796708,41.441521],[-71.796724,41.441144],[-71.79673,41.441018],[-71.79673,41.441007],[-71.796731,41.440974],[-71.796732,41.440964],[-71.796737,41.440838],[-71.796752,41.440464],[-71.796758,41.440339],[-71.796759,41.440295],[-71.796765,41.440166],[-71.796767,41.440124],[-71.796778,41.43984],[-71.796813,41.438988],[-71.796825,41.438705],[-71.796872,41.437587],[-71.79688,41.437294],[-71.796902,41.436484],[-71.79691,41.436151],[-71.796938,41.435154],[-71.796948,41.434822],[-71.796971,41.433957],[-71.796979,41.433703],[-71.797076,41.431364],[-71.797112,41.4305],[-71.797134,41.429982],[-71.797147,41.429679],[-71.797253,41.427219],[-71.797286,41.426463],[-71.797287,41.426399],[-71.797287,41.426376],[-71.797296,41.426199],[-71.797326,41.425602],[-71.797337,41.425403],[-71.797349,41.425147],[-71.79736,41.424919],[-71.797361,41.424895],[-71.79738,41.424511],[-71.797386,41.424382],[-71.797398,41.424127],[-71.797462,41.422783],[-71.797655,41.418751],[-71.797716,41.4175],[-71.79772,41.417408],[-71.797723,41.417336],[-71.797738,41.417018],[-71.797742,41.416944],[-71.797744,41.41691],[-71.797747,41.416834],[-71.797745,41.416727],[-71.7981989,41.4166782],[-71.7986053,41.4164196],[-71.799268,41.415971],[-71.8000489,41.4156588],[-71.8008635,41.4154877],[-71.8011719,41.4155011],[-71.8016068,41.4155799],[-71.8022538,41.4162817],[-71.8024338,41.4165196],[-71.8031208,41.4172887],[-71.8033174,41.4173926],[-71.8035932,41.4174025],[-71.8042375,41.4172962],[-71.804671,41.4171998],[-71.8054096,41.4169276],[-71.805823,41.4167877],[-71.8063095,41.4166819],[-71.8068464,41.4166346],[-71.8072044,41.4167613],[-71.8073758,41.4168558],[-71.8078799,41.4172338],[-71.8084446,41.4175439],[-71.8087017,41.4176478],[-71.8096192,41.4180864],[-71.8104713,41.4184739],[-71.8112124,41.4189162],[-71.8123921,41.4192111],[-71.8131584,41.4193245],[-71.8148473,41.4195287],[-71.8161329,41.419782],[-71.8170264,41.4199192],[-71.8187825,41.4197787],[-71.8199803,41.4195595],[-71.8207645,41.4192013],[-71.8211761,41.4188389],[-71.8219117,41.4181912],[-71.8230566,41.4177527],[-71.8238517,41.4170841],[-71.824265,41.416289],[-71.8243459,41.4156381],[-71.8246905,41.4151422],[-71.8248583,41.4150312],[-71.8253329,41.4147172],[-71.8266822,41.4146031],[-71.8275022,41.414539],[-71.8280654,41.4143572],[-71.8299619,41.4135605],[-71.8320367,41.4126194],[-71.8344109,41.4115286],[-71.8349437,41.4117183],[-71.8355374,41.4120045],[-71.8363359,41.4122719],[-71.8374767,41.4122505],[-71.8381896,41.4123868],[-71.8388741,41.4125151],[-71.8395871,41.4123761],[-71.8403714,41.4116676],[-71.840849,41.4112211],[-71.8419613,41.4108228],[-71.8423606,41.410526],[-71.8426279,41.4100795],[-71.842685,41.4095876],[-71.8426279,41.4090475],[-71.8423926,41.4085208],[-71.8423793,41.4084014],[-71.8423763,41.4081968],[-71.8424448,41.4079336],[-71.8426671,41.4076358],[-71.843045,41.4070556],[-71.8432767,41.4063764],[-71.8433942,41.4059394],[-71.8434017,41.4059114],[-71.843539,41.4054029],[-71.843333,41.4050681],[-71.8430841,41.4044565],[-71.8426893,41.404096],[-71.8420456,41.4036389],[-71.8416851,41.4032333],[-71.8414973,41.4029657],[-71.8414276,41.4028664],[-71.8413675,41.4023899],[-71.8414104,41.4017719],[-71.8413417,41.4014049],[-71.8411529,41.4009864],[-71.8410671,41.4005293],[-71.8411443,41.3998726],[-71.8412645,41.3991387],[-71.841522,41.3985335],[-71.8419597,41.3978767],[-71.8422258,41.3972973],[-71.842449,41.3965761],[-71.8424747,41.395752],[-71.8422859,41.3951017],[-71.8420198,41.3947798],[-71.8413573,41.3944176],[-71.8406379,41.3936566],[-71.8400886,41.3926356],[-71.8395479,41.3919595],[-71.8387419,41.391057],[-71.8383429,41.3907064],[-71.8379614,41.3905487],[-71.8367018,41.3902124],[-71.8361221,41.3899953],[-71.8356775,41.3898047],[-71.835384,41.389663],[-71.835348,41.389642],[-71.83524,41.389579],[-71.835204,41.389558],[-71.834557,41.389181],[-71.834332,41.388981],[-71.833675,41.388396],[-71.83313,41.387839],[-71.832655,41.387156],[-71.8326,41.386501],[-71.832591,41.386385],[-71.832666,41.386036],[-71.832872,41.385499],[-71.832882,41.385471],[-71.832913,41.385391],[-71.832924,41.385364],[-71.832958,41.385275],[-71.832955,41.385257],[-71.83297,41.385242],[-71.833166,41.384731],[-71.833395,41.38383],[-71.833449,41.383369],[-71.833465,41.383289],[-71.833481,41.383209],[-71.833492,41.383149],[-71.833527,41.382973],[-71.833539,41.382914],[-71.83355,41.382856],[-71.833553,41.382846],[-71.833545,41.382682],[-71.833543,41.382624],[-71.83354,41.38256],[-71.833531,41.382368],[-71.833529,41.382305],[-71.833527,41.382264],[-71.833517,41.382244],[-71.833431,41.382075],[-71.833403,41.382019],[-71.83336,41.381935],[-71.833232,41.381686],[-71.833168,41.381619],[-71.833103,41.381551],[-71.83291,41.381347],[-71.832846,41.38128],[-71.832751,41.38118],[-71.832736,41.381164],[-71.832528,41.380834],[-71.832456,41.380718],[-71.832369,41.38058],[-71.832339,41.380534],[-71.832082,41.380139],[-71.831952,41.380015],[-71.831796,41.379866],[-71.831783,41.379853],[-71.831744,41.379817],[-71.831731,41.379805],[-71.831591,41.379671],[-71.831443,41.37953],[-71.831129,41.379328],[-71.830967,41.379224],[-71.830831,41.379137],[-71.830732,41.378952],[-71.830637,41.378772],[-71.830666,41.378581],[-71.830797,41.378348],[-71.831097,41.378016],[-71.831297,41.377796],[-71.831356,41.377752],[-71.831464,41.377654],[-71.832134,41.377059],[-71.8322645,41.3768011],[-71.832436,41.376462],[-71.832656,41.37585],[-71.832674,41.375621],[-71.832699,41.375309],[-71.832623,41.375151],[-71.832531,41.374963],[-71.832508,41.374893],[-71.832468,41.374768],[-71.832374,41.374476],[-71.831779,41.372628],[-71.831775,41.372615],[-71.831712,41.372417],[-71.831652,41.372226],[-71.831653,41.372088],[-71.831656,41.371683],[-71.831657,41.371472],[-71.83166,41.371258],[-71.831665,41.37123],[-71.831681,41.371152],[-71.831844,41.370344],[-71.831954,41.370109],[-71.831997,41.370017],[-71.832069,41.369863],[-71.832499,41.36944],[-71.832541,41.3694],[-71.832776,41.369169],[-71.833179,41.368895],[-71.833869,41.368427],[-71.834337,41.36811],[-71.834375,41.368083],[-71.835013,41.367647],[-71.8350209,41.3676417],[-71.835732,41.367163],[-71.836536,41.366623],[-71.836971,41.366328],[-71.837034,41.366286],[-71.837536,41.365626],[-71.837633,41.365499],[-71.837635,41.365458],[-71.837667,41.364863],[-71.837674,41.364728],[-71.837682,41.364593],[-71.837685,41.364516],[-71.837697,41.364286],[-71.837701,41.36421],[-71.837711,41.364027],[-71.837722,41.363838],[-71.837731,41.363672],[-71.837741,41.363478],[-71.837744,41.363442],[-71.837751,41.363296],[-71.837752,41.363271],[-71.837754,41.363243],[-71.837756,41.363197],[-71.837758,41.363173],[-71.837759,41.363136],[-71.837766,41.363027],[-71.837768,41.362991],[-71.837777,41.362823],[-71.8378329,41.3612637],[-71.837873,41.360145],[-71.837807,41.358994],[-71.837654,41.358324],[-71.837332,41.35691],[-71.837286,41.356708],[-71.836768,41.355103],[-71.836044,41.353988],[-71.833901,41.35277],[-71.831303,41.351295],[-71.831186,41.350903],[-71.83116,41.350818],[-71.830609,41.348989],[-71.830169,41.347526],[-71.829902,41.346636],[-71.829779,41.346229],[-71.829767,41.34612],[-71.829418,41.342916],[-71.829404,41.342788],[-71.829365,41.342432],[-71.829384,41.342413],[-71.829479,41.342326],[-71.829536,41.342272],[-71.829709,41.342111],[-71.829767,41.342058],[-71.829939,41.341898],[-71.830455,41.341418],[-71.830627,41.341258],[-71.831781,41.340183],[-71.833427,41.338653],[-71.835245,41.336961],[-71.836227,41.336048],[-71.836313,41.335967],[-71.8364,41.335887],[-71.83728,41.335068],[-71.838797,41.33417],[-71.840044,41.333432],[-71.841035,41.332845],[-71.841292,41.332694],[-71.844611,41.33073],[-71.84494,41.33061],[-71.847709,41.329604],[-71.848829,41.328291],[-71.8514036,41.3252729],[-71.851923,41.324664],[-71.854177,41.323085],[-71.854807,41.322643],[-71.856248,41.321636],[-71.857458,41.320869],[-71.8582265,41.3206775],[-71.858995,41.320518],[-71.859175,41.320485],[-71.8598378,41.3203645],[-71.861067,41.32015],[-71.864582,41.31953],[-71.865754,41.319324],[-71.8662,41.319244],[-71.866538,41.319185],[-71.867502,41.319509],[-71.867932,41.319654],[-71.869353,41.320132],[-71.873618,41.321567],[-71.874513,41.321868],[-71.875011,41.322117],[-71.876435,41.322827],[-71.878286,41.323752],[-71.880707,41.324961],[-71.882131,41.325673],[-71.883921,41.326498],[-71.889292,41.328975],[-71.891265,41.329714],[-71.891344,41.329772],[-71.891467,41.329834],[-71.891591,41.329877],[-71.89175,41.329973],[-71.891859,41.330036],[-71.892067,41.330075],[-71.8920652,41.3300487],[-71.8923111,41.3294079],[-71.893105,41.327373],[-71.893657,41.326504],[-71.894325,41.325454],[-71.898807,41.318397],[-71.900301,41.316046],[-71.901291,41.313591],[-71.901658,41.312683],[-71.905584,41.306933],[-71.907077,41.304747],[-71.907113,41.304694],[-71.907221,41.304535],[-71.907431,41.304579]]],[[[-71.678807,41.158912],[-71.678302,41.148904],[-71.676092,41.141502],[-71.672644,41.134292],[-71.668345,41.12825],[-71.665453,41.125821],[-71.657633,41.119875],[-71.649849,41.114143],[-71.640344,41.108433],[-71.630301,41.103455],[-71.624501,41.100979],[-71.618861,41.099091],[-71.611673,41.097413],[-71.601864,41.096619],[-71.593513,41.095834],[-71.584086,41.096342],[-71.5693,41.097182],[-71.565311,41.09779],[-71.55316,41.100079],[-71.543771,41.100817],[-71.535841,41.101664],[-71.528168,41.103114],[-71.517538,41.107077],[-71.508093,41.111615],[-71.501887,41.115541],[-71.499496,41.117492],[-71.494679,41.122192],[-71.491432,41.125104],[-71.488273,41.130541],[-71.48403,41.139232],[-71.479562,41.148055],[-71.477024,41.155657],[-71.476877,41.161171],[-71.476925,41.168157],[-71.478603,41.175792],[-71.480455,41.181288],[-71.482716,41.186253],[-71.484891,41.188743],[-71.489844,41.194698],[-71.485884,41.204727],[-71.485175,41.209468],[-71.484583,41.217486],[-71.486497,41.226927],[-71.489322,41.235171],[-71.492196,41.240876],[-71.496595,41.245823],[-71.499994,41.250103],[-71.51635,41.271549],[-71.535979,41.28618],[-71.557569,41.294018],[-71.570655,41.294018],[-71.591591,41.289317],[-71.609257,41.281999],[-71.624504,41.274129],[-71.634968,41.263682],[-71.640844,41.250101],[-71.642006,41.245313],[-71.642758,41.237934],[-71.643014,41.231323],[-71.649378,41.223986],[-71.653208,41.217805],[-71.654561,41.215465],[-71.663768,41.206605],[-71.667858,41.200626],[-71.670491,41.194503],[-71.672814,41.18465],[-71.673808,41.17885],[-71.676264,41.168864],[-71.678807,41.158912]]]]}}]}