{"type":"FeatureCollection","licence":"Data © OpenStreetMap contributors, ODbL 1.0. http://osm.org/copyright","features":[{"type":"Feature","properties":{"place_id":331118573,"osm_type":"relation","osm_id":161993,"place_rank":8,"category":"boundary","type":"administrative","importance":0.752582972357541,"addresstype":"state","name":"Utah","display_name":"Utah, United States"},"bbox":[-114.0528506,36.9978085,-109.0415767,42.0019504],"geometry":{"type":"Polygon","coordinates":[[[-114.0528506,37.5697756],[-114.0528195,37.5313416],[-114.052685,37.5025759],[-114.052696,37.4916744],[-114.0527932,37.472384],[-114.0526773,37.4663382],[-114.0526606,37.4314556],[-114.0519445,37.4182192],[-114.051943,37.4180754],[-114.0518989,37.4041791],[-114.051863,37.360529],[-114.0518372,37.3569638],[-114.0518188,37.3556298],[-114.0518,37.293548],[-114.0518,37.293044],[-114.0516938,37.2275453],[-114.0515831,37.0876306],[-114.0508846,37.0753239],[-114.0509424,37.0728128],[-114.0501375,36.9997794],[-113.9161127,37.0001099],[-113.8980139,37.0001545],[-113.7611609,37.0001159],[-113.6243348,36.9999916],[-113.6224854,36.9999763],[-113.6223661,36.9999753],[-113.5602496,36.9998465],[-113.4948531,36.999974],[-113.4846422,36.9999869],[-113.4844512,36.9999871],[-113.483817,36.9999879],[-113.4836612,36.9999881],[-113.3718254,37.0001295],[-113.246517,37.0001555],[-113.1212086,37.0001814],[-113.0798937,37.0001914],[-113.0523419,37.000165],[-113.0162533,37.0001304],[-113.0100788,37.0001108],[-112.9596003,37.0002067],[-112.9559888,37.000224],[-112.9533878,37.000228],[-112.9531727,37.0002505],[-112.9101648,37.000319],[-112.910029,37.0003194],[-112.9086717,37.0003243],[-112.8992013,37.0003051],[-112.8730902,37.0005344],[-112.8632955,37.0005292],[-112.8294957,37.0005155],[-112.7244271,37.0005896],[-112.6287721,37.0006151],[-112.5659826,37.0006843],[-112.558974,37.000692],[-112.5482501,37.0008114],[-112.547947,37.0008206],[-112.5450941,37.00079],[-112.5405362,37.000757],[-112.5393266,37.0007576],[-112.5384433,37.0007614],[-112.5370112,37.000762],[-112.5345269,37.0007719],[-112.5299556,37.0007351],[-112.5297831,37.0007357],[-112.5295238,37.0007366],[-112.5042465,37.0008269],[-112.5025868,37.0008287],[-112.4933538,37.0008388],[-112.4842636,37.0008488],[-112.461278,37.0008794],[-112.3752224,37.0011083],[-112.368946,37.001125],[-112.35769,37.001025],[-112.1959852,37.0011261],[-112.0324977,37.001096],[-112.0321639,37.001096],[-112.0291632,37.0010977],[-112.0016333,37.0009702],[-111.987157,37.0009791],[-111.9595591,37.0010302],[-111.9042616,37.0011264],[-111.8928232,37.0011462],[-111.8829929,37.0011626],[-111.8525554,37.0010878],[-111.8390365,37.0011115],[-111.8354589,37.0011188],[-111.7499959,37.0012368],[-111.6942448,37.0013403],[-111.572843,37.001401],[-111.5092912,37.0014606],[-111.4904246,37.0014783],[-111.4129216,37.0016531],[-111.4058722,37.0016629],[-111.3542157,37.001269],[-111.278677,37.0006475],[-111.260046,37.0012886],[-111.2254633,37.0011437],[-111.1804877,37.0009241],[-111.1566211,37.0008127],[-111.1356165,37.0008661],[-111.133022,37.0009192],[-111.0906004,37.0020194],[-111.066496,37.002389],[-111.0602262,37.002405],[-111.0231673,37.002482],[-111.011866,37.0024214],[-111.0006482,37.0023474],[-110.9444757,37.0024379],[-110.9332164,37.0024734],[-110.9220197,37.0024416],[-110.9109779,37.0024066],[-110.8994791,37.0023702],[-110.8294795,37.0023132],[-110.8087915,37.0025802],[-110.7506454,37.0030293],[-110.7020616,37.0034009],[-110.6256846,37.0036632],[-110.5980582,37.0037564],[-110.5567449,37.0038722],[-110.50069,37.003823],[-110.4905754,37.0038402],[-110.4773355,37.0000165],[-110.4689455,36.9978085],[-110.2759111,36.9982591],[-110.1766451,36.9983929],[-110.1756903,36.9983942],[-110.175347,36.9983947],[-110.1467008,36.9984333],[-110.021778,36.998602],[-110.0010695,36.998502],[-110.000677,36.997968],[-109.9338529,36.9982545],[-109.8910214,36.9984382],[-109.875673,36.998504],[-109.7789112,36.9984281],[-109.6992722,36.9983657],[-109.625668,36.998308],[-109.495338,36.999105],[-109.4715629,36.999114],[-109.3825545,36.9991475],[-109.381226,36.999148],[-109.378039,36.999135],[-109.3407623,36.9991802],[-109.3196101,36.9992059],[-109.270097,36.999266],[-109.268213,36.999242],[-109.26339,36.999263],[-109.246917,36.999346],[-109.181196,36.999271],[-109.0454748,36.9989819],[-109.0454077,36.9989819],[-109.0453879,36.9989827],[-109.045182,36.9989819],[-109.0451827,36.9990403],[-109.0451831,36.9991493],[-109.0451822,36.9991578],[-109.0451852,36.9994243],[-109.0451847,36.9995303],[-109.0451851,36.9995426],[-109.0450672,37.0226846],[-109.0451972,37.0459483],[-109.0450922,37.0590443],[-109.0452295,37.0721578],[-109.0452045,37.084837],[-109.0451135,37.0975338],[-109.0450448,37.1120392],[-109.0452214,37.1322103],[-109.0453018,37.1397243],[-109.045403,37.1502141],[-109.0457675,37.1792994],[-109.0459268,37.2005419],[-109.0455805,37.2078218],[-109.0453338,37.213941],[-109.0453943,37.2164073],[-109.0453982,37.2186166],[-109.0454106,37.2222617],[-109.0454374,37.2307802],[-109.0454944,37.2404145],[-109.0455431,37.2493416],[-109.0457369,37.283895],[-109.045826,37.2983884],[-109.04582,37.3092932],[-109.0457956,37.3149395],[-109.0457772,37.3238468],[-109.0457783,37.3250957],[-109.0457768,37.3271251],[-109.0457748,37.3294336],[-109.0457735,37.3307986],[-109.0457438,37.3382497],[-109.045692,37.3489981],[-109.0456557,37.3563475],[-109.0456232,37.3599073],[-109.045376,37.3869951],[-109.0452698,37.3973738],[-109.045269,37.397424],[-109.0452489,37.3998694],[-109.0452413,37.4009983],[-109.0452409,37.4010354],[-109.0448625,37.4224397],[-109.044656,37.4339892],[-109.0443701,37.4458854],[-109.043824,37.4670896],[-109.0436173,37.4754219],[-109.0436024,37.4760559],[-109.043255,37.4846664],[-109.0433801,37.4841741],[-109.0430273,37.4969786],[-109.0429198,37.5006133],[-109.0428019,37.5047837],[-109.0427141,37.5096532],[-109.0426369,37.5139343],[-109.0425437,37.5191384],[-109.0422439,37.5303027],[-109.0421717,37.5329971],[-109.0421625,37.5333755],[-109.0420775,37.5366182],[-109.0417971,37.5474605],[-109.0415767,37.5617592],[-109.0417437,37.5688245],[-109.0419347,37.5762554],[-109.0419845,37.5893473],[-109.0419918,37.5905659],[-109.0419252,37.6028688],[-109.0419063,37.6100745],[-109.041904,37.6121488],[-109.0418973,37.6175771],[-109.0418938,37.6193902],[-109.041892,37.6207691],[-109.0418909,37.6214769],[-109.0418898,37.6221924],[-109.041885,37.6249683],[-109.0418726,37.6307989],[-109.0418743,37.6356442],[-109.0418768,37.6426652],[-109.0418782,37.6447593],[-109.0418799,37.6483876],[-109.0418806,37.6499233],[-109.0418818,37.651271],[-109.0418843,37.6535501],[-109.0418962,37.6658575],[-109.0418575,37.6857511],[-109.0419291,37.7096093],[-109.042021,37.7401564],[-109.042034,37.7495027],[-109.0419602,37.8013326],[-109.0419707,37.8164723],[-109.0419728,37.8182982],[-109.0419885,37.838105],[-109.0420043,37.8472848],[-109.0420053,37.8738187],[-109.041992,37.881083],[-109.0420083,37.9077525],[-109.0420433,37.9281963],[-109.0420607,37.9318041],[-109.0420699,37.9344879],[-109.0420835,37.9368439],[-109.0421325,37.9390495],[-109.0426499,37.9607737],[-109.0427366,37.9643985],[-109.0427718,37.9658234],[-109.0428812,37.9745462],[-109.0428963,37.9757676],[-109.0429037,37.9763945],[-109.0429065,37.9766333],[-109.0429246,37.9781692],[-109.0429406,37.9866716],[-109.0429226,37.9933479],[-109.0429116,37.9969669],[-109.0429012,37.9992952],[-109.0428766,38.0035913],[-109.042853,38.0114017],[-109.0428509,38.0180988],[-109.0428677,38.0259056],[-109.0428643,38.0295246],[-109.0428729,38.0364191],[-109.0422344,38.0510995],[-109.0421801,38.0580153],[-109.0421055,38.0652482],[-109.0421025,38.0657413],[-109.0420333,38.0729874],[-109.0419791,38.0795572],[-109.0421668,38.0838467],[-109.0424686,38.0910795],[-109.042587,38.0939007],[-109.0425897,38.0983164],[-109.0426503,38.1308479],[-109.0426228,38.1389029],[-109.0425828,38.1530266],[-109.0428365,38.1662701],[-109.0553018,38.2450018],[-109.0601879,38.2755268],[-109.0601758,38.3276056],[-109.0601715,38.3461388],[-109.0601763,38.3475366],[-109.0601665,38.3497632],[-109.0601658,38.3500089],[-109.0601657,38.3500367],[-109.0601642,38.3506272],[-109.0601607,38.3518224],[-109.0601539,38.3542688],[-109.0601466,38.3568857],[-109.0601362,38.3606311],[-109.0601638,38.3642539],[-109.0601646,38.364976],[-109.0601558,38.372226],[-109.0601516,38.3787417],[-109.0601399,38.3897241],[-109.0601399,38.3975956],[-109.0600544,38.4064565],[-109.0599688,38.4121407],[-109.0600733,38.420774],[-109.0600558,38.426591],[-109.060076,38.4462906],[-109.0601777,38.462821],[-109.0600876,38.4676292],[-109.0599349,38.4744901],[-109.0599354,38.4747471],[-109.0600032,38.4820761],[-109.0600446,38.4930564],[-109.0601189,38.5000164],[-109.0601537,38.5035072],[-109.060128,38.5106034],[-109.0600398,38.5286768],[-109.0600091,38.5353347],[-109.0600008,38.5395293],[-109.0599917,38.5467669],[-109.0599819,38.5576189],[-109.0597483,38.604679],[-109.0596971,38.6192278],[-109.059699,38.6451423],[-109.0596923,38.6516636],[-109.0597183,38.6740881],[-109.0598271,38.7155933],[-109.0590059,38.7511498],[-109.0574044,38.7968522],[-109.0559747,38.8300831],[-109.0556149,38.8387163],[-109.0552115,38.8480108],[-109.0543614,38.8679472],[-109.0541574,38.874867],[-109.0539648,38.882007],[-109.0537826,38.9024937],[-109.0537644,38.9043177],[-109.0537604,38.9047035],[-109.053751,38.9056359],[-109.053729,38.9079835],[-109.0536449,38.9153817],[-109.05358,38.9227922],[-109.0533202,38.9448605],[-109.0530837,38.9649305],[-109.0529475,38.9758062],[-109.0526727,38.9972895],[-109.0526203,39.0026546],[-109.0525658,39.0078071],[-109.0525236,39.0120042],[-109.052488,39.0151852],[-109.0524843,39.0158425],[-109.0524591,39.0182317],[-109.0524146,39.0230885],[-109.052366,39.0277313],[-109.0523426,39.0304477],[-109.0522108,39.0455384],[-109.0516893,39.1028679],[-109.0515525,39.1105772],[-109.0514856,39.1157439],[-109.0513726,39.1260958],[-109.051166,39.142603],[-109.0512452,39.1636813],[-109.0513147,39.1877616],[-109.0513022,39.1912109],[-109.0512558,39.195502],[-109.0511581,39.2065408],[-109.051157,39.2066649],[-109.0510369,39.2243055],[-109.0510326,39.2299294],[-109.0510355,39.2343934],[-109.0510326,39.2380142],[-109.0510336,39.2416298],[-109.0510519,39.2496764],[-109.0510975,39.286682],[-109.0511036,39.3076131],[-109.0511351,39.3219405],[-109.0510483,39.3284832],[-109.051026,39.3304639],[-109.0510587,39.339207],[-109.0510206,39.3511743],[-109.0506802,39.3594962],[-109.0507559,39.3650969],[-109.050828,39.3657708],[-109.0508343,39.3665569],[-109.0509882,39.3828893],[-109.0511705,39.446588],[-109.0511856,39.4619514],[-109.051222,39.4978063],[-109.0513905,39.5164752],[-109.0514442,39.57447],[-109.0513521,39.5887209],[-109.051275,39.6006589],[-109.0512078,39.6252672],[-109.0512853,39.6691716],[-109.05105,39.7497704],[-109.0510327,39.7931647],[-109.050627,39.8366103],[-109.050393,39.874184],[-109.0505365,39.9161847],[-109.0506897,39.9575871],[-109.0507738,39.9670864],[-109.0510611,39.9996816],[-109.0511059,40.0028685],[-109.0511362,40.0143809],[-109.0509661,40.0268264],[-109.0508989,40.0322329],[-109.0509572,40.0559493],[-109.0508235,40.0717486],[-109.0507894,40.0789908],[-109.0507683,40.0898449],[-109.0507927,40.0958427],[-109.0508755,40.1030644],[-109.05093,40.1115878],[-109.0509346,40.1175789],[-109.0509366,40.1188325],[-109.0509376,40.1224528],[-109.0509433,40.1248246],[-109.0509717,40.1480108],[-109.0509732,40.1574238],[-109.0510058,40.1585529],[-109.0509723,40.1610531],[-109.0509723,40.162225],[-109.0509722,40.1646879],[-109.0509524,40.1730549],[-109.0509301,40.180357],[-109.050948,40.2227784],[-109.0509801,40.2419721],[-109.050948,40.2516177],[-109.0510126,40.2735302],[-109.0509812,40.2875423],[-109.0509812,40.2991704],[-109.0509337,40.3024651],[-109.0509333,40.3025964],[-109.0509267,40.3061724],[-109.0509195,40.3097203],[-109.0508918,40.3349313],[-109.0508915,40.3356189],[-109.0508485,40.3680089],[-109.0508467,40.3693752],[-109.0508421,40.3923115],[-109.0512228,40.4433896],[-109.0510927,40.453789],[-109.0507468,40.479686],[-109.0505409,40.4941407],[-109.0504927,40.4989894],[-109.050241,40.5189757],[-109.0501358,40.5282814],[-109.0497539,40.539211],[-109.0496882,40.5411339],[-109.0488061,40.5656073],[-109.0481029,40.5791659],[-109.0480235,40.5806247],[-109.0480246,40.5809107],[-109.0479126,40.6023575],[-109.0478887,40.6175088],[-109.0481833,40.6349074],[-109.0484326,40.662604],[-109.0489946,40.684449],[-109.0489706,40.684997],[-109.0490886,40.714506],[-109.0488226,40.7469588],[-109.048708,40.7715365],[-109.0486696,40.7924767],[-109.0484617,40.8244818],[-109.0484552,40.8260818],[-109.048508,40.832084],[-109.048512,40.8321369],[-109.0486242,40.8336177],[-109.0486317,40.8337015],[-109.048641,40.8360289],[-109.0488461,40.8378265],[-109.0488469,40.8415731],[-109.0488192,40.8423686],[-109.0488091,40.8426482],[-109.0488171,40.8447559],[-109.048831,40.8480216],[-109.0488312,40.8480894],[-109.0488866,40.8619174],[-109.0488462,40.8627625],[-109.0489718,40.8733919],[-109.0489052,40.8770116],[-109.0488858,40.8841247],[-109.0488827,40.8877519],[-109.049011,40.891413],[-109.0490151,40.8915031],[-109.0490447,40.8939026],[-109.0492391,40.906239],[-109.0494474,40.931404],[-109.0494757,40.9349047],[-109.0499415,40.9949319],[-109.0499937,40.9988849],[-109.0500266,41.000694],[-109.0775746,41.0005917],[-109.0885292,41.000676],[-109.0991551,41.000745],[-109.1099351,41.0008149],[-109.1495359,41.0009239],[-109.2325056,41.00211],[-109.2499583,41.0010577],[-109.2928771,41.0006602],[-109.3356575,41.0003366],[-109.3457397,41.0002589],[-109.4717989,40.9993444],[-109.478479,40.9992831],[-109.4851593,40.9992584],[-109.4985168,40.9992036],[-109.5033195,40.9991395],[-109.6567924,40.9984211],[-109.6607883,40.9984069],[-109.6765395,40.9984483],[-109.7114943,40.9983229],[-109.7306453,40.9981581],[-109.7324574,40.998155],[-109.841947,40.9976678],[-109.9627132,40.9974957],[-110.0006947,40.9974507],[-110.0485468,40.9972614],[-110.0885439,40.9971319],[-110.1839447,40.9957715],[-110.2217532,40.9956743],[-110.274142,40.994824],[-110.2762771,40.9948223],[-110.2785935,40.9948264],[-110.2805906,40.9948304],[-110.5050803,40.9948321],[-110.5460549,40.9963441],[-110.5772439,40.9963021],[-110.5855904,40.9962906],[-110.5936357,40.9962766],[-110.623312,40.9962249],[-110.7150613,40.9963173],[-110.8185793,40.9969379],[-110.8646561,40.9971135],[-110.8646982,40.9971786],[-110.864767,40.9971579],[-110.8648945,40.9971196],[-110.8651417,40.9971216],[-110.8672317,40.9971433],[-110.871111,40.9971789],[-110.9490665,40.9976135],[-111.0059548,40.9979693],[-111.0468088,40.9978699],[-111.046673,41.1445277],[-111.046827,41.2288848],[-111.0467299,41.2517051],[-111.0461663,41.405971],[-111.0461247,41.4134742],[-111.0461116,41.4140804],[-111.0460865,41.4152428],[-111.0460298,41.4783733],[-111.0457876,41.5362735],[-111.0458143,41.5652756],[-111.0458051,41.579796],[-111.0461143,41.7247013],[-111.0462079,41.7684802],[-111.0462259,41.7772022],[-111.0462311,41.7797009],[-111.0463567,41.840591],[-111.0463192,41.8749434],[-111.0464516,41.9226439],[-111.0465551,41.9806512],[-111.0467024,41.9957775],[-111.046805,42.0016282],[-111.0605839,42.0019504],[-111.0813202,42.0015768],[-111.1210431,42.0015664],[-111.1407049,42.0015555],[-111.1581973,42.0015066],[-111.1805582,42.001533],[-111.2598816,42.0013601],[-111.3466147,42.0009016],[-111.40874,42.000642],[-111.4165615,42.0006394],[-111.4392898,42.0007016],[-111.471381,41.999739],[-111.4888189,41.9996417],[-111.507806,41.999552],[-111.7210206,41.9992963],[-111.7284698,41.9993591],[-111.7397613,41.9993553],[-111.759335,41.999157],[-111.7987298,41.9989691],[-111.8127889,41.9988563],[-111.8231118,41.9988685],[-111.8365158,41.998783],[-111.8370273,41.9987797],[-111.876491,41.998528],[-111.896293,41.998646],[-111.8966638,41.998626],[-111.9024005,41.998611],[-111.9072988,41.9985684],[-111.915078,41.9985739],[-111.9156058,41.998545],[-111.9157871,41.998611],[-111.9310319,41.998614],[-111.9335952,41.998634],[-111.9400743,41.998459],[-111.9414394,41.9984741],[-111.9449832,41.9984679],[-111.949979,41.998344],[-111.9544631,41.998297],[-111.9625593,41.998302],[-111.9694372,41.99831],[-111.9742545,41.9983174],[-112.000182,41.998357],[-112.01218,41.99835],[-112.0266349,41.9982383],[-112.0385822,41.9981162],[-112.0407002,41.9981081],[-112.0407981,41.998104],[-112.041002,41.99807],[-112.0435425,41.9980428],[-112.0623075,41.9978418],[-112.0650124,41.998026],[-112.0899353,41.997881],[-112.109444,41.997794],[-112.1280329,41.9975751],[-112.1539024,41.997244],[-112.159184,41.998382],[-112.1732143,42.0015016],[-112.1897512,42.0011348],[-112.1911136,42.0011418],[-112.1924759,42.0011488],[-112.1985131,42.0011802],[-112.1994248,42.0011761],[-112.201508,42.0011882],[-112.8328732,41.9993074],[-113.000041,41.998204],[-113.0788879,41.9975377],[-113.1418739,41.9969464],[-113.1428179,41.9969464],[-113.1546527,41.9968284],[-113.1574172,41.9967882],[-113.191768,41.9964626],[-113.8032534,41.9888339],[-114.0413718,41.9937386],[-114.0402955,40.9999938],[-114.0437874,40.7555834],[-114.0437586,40.7477143],[-114.0436126,40.7261665],[-114.0437372,40.6990726],[-114.0438121,40.689748],[-114.048378,40.118565],[-114.046647,40.0030422],[-114.046555,39.996899],[-114.0467974,39.9930995],[-114.0468303,39.9806071],[-114.0469515,39.9351528],[-114.0469906,39.9205146],[-114.0470295,39.9060943],[-114.0472451,39.7796533],[-114.0473014,39.7467068],[-114.047339,39.7246585],[-114.0472877,39.6675892],[-114.047649,39.5427421],[-114.0492759,38.949626],[-114.0492952,38.949597],[-114.0493123,38.9495688],[-114.0493364,38.9409365],[-114.0493398,38.9406471],[-114.0493449,38.9405791],[-114.0493538,38.9404615],[-114.0493404,38.9403097],[-114.0493785,38.9294359],[-114.049357,38.9292035],[-114.0493973,38.9201712],[-114.049083,38.68],[-114.049057,38.677505],[-114.0499555,38.5729326],[-114.0502198,38.2443168],[-114.0502376,38.2212875],[-114.0499781,38.1487627],[-114.0500292,38.1382291],[-114.0500306,38.1377468],[-114.050423,37.999961],[-114.049658,37.881368],[-114.049928,37.852508],[-114.049677,37.823645],[-114.048473,37.809861],[-114.049919,37.765586],[-114.0510692,37.756276],[-114.05167,37.746958],[-114.0517608,37.7462346],[-114.051728,37.7459587],[-114.0518292,37.7240178],[-114.0518721,37.6630219],[-114.0521297,37.6500259],[-114.0521932,37.6394071],[-114.0524166,37.6043749],[-114.0528241,37.5742523],[-114.0528283,37.5735259],[-114.0528506,37.5697756]]]}}]}