{"type":"FeatureCollection","licence":"Data © OpenStreetMap contributors, ODbL 1.0. http://osm.org/copyright","features":[{"type":"Feature","properties":{"place_id":326277445,"osm_type":"relation","osm_id":165479,"place_rank":8,"category":"boundary","type":"administrative","importance":0.7636665168418444,"addresstype":"state","name":"Washington","display_name":"Washington, United States"},"bbox":[-124.8360916,45.5437331,-116.9159938,49.0024392],"geometry":{"type":"Polygon","coordinates":[[[-124.8360916,48.1761173],[-124.8208289,48.1583262],[-124.8144471,48.1532429],[-124.7994182,48.1344521],[-124.7872551,48.1238713],[-124.7702208,48.1135585],[-124.7597801,48.1032264],[-124.7620972,48.0841784],[-124.7644651,48.0813636],[-124.7660101,48.0780951],[-124.7677267,48.0745396],[-124.7682963,48.0706295],[-124.7673834,48.0675999],[-124.7656668,48.0648467],[-124.7609943,48.0600424],[-124.7824257,48.0331899],[-124.7851156,48.0298186],[-124.7924224,48.0032706],[-124.7946715,47.989148],[-124.7887341,47.9742398],[-124.7929717,47.9634354],[-124.7854186,47.9567681],[-124.7739172,47.949985],[-124.7701407,47.9479154],[-124.7639609,47.9458457],[-124.7624159,47.9403262],[-124.7596694,47.9333109],[-124.7584677,47.9249143],[-124.7562361,47.9176669],[-124.7541762,47.9131799],[-124.7497452,47.9066643],[-124.7458073,47.902649],[-124.7358406,47.8955012],[-124.7304869,47.892005],[-124.7250259,47.8897461],[-124.7202194,47.8874438],[-124.7179878,47.8843356],[-124.7157562,47.8812273],[-124.7135246,47.8790398],[-124.7116364,47.8770825],[-124.7116042,47.8770249],[-124.7098768,47.8718219],[-124.7078169,47.8669854],[-124.7048986,47.8616878],[-124.7009504,47.8562745],[-124.6937407,47.848787],[-124.6879042,47.8436027],[-124.6803511,47.8389941],[-124.6703947,47.834385],[-124.660095,47.8309279],[-124.6534002,47.8294298],[-124.6473921,47.8268943],[-124.6437872,47.8252808],[-124.6367491,47.8232062],[-124.6353758,47.8200942],[-124.6315992,47.8154835],[-124.627136,47.8111029],[-124.6247328,47.8053383],[-124.6221579,47.800611],[-124.6188963,47.7958832],[-124.6156347,47.7925388],[-124.6094549,47.7871183],[-124.6044767,47.7837734],[-124.5984686,47.7804283],[-124.5921171,47.7778905],[-124.584049,47.7709686],[-124.5768393,47.7669304],[-124.5742643,47.7606994],[-124.5715178,47.7553909],[-124.5670546,47.7493894],[-124.5596731,47.7423482],[-124.5543516,47.7387696],[-124.5505751,47.7327661],[-124.5452536,47.7275703],[-124.541477,47.7241061],[-124.5363272,47.7204107],[-124.541477,47.7154446],[-124.5473135,47.709785],[-124.5552099,47.6989261],[-124.5600594,47.6933658],[-124.5629776,47.6879349],[-124.5660675,47.6784583],[-124.5664108,47.6680553],[-124.562291,47.657072],[-124.5588577,47.6512904],[-124.5525063,47.6438891],[-124.5416916,47.6355613],[-124.538787,47.6340444],[-124.5279587,47.6283891],[-124.518689,47.6248026],[-124.5063293,47.6217944],[-124.4944847,47.6201745],[-124.4848717,47.6201745],[-124.4714821,47.6212159],[-124.4603241,47.623877],[-124.4580925,47.6160089],[-124.4548309,47.6083711],[-124.4550026,47.6021211],[-124.453801,47.59506],[-124.4519127,47.5893874],[-124.4486511,47.582093],[-124.4429863,47.5746819],[-124.4366348,47.5692386],[-124.432515,47.550009],[-124.4297684,47.533554],[-124.4254768,47.5117605],[-124.4232452,47.502368],[-124.4222153,47.4970332],[-124.4344032,47.4940177],[-124.4428146,47.490654],[-124.4525993,47.485782],[-124.4604958,47.4804456],[-124.4656456,47.4755727],[-124.4719971,47.4673341],[-124.4757736,47.4601389],[-124.4781769,47.4499245],[-124.4768036,47.4390116],[-124.473027,47.429606],[-124.4682205,47.4231024],[-124.4613541,47.4165981],[-124.4524277,47.4105575],[-124.4407547,47.4047487],[-124.4412697,47.3971963],[-124.441098,47.3902238],[-124.4386948,47.3818557],[-124.4335449,47.3745325],[-124.4270218,47.3669757],[-124.4204987,47.3615109],[-124.4138039,47.3576736],[-124.4077957,47.3494166],[-124.4021309,47.3437173],[-124.3947495,47.3389481],[-124.3916595,47.3368542],[-124.388913,47.3312699],[-124.3854797,47.3277794],[-124.3760384,47.3190523],[-124.3659103,47.3119531],[-124.3587006,47.3089269],[-124.3602455,47.3025249],[-124.3609322,47.2971698],[-124.3600739,47.2908828],[-124.3550957,47.2785393],[-124.3487442,47.2707359],[-124.3406761,47.2638632],[-124.3334663,47.2586207],[-124.3238533,47.2537273],[-124.311322,47.2495326],[-124.2958725,47.2459202],[-124.2867744,47.2243572],[-124.2768181,47.1977703],[-124.2665184,47.1658016],[-124.2684067,47.1541294],[-124.2673767,47.1463076],[-124.2637718,47.1361493],[-124.257592,47.128792],[-124.2555321,47.1210833],[-124.2500389,47.0968987],[-124.245919,47.0717678],[-124.2445457,47.0511867],[-124.2436874,47.0307147],[-124.2438591,47.0073085],[-124.2443741,46.9867025],[-124.2462624,46.9775678],[-124.2488373,46.9670257],[-124.2514122,46.9515604],[-124.2505539,46.9478105],[-124.2539871,46.940896],[-124.2553604,46.9356217],[-124.2567337,46.927885],[-124.2550171,46.920499],[-124.2502106,46.9095939],[-124.2431725,46.9011497],[-124.2354477,46.8939946],[-124.2084275,46.8942147],[-124.1916326,46.8835494],[-124.1804067,46.8581432],[-124.171992,46.834609],[-124.1667355,46.8117037],[-124.1628753,46.7945807],[-124.1620626,46.7806742],[-124.1674077,46.7612154],[-124.1624163,46.7472071],[-124.1533073,46.7382469],[-124.1478515,46.7349591],[-124.1283483,46.7209212],[-124.1226601,46.7068755],[-124.1261283,46.6971728],[-124.1208933,46.6849594],[-124.1201938,46.6693396],[-124.1289694,46.6510759],[-124.1333544,46.642369],[-124.1315775,46.6282973],[-124.1308953,46.5979001],[-124.1258885,46.5623228],[-124.1248785,46.5493137],[-124.1231078,46.5315382],[-124.1222015,46.5236638],[-124.1207736,46.4866322],[-124.1204687,46.4570082],[-124.1224792,46.4175013],[-124.1230534,46.3946444],[-124.1251969,46.3691933],[-124.1298615,46.3403091],[-124.1367419,46.3218816],[-124.1422495,46.299618],[-124.1404592,46.2886859],[-124.1426911,46.2735137],[-124.1481348,46.2651102],[-124.1568004,46.249825],[-124.0846248,46.249825],[-124.0353859,46.2639926],[-124.0306775,46.2712151],[-124.0386224,46.2830212],[-124.036567,46.290938],[-124.0256711,46.2919814],[-124.0248704,46.2920582],[-124.0213576,46.2923965],[-124.0012864,46.2780217],[-123.9712285,46.2673276],[-123.9296137,46.2386613],[-123.8719712,46.2348292],[-123.7402993,46.2691364],[-123.6881297,46.2501093],[-123.649268,46.259082],[-123.5859891,46.2564717],[-123.5409879,46.2603883],[-123.5012649,46.2705552],[-123.4655404,46.2628054],[-123.4322602,46.2396942],[-123.4236201,46.2194165],[-123.4300355,46.1912224],[-123.4284793,46.179778],[-123.3905601,46.1501114],[-123.3629188,46.1473064],[-123.3139177,46.1423335],[-123.2643611,46.1510841],[-123.2321382,46.166501],[-123.213159,46.173008],[-123.166664,46.1889454],[-123.1209402,46.1863066],[-123.0744382,46.1609459],[-123.0574654,46.1565016],[-123.0345757,46.1438352],[-123.005686,46.1348355],[-122.9635401,46.1053969],[-122.9618776,46.104658],[-122.960215,46.103922],[-122.904294,46.08392],[-122.9029665,46.0823386],[-122.8844318,46.0602539],[-122.8777645,46.0313654],[-122.8560136,46.014352],[-122.8378457,45.9809494],[-122.8142336,45.9609497],[-122.8062329,45.9323387],[-122.811441,45.9128943],[-122.8080925,45.9058467],[-122.7988241,45.8863348],[-122.7979818,45.8845612],[-122.791498,45.8763881],[-122.7849813,45.8681723],[-122.7853622,45.8572506],[-122.7855928,45.8506356],[-122.7858142,45.8442834],[-122.7959531,45.8251722],[-122.7956751,45.8101167],[-122.769646,45.7806725],[-122.7615066,45.7593394],[-122.7601172,45.7344784],[-122.7622611,45.7286474],[-122.7723391,45.7012285],[-122.7726868,45.6980039],[-122.774561,45.6806175],[-122.7640049,45.6572705],[-122.7405789,45.6454953],[-122.7381705,45.6442846],[-122.7318893,45.642595],[-122.7144197,45.6378957],[-122.694319,45.6263319],[-122.6914703,45.6248394],[-122.6911846,45.624693],[-122.689618,45.6238735],[-122.6771745,45.6186875],[-122.6753742,45.6181564],[-122.6752243,45.6181122],[-122.6750744,45.6180681],[-122.6732744,45.6175375],[-122.6420567,45.609285],[-122.6185854,45.6085009],[-122.6071391,45.6081185],[-122.5970798,45.6065104],[-122.5901107,45.6053963],[-122.5890302,45.6051682],[-122.5510057,45.5971388],[-122.5493817,45.5967959],[-122.547887,45.5964802],[-122.5331712,45.5921959],[-122.5246087,45.5897028],[-122.4928857,45.5834533],[-122.4735795,45.5783979],[-122.4717769,45.5773905],[-122.4552602,45.5681584],[-122.453801,45.5673427],[-122.4389392,45.5634539],[-122.4170496,45.5666068],[-122.4113566,45.5674267],[-122.3917171,45.5747046],[-122.3834496,45.5754663],[-122.3801054,45.5757879],[-122.3523267,45.5692883],[-122.3388995,45.5558985],[-122.3314924,45.5485107],[-122.2966859,45.5437331],[-122.2669629,45.5439556],[-122.2492326,45.5486575],[-122.2413511,45.5507475],[-122.2007946,45.5651225],[-122.1828777,45.5767891],[-122.1416264,45.5840114],[-122.1123197,45.5813443],[-122.1017639,45.5831776],[-122.0442622,45.6095663],[-122.0209282,45.6147881],[-122.0035666,45.6159546],[-121.9830105,45.6228989],[-121.9630927,45.6328991],[-121.9557869,45.6435935],[-121.9517036,45.6448435],[-121.9449091,45.6443852],[-121.9408062,45.644324],[-121.9349422,45.6442379],[-121.9220032,45.6492253],[-121.9081473,45.6545656],[-121.9044655,45.6582933],[-121.9007806,45.6620239],[-121.9006917,45.6622906],[-121.9006028,45.6625572],[-121.9017585,45.6706766],[-121.8778954,45.6862926],[-121.8670358,45.6933977],[-121.8112019,45.7067171],[-121.7350898,45.6940087],[-121.7073117,45.694842],[-121.6684224,45.7051197],[-121.6313388,45.7047031],[-121.5342438,45.7262224],[-121.5329493,45.7265092],[-121.5223936,45.7247119],[-121.5111132,45.7227934],[-121.4991006,45.7207526],[-121.4947034,45.7184596],[-121.4931325,45.7176415],[-121.4628102,45.7012876],[-121.4411278,45.6972632],[-121.4239771,45.6940798],[-121.4017551,45.6928995],[-121.3725892,45.7030391],[-121.3377284,45.7048451],[-121.3123118,45.6998454],[-121.2873118,45.6868735],[-121.2489785,45.6777628],[-121.2157836,45.6712354],[-121.2003668,45.6498465],[-121.1951999,45.6295685],[-121.1964786,45.6165822],[-121.1837003,45.6064574],[-121.1678661,45.6060967],[-121.1455989,45.6079511],[-121.1406807,45.6112054],[-121.1394016,45.6120526],[-121.1318487,45.609761],[-121.1224239,45.6160803],[-121.1171932,45.6182067],[-121.1186295,45.6206387],[-121.1201267,45.623172],[-121.0848788,45.6479391],[-121.0644757,45.6524976],[-121.0338389,45.65097],[-121.0073854,45.6532035],[-120.9835098,45.6483647],[-120.981618,45.648712],[-120.9778346,45.649405],[-120.9531313,45.6567482],[-120.9440339,45.6563983],[-120.9141762,45.640296],[-120.9136246,45.6399984],[-120.8958379,45.6429291],[-120.870771,45.6608007],[-120.8554309,45.6717347],[-120.7885901,45.6864296],[-120.7286412,45.7053245],[-120.7041599,45.7116774],[-120.6895512,45.7157331],[-120.6692952,45.7298886],[-120.6535118,45.7371877],[-120.6350665,45.7457167],[-120.6228271,45.7462391],[-120.5911594,45.7465143],[-120.5593028,45.7383201],[-120.5227514,45.7102927],[-120.5057592,45.6999539],[-120.4826306,45.6944124],[-120.4036672,45.6994492],[-120.3263485,45.7114248],[-120.2834474,45.7211696],[-120.21079,45.7259202],[-120.1706195,45.7619845],[-120.1414965,45.7732125],[-120.0702529,45.7851606],[-120.0148552,45.8071259],[-119.9966947,45.8135132],[-119.9657892,45.8243813],[-119.9072618,45.8281812],[-119.8685204,45.8362127],[-119.8493597,45.8401846],[-119.8027222,45.8476349],[-119.7728712,45.8457323],[-119.6699902,45.8569136],[-119.6236451,45.9056082],[-119.6006777,45.9195305],[-119.5716186,45.9254834],[-119.5245363,45.9085723],[-119.488099,45.9063668],[-119.4504145,45.9173864],[-119.4319061,45.918284],[-119.3645149,45.9215525],[-119.3324554,45.9307942],[-119.3287248,45.9316581],[-119.3225912,45.9330775],[-119.2977015,45.9360414],[-119.2860788,45.9374247],[-119.2570888,45.939872],[-119.2256486,45.9328026],[-119.1955361,45.9279054],[-119.1692073,45.9277083],[-119.1263387,45.932789],[-119.0933594,45.9427064],[-119.0615137,45.9585483],[-119.0272314,45.969118],[-119.0086667,45.9792292],[-118.9872769,45.99986],[-118.949144,46.000477],[-118.935288,46.00067],[-118.8936748,46.000473],[-118.892229,46.000564],[-118.876105,46.000418],[-118.846751,46.000657],[-118.767877,46.001017],[-118.73251,46.000928],[-118.704307,46.001058],[-118.677896,46.000956],[-118.612763,46.001051],[-118.584714,46.00091],[-118.580319,46.001051],[-118.576504,46.000917],[-118.574583,46.000729],[-118.55431,46.000928],[-118.539699,46.000917],[-118.537323,46.00104],[-118.5338915,46.0010126],[-118.520135,46.000903],[-118.500236,46.001008],[-118.492759,46.000922],[-118.472545,46.000963],[-118.440922,46.000796],[-118.41533,46.000756],[-118.4119024,46.0007296],[-118.4112082,46.0007242],[-118.409418,46.0007313],[-118.408584,46.000756],[-118.403817,46.000773],[-118.3947571,46.0007538],[-118.3874581,46.0007494],[-118.3873041,46.000749],[-118.386333,46.000736],[-118.3832081,46.0006666],[-118.37418,46.00051],[-118.37151,46.000557],[-118.367519,46.000755],[-118.366534,46.000691],[-118.345709,46.000619],[-118.304356,46.000624],[-118.2890701,46.0007231],[-118.283682,46.000758],[-118.256147,46.000613],[-118.253299,46.000577],[-118.251069,46.00044],[-118.2289209,46.0004164],[-118.226074,46.000358],[-118.1801545,46.0005056],[-118.1461353,46.0006116],[-118.1382393,46.0005733],[-118.1277845,46.0006138],[-118.096798,46.00057],[-118.076836,46.000392],[-118.05721,46.000585],[-118.0456939,46.0005891],[-118.001051,46.000605],[-117.996911,46.000787],[-117.9777658,46.0007319],[-117.950206,46.000573],[-117.9290871,46.0005305],[-117.910426,46.000493],[-117.8999725,46.0004172],[-117.883934,46.000301],[-117.876035,46.000365],[-117.859587,46.000353],[-117.85433,46.000208],[-117.8420048,46.0001855],[-117.8045421,46.0001172],[-117.785217,46.000082],[-117.780436,45.999865],[-117.7800322,45.999865],[-117.7454121,45.9998672],[-117.717774,45.999869],[-117.6826393,45.9996032],[-117.626021,45.999175],[-117.6032557,45.9988882],[-117.603163,45.998887],[-117.553864,45.9984717],[-117.5463987,45.9984088],[-117.5419213,45.9983713],[-117.4798319,45.997829],[-117.475399,45.997772],[-117.475164,45.997893],[-117.439943,45.998634],[-117.390738,45.998598],[-117.3902907,45.998574],[-117.3778442,45.997905],[-117.376003,45.997806],[-117.372032,45.9975368],[-117.3543465,45.9964626],[-117.337668,45.998662],[-117.278445,45.9984515],[-117.250994,45.998354],[-117.250116,45.998421],[-117.245873,45.998438],[-117.229971,45.998395],[-117.227855,45.998441],[-117.125988,45.997783],[-117.122161,45.997564],[-117.070047,45.99751],[-117.051304,45.996849],[-117.038458,45.997161],[-116.999882,45.997074],[-116.999382,45.996974],[-116.985882,45.996974],[-116.984382,45.996874],[-116.980182,45.996874],[-116.976981,45.996674],[-116.970281,45.996774],[-116.968581,45.996674],[-116.965481,45.996674],[-116.962481,45.996474],[-116.954681,45.996474],[-116.953081,45.996374],[-116.949781,45.996374],[-116.947781,45.996274],[-116.940681,45.996274],[-116.93618,45.996074],[-116.93308,45.996075],[-116.9189852,45.9955065],[-116.9176278,45.9954494],[-116.9174895,45.9954435],[-116.9159938,45.9953489],[-116.9173692,45.9966988],[-116.918695,45.9988696],[-116.9192636,46.0006732],[-116.9187164,46.0026556],[-116.9202694,46.006644],[-116.9203826,46.0074756],[-116.9210553,46.0124176],[-116.9214308,46.0151148],[-116.922729,46.0178194],[-116.9240916,46.0193691],[-116.9264519,46.020278],[-116.9291985,46.0224534],[-116.9298422,46.0239359],[-116.9306469,46.0301262],[-116.9302929,46.0327109],[-116.9295848,46.0349156],[-116.9308722,46.036517],[-116.931355,46.039146],[-116.9323957,46.041127],[-116.9353783,46.0432346],[-116.9381678,46.0442027],[-116.9401741,46.0468835],[-116.9424379,46.0518353],[-116.9432962,46.0546572],[-116.942656,46.061],[-116.948564,46.067933],[-116.9529361,46.0712694],[-116.957372,46.075449],[-116.960416,46.076346],[-116.9630881,46.0759683],[-116.9669491,46.0764575],[-116.970009,46.076769],[-116.9719007,46.0775553],[-116.9760525,46.0790609],[-116.978938,46.080007],[-116.981962,46.084915],[-116.982479,46.089389],[-116.982498,46.091347],[-116.981747,46.092881],[-116.9805415,46.0940199],[-116.978823,46.095731],[-116.976957,46.09667],[-116.974058,46.097707],[-116.9675384,46.0983677],[-116.9618607,46.0988964],[-116.959548,46.099058],[-116.9564866,46.1013169],[-116.955263,46.102237],[-116.9547385,46.1037496],[-116.9541163,46.1059217],[-116.9529575,46.1084359],[-116.951265,46.111161],[-116.9507098,46.118116],[-116.9493151,46.1211725],[-116.950276,46.123464],[-116.948336,46.125885],[-116.9464183,46.127285],[-116.9430816,46.1292926],[-116.9398952,46.1330102],[-116.936183,46.1355826],[-116.9336939,46.1390322],[-116.9347131,46.1426673],[-116.9358397,46.1447041],[-116.9355607,46.1474544],[-116.9350994,46.151691],[-116.9346058,46.1539504],[-116.9300461,46.1572428],[-116.922648,46.160744],[-116.921258,46.164795],[-116.9214977,46.1665402],[-116.92187,46.167808],[-116.922895,46.1695507],[-116.923958,46.17092],[-116.9281578,46.1732334],[-116.931237,46.1731814],[-116.9334257,46.1738352],[-116.9369018,46.1766731],[-116.939584,46.1803281],[-116.9398737,46.1820292],[-116.941724,46.185034],[-116.9438541,46.1860255],[-116.9494653,46.1913807],[-116.952416,46.193514],[-116.9547698,46.1948897],[-116.9588016,46.1972462],[-116.962966,46.19968],[-116.965841,46.203417],[-116.9662988,46.2075025],[-116.96613,46.209453],[-116.959428,46.219812],[-116.956031,46.225976],[-116.9558482,46.2265567],[-116.955264,46.23088],[-116.9571579,46.2342923],[-116.9575334,46.2387968],[-116.958801,46.24232],[-116.964379,46.253282],[-116.966742,46.256923],[-116.970298,46.261233],[-116.972591,46.263271],[-116.9733558,46.2640195],[-116.976054,46.26601],[-116.987391,46.272865],[-116.9900135,46.2754588],[-116.9906962,46.27611],[-116.991061,46.2794988],[-116.9907921,46.280435],[-116.98491,46.289738],[-116.98463,46.292705],[-116.986688,46.296662],[-116.989794,46.299395],[-116.9971581,46.303214],[-117.0043862,46.3043413],[-117.007486,46.305302],[-117.016413,46.311236],[-117.0170183,46.3118909],[-117.020278,46.3146191],[-117.020663,46.314793],[-117.022293,46.31747],[-117.022939,46.320175],[-117.0230849,46.3234326],[-117.023424,46.326427],[-117.0234943,46.3289799],[-117.023149,46.334759],[-117.023844,46.335976],[-117.027744,46.338751],[-117.030672,46.340315],[-117.03445,46.34132],[-117.0363588,46.3415965],[-117.0453671,46.342553],[-117.051735,46.343833],[-117.055983,46.345531],[-117.0592055,46.3479096],[-117.0599829,46.3484834],[-117.060213,46.3486533],[-117.060703,46.349015],[-117.06263,46.352522],[-117.062748,46.353624],[-117.062785,46.365287],[-117.061045,46.367747],[-117.0577073,46.3711982],[-117.057516,46.371396],[-117.0541783,46.373864],[-117.0528015,46.374882],[-117.0519793,46.3757886],[-117.0512498,46.3764844],[-117.0481062,46.3788012],[-117.04195,46.39216],[-117.0410895,46.3951491],[-117.0405746,46.396222],[-117.0398235,46.3984121],[-117.0397845,46.3985412],[-117.0375942,46.4057959],[-117.0367037,46.4074227],[-117.0359686,46.4099661],[-117.0354685,46.4154735],[-117.0360707,46.4226165],[-117.0366244,46.4243541],[-117.0367658,46.424628],[-117.037431,46.4253232],[-117.039813,46.425425],[-117.0397951,46.4347227],[-117.0397833,46.4408157],[-117.0397521,46.456952],[-117.039741,46.462704],[-117.039763,46.46957],[-117.039771,46.471779],[-117.039694,46.541709],[-117.0395278,46.6207218],[-117.0394328,46.6788911],[-117.039398,46.700186],[-117.039406,46.7023259],[-117.0394662,46.7184554],[-117.039876,46.721936],[-117.039882,46.729357],[-117.0398364,46.7324614],[-117.039792,46.734782],[-117.039812,46.736728],[-117.0398337,46.7378055],[-117.0396672,46.7723402],[-117.039828,46.815443],[-117.039657,46.825798],[-117.0396829,46.8734266],[-117.0397042,46.9125352],[-117.0397046,46.9133206],[-117.0397381,46.9748931],[-117.0397625,47.0197019],[-117.0398617,47.127206],[-117.0398628,47.1283817],[-117.039836,47.154734],[-117.039765,47.2269185],[-117.0398606,47.2386348],[-117.0398689,47.2402465],[-117.0398691,47.2402767],[-117.040019,47.259272],[-117.0396807,47.3660605],[-117.0397377,47.3759998],[-117.0397654,47.3932339],[-117.039882,47.399085],[-117.0397408,47.4123684],[-117.0397995,47.4349441],[-117.039853,47.4633126],[-117.0399081,47.465483],[-117.0399203,47.4676715],[-117.039945,47.477823],[-117.040514,47.522351],[-117.0405201,47.5233828],[-117.040545,47.527562],[-117.040745,47.532909],[-117.0408787,47.5564372],[-117.0410478,47.5797676],[-117.0410107,47.5945163],[-117.0410606,47.611836],[-117.0410454,47.6249175],[-117.041431,47.67814],[-117.041431,47.678185],[-117.041431,47.68],[-117.041532,47.683194],[-117.0415601,47.6896495],[-117.0415832,47.6949667],[-117.0415845,47.69527],[-117.0415848,47.695422],[-117.0415908,47.6967101],[-117.0415934,47.697292],[-117.0415938,47.6973916],[-117.0415896,47.6977548],[-117.0415921,47.6978278],[-117.0416891,47.6995962],[-117.0417008,47.7009653],[-117.0417044,47.7010784],[-117.0417086,47.7012102],[-117.0417515,47.7016921],[-117.0417525,47.7017582],[-117.04179,47.701965],[-117.0417887,47.7023367],[-117.0417879,47.702567],[-117.0417863,47.7030087],[-117.0417832,47.7039033],[-117.0417856,47.70446],[-117.0417809,47.7045669],[-117.0417783,47.704625],[-117.0418,47.7064997],[-117.0418017,47.7065373],[-117.0417997,47.7146411],[-117.0418003,47.7148735],[-117.0418043,47.7165512],[-117.041813,47.7201597],[-117.0418175,47.7219955],[-117.0417978,47.7236192],[-117.0417088,47.7309569],[-117.0416583,47.7351195],[-117.0416591,47.7352113],[-117.0416642,47.7358305],[-117.0419599,47.7438951],[-117.042059,47.7451],[-117.042657,47.760857],[-117.042623,47.761223],[-117.042521,47.764896],[-117.042485,47.766525],[-117.042064,47.77863],[-117.041999,47.822399],[-117.0421117,47.826374],[-117.04247,47.839009],[-117.0424505,47.8615753],[-117.0424293,47.886094],[-117.0424289,47.8865928],[-117.04236,47.966343],[-117.0422111,47.9768986],[-117.0420204,48.002314],[-117.0416961,48.0455148],[-117.041401,48.0855],[-117.041107,48.124904],[-117.0408237,48.1338398],[-117.0408165,48.1340689],[-117.0397568,48.1737707],[-117.0397357,48.1747086],[-117.0397352,48.1747302],[-117.0396611,48.1780129],[-117.039498,48.1844724],[-117.0394093,48.1860223],[-117.0393733,48.1876642],[-117.0392798,48.1919273],[-117.0388831,48.2012992],[-117.0387418,48.204637],[-117.038602,48.207939],[-117.0384443,48.2154418],[-117.0383882,48.2181021],[-117.0379355,48.2387195],[-117.0379298,48.2390316],[-117.0379281,48.2391239],[-117.0379259,48.2392368],[-117.0377029,48.2507268],[-117.0375117,48.2598258],[-117.0372401,48.2723126],[-117.0351885,48.3710605],[-117.0352649,48.411566],[-117.035289,48.422732],[-117.035285,48.429816],[-117.035285,48.430113],[-117.0354089,48.4918775],[-117.0354122,48.4935404],[-117.035425,48.499914],[-117.0345944,48.6083193],[-117.034499,48.620769],[-117.034358,48.628523],[-117.033671,48.656902],[-117.0334967,48.7051802],[-117.0333352,48.7498631],[-117.033335,48.749921],[-117.033327,48.7507344],[-117.0333175,48.7517002],[-117.0333077,48.7527033],[-117.0332992,48.7535614],[-117.0332896,48.7545417],[-117.0332768,48.7558443],[-117.0332617,48.7573825],[-117.0332319,48.7604199],[-117.0331701,48.7667086],[-117.0330024,48.7837765],[-117.0329363,48.7912029],[-117.0329055,48.7946626],[-117.0328962,48.7957152],[-117.0328735,48.7982675],[-117.0328711,48.7985307],[-117.0325235,48.8375654],[-117.032497,48.840541],[-117.0324281,48.8463096],[-117.032107,48.874926],[-117.0322063,48.9256541],[-117.0322459,48.9459053],[-117.0323503,48.9991971],[-117.0726839,48.9990544],[-117.1348989,48.998805],[-117.1512325,48.9989375],[-117.1636569,48.9990297],[-117.2003281,48.9993031],[-117.2450961,48.9996133],[-117.2500072,48.9996456],[-117.2900763,48.9999095],[-117.2994277,48.9999735],[-117.3000902,48.9999792],[-117.3010953,48.9999858],[-117.3027723,48.9999967],[-117.3518095,49.0003154],[-117.3520039,49.0003167],[-117.3549372,49.0003164],[-117.3613858,49.0003189],[-117.3687711,49.0003103],[-117.3708604,49.0003159],[-117.3725121,49.0003204],[-117.375,49.0003272],[-117.3909494,49.0003703],[-117.4291892,49.0004636],[-117.4331254,49.0004709],[-117.4693565,49.0005383],[-117.4956482,49.0005873],[-117.5,49.0005954],[-117.5084611,49.0006111],[-117.5802556,49.0007017],[-117.6075126,49.0007217],[-117.6085575,49.0007224],[-117.624702,49.0007343],[-117.625,49.0007345],[-117.62759,49.0007352],[-117.6313021,49.0007363],[-117.6374936,49.0007361],[-117.6461222,49.00072],[-117.657165,49.0006994],[-117.6974658,49.0006647],[-117.7178892,49.0006303],[-117.7215846,49.0006241],[-117.7376803,49.0005969],[-117.7734322,49.0005267],[-117.7862645,49.0005185],[-117.83117,49.0004897],[-117.8315286,49.0004897],[-117.8317675,49.0004897],[-117.875,49.0004367],[-117.8941336,49.0004128],[-117.9332206,49.0003775],[-117.9360699,49.0003735],[-117.9921125,49.000295],[-118,49.0002836],[-118.0390017,49.0002275],[-118.0625256,49.0001994],[-118.0952056,49.0001575],[-118.1641911,49.0000717],[-118.1730833,49.0000689],[-118.1966538,49.0000702],[-118.1970565,49.0000702],[-118.1975386,49.0000702],[-118.2075886,49.0000708],[-118.2168063,49.000072],[-118.2237731,49.0000733],[-118.2240647,49.0000733],[-118.2244147,49.0000733],[-118.2304327,49.0000687],[-118.2478081,49.0000644],[-118.2868225,49.0000528],[-118.2978954,49.0000583],[-118.3252033,49.0000717],[-118.3772672,49.0000683],[-118.3897094,49.0000431],[-118.4228639,49.0000703],[-118.4528742,49.0000919],[-118.4669806,49.0000833],[-118.4834582,49.0000807],[-118.4939296,49.0000754],[-118.498234,49.0000746],[-118.5029688,49.0000744],[-118.5033522,49.0000744],[-118.5035553,49.0000747],[-118.5039736,49.0000764],[-118.5049441,49.0000781],[-118.5206795,49.0000743],[-118.5217523,49.0000742],[-118.5266831,49.0000742],[-118.5314834,49.000073],[-118.5511639,49.0000683],[-118.5884397,49.0000733],[-118.6008271,49.0000732],[-118.6028302,49.0000732],[-118.6149462,49.0000732],[-118.6378158,49.0000731],[-118.6658664,49.0000756],[-118.6893306,49.0000639],[-118.7065061,49.0000743],[-118.7071806,49.0000747],[-118.7218003,49.00008],[-118.7348415,49.0000812],[-118.7473253,49.0000794],[-118.750552,49.0000801],[-118.7596814,49.0000822],[-118.7611499,49.0000829],[-118.7611854,49.0000829],[-118.7698953,49.0000823],[-118.7706517,49.0000824],[-118.7733872,49.0000824],[-118.7770292,49.0000825],[-118.7874933,49.0000908],[-118.7883432,49.0000904],[-118.7938502,49.0000881],[-118.8019259,49.0000811],[-118.8032078,49.00008],[-118.8323146,49.0000837],[-118.8343478,49.0000831],[-118.8366129,49.0000786],[-118.8499013,49.0000811],[-118.8800214,49.0000775],[-118.8992983,49.0000997],[-118.9102481,49.0000886],[-118.9426554,49.0000901],[-118.9571489,49.0000917],[-118.974055,49.0000861],[-119.0098278,49.0000794],[-119.0168847,49.0000781],[-119.0471125,49.0000753],[-119.0742956,49.0000836],[-119.1013419,49.0000948],[-119.1288078,49.0000892],[-119.1575727,49.0000824],[-119.1831972,49.0001394],[-119.1960369,49.0000811],[-119.2241272,49.0000811],[-119.2656965,49.0000838],[-119.2950786,49.0000884],[-119.3113833,49.0000914],[-119.3414106,49.0000922],[-119.3822331,49.0000983],[-119.4029014,49.0000914],[-119.4282989,49.0000892],[-119.4423522,49.0000893],[-119.4600883,49.0000894],[-119.4618383,49.0000897],[-119.4624664,49.00009],[-119.4625867,49.00009],[-119.4628728,49.00009],[-119.5054942,49.0000906],[-119.5234586,49.0001069],[-119.5807661,49.0001033],[-119.626045,49.0001006],[-119.6357981,49.0001],[-119.6541819,49.0001056],[-119.6905911,49.0001078],[-119.7010358,49.0001103],[-119.7046059,49.0001067],[-119.7298504,49.0001154],[-119.7310507,49.0001146],[-119.7364516,49.0001037],[-119.7554973,49.0000801],[-119.7572764,49.0000792],[-119.7892606,49.0000314],[-119.794179,49.0000199],[-119.842869,48.999928],[-119.8792911,48.9998494],[-119.9373208,48.9996961],[-119.9453211,48.9996736],[-119.9804278,48.9995622],[-120.0025125,48.9994928],[-120.0243767,48.9994558],[-120.0243814,48.9994558],[-120.0311303,48.9994513],[-120.0372886,48.9994472],[-120.0589561,48.9995383],[-120.0845628,48.9996461],[-120.1422547,48.9998592],[-120.18184,48.9999889],[-120.2246731,49.0001186],[-120.2829042,49.000266],[-120.2834956,49.0002675],[-120.3255061,49.0003556],[-120.3475906,49.0003942],[-120.3925913,49.0004634],[-120.4025389,49.0004786],[-120.4029193,49.0004807],[-120.4294608,49.0005064],[-120.4821042,49.0005467],[-120.5249053,49.0005625],[-120.5517336,49.0005647],[-120.5556409,49.0005661],[-120.5594811,49.0005675],[-120.5967958,49.0004197],[-120.644962,49.0002117],[-120.6451799,49.0002106],[-120.6453633,49.00021],[-120.6695672,49.0000989],[-120.6845844,49.0000958],[-120.6998794,49.0001292],[-120.7616097,49.0002225],[-120.8021219,49.0002692],[-120.8513568,49.000299],[-120.8607847,49.0003047],[-120.9105522,49.000315],[-120.9543858,49.0003092],[-121.0007194,49.0002811],[-121.0194625,49.0002642],[-121.0452644,49.0002365],[-121.048465,49.0002331],[-121.0565553,49.0002244],[-121.0612456,49.0002194],[-121.0626239,49.0002164],[-121.0945122,49.0002186],[-121.0949508,49.0002194],[-121.0956214,49.0002268],[-121.1169901,49.000235],[-121.1549149,49.000444],[-121.1942542,49.0005783],[-121.2260467,49.0006893],[-121.2512064,49.0007772],[-121.2735701,49.0008366],[-121.2975881,49.0009003],[-121.3016992,49.0008944],[-121.3348472,49.0009153],[-121.3789531,49.0003203],[-121.3792772,49.0003157],[-121.4039788,48.9999666],[-121.4051086,48.9999506],[-121.4141661,48.9999458],[-121.4157644,48.999945],[-121.4450292,48.9998419],[-121.4747159,48.9997256],[-121.4748772,48.999725],[-121.4972892,48.9996331],[-121.5234814,48.9995189],[-121.5266085,48.9995139],[-121.5269925,48.9995133],[-121.5669297,48.9992714],[-121.6129781,48.9989794],[-121.6301506,48.9987767],[-121.6677764,48.9982711],[-121.7410556,48.9973042],[-121.7489953,48.9973019],[-121.7507142,48.9973014],[-121.7595589,48.9973042],[-121.7902581,48.9978066],[-121.8101272,48.9981317],[-121.8502025,48.9987715],[-121.8506311,48.9987783],[-121.9354492,49.0000889],[-121.9498038,49.0003018],[-121.9702122,49.0006045],[-121.9715717,49.0006247],[-121.9999755,49.0010479],[-122.0064433,49.0011292],[-122.0195389,49.0013186],[-122.0284725,49.0014464],[-122.0597897,49.0018906],[-122.0980519,49.0024178],[-122.1098328,49.0024289],[-122.1169024,49.0024289],[-122.1271636,49.0024289],[-122.1408139,49.0024314],[-122.1481685,49.0024314],[-122.1496288,49.0024314],[-122.1606493,49.0024202],[-122.1614839,49.0024314],[-122.1858125,49.0024339],[-122.2012103,49.0024364],[-122.2157469,49.0024392],[-122.2254137,49.0024337],[-122.2267199,49.0024329],[-122.2307806,49.0024306],[-122.2333031,49.0024306],[-122.2516218,49.0024193],[-122.2518064,49.0024192],[-122.2568386,49.0024118],[-122.2647942,49.0024],[-122.2650143,49.0023999],[-122.2652997,49.0023997],[-122.2653442,49.0023997],[-122.2695481,49.0023969],[-122.2700597,49.0023964],[-122.2717532,49.0023952],[-122.2906939,49.002382],[-122.2934933,49.00238],[-122.3192172,49.0023703],[-122.3384428,49.0023614],[-122.3511739,49.00235],[-122.3608547,49.0023444],[-122.3820968,49.0023288],[-122.3828944,49.0023272],[-122.3921753,49.0023214],[-122.4049064,49.0023158],[-122.4265711,49.0023125],[-122.4381661,49.0023064],[-122.4595455,49.0022886],[-122.4734927,49.002278],[-122.4762625,49.0022759],[-122.4788467,49.0022739],[-122.4818291,49.0022716],[-122.4842805,49.0022689],[-122.4850325,49.0022692],[-122.4969639,49.0022601],[-122.5151175,49.0022463],[-122.523765,49.0022397],[-122.5398489,49.0022275],[-122.5591022,49.0022128],[-122.5799836,49.0021969],[-122.6021428,49.00218],[-122.6252411,49.0021624],[-122.625983,49.0021618],[-122.6401194,49.0021511],[-122.6471975,49.0021457],[-122.655761,49.0021392],[-122.6690761,49.0021289],[-122.6801379,49.0021232],[-122.6911242,49.0021175],[-122.7139917,49.0021036],[-122.7201444,49.0020999],[-122.7305,49.0020936],[-122.7335235,49.002101],[-122.735095,49.0020933],[-122.7355454,49.0020925],[-122.7364089,49.0020944],[-122.7490613,49.0020886],[-122.7531099,49.0020871],[-122.7551629,49.0020864],[-122.7553044,49.0020864],[-122.7553415,49.0020864],[-122.7558906,49.0020864],[-122.7559661,49.0020862],[-122.7560346,49.0020864],[-122.7560748,49.0020865],[-122.7560957,49.0020864],[-122.7569464,49.0020864],[-122.7569902,49.0020864],[-122.7570363,49.0020864],[-122.757084,49.0020865],[-122.7571059,49.0020865],[-122.7571458,49.0020865],[-122.7572455,49.0020883],[-122.7573771,49.0020887],[-122.7574891,49.0020882],[-122.7578001,49.0020868],[-122.7579104,49.0020863],[-122.7869474,49.0020767],[-122.790302,49.0020857],[-122.807568,49.0020855],[-122.845581,49.0020846],[-122.957166,49.0020824],[-123.0189278,49.0020812],[-123.0350152,49.0020809],[-123.0351259,49.0020809],[-123.0351927,49.0020809],[-123.0352485,49.0020809],[-123.0352843,49.0020809],[-123.0353116,49.0020809],[-123.0362422,49.0020808],[-123.0379125,49.0020803],[-123.0381594,49.0020803],[-123.0508123,49.0020743],[-123.0613211,49.0020694],[-123.0631507,49.0020687],[-123.0634707,49.0020689],[-123.0677119,49.0020709],[-123.0680565,49.002071],[-123.0686678,49.0020675],[-123.0692431,49.0020672],[-123.0731395,49.0020649],[-123.0745034,49.0020641],[-123.0753056,49.0020636],[-123.076349,49.0020632],[-123.0769893,49.0020629],[-123.0801699,49.0020617],[-123.0808084,49.0020615],[-123.0888283,49.0020583],[-123.0891404,49.0020614],[-123.089352,49.0020581],[-123.0896599,49.0020581],[-123.0906981,49.0020581],[-123.0908098,49.0020578],[-123.0909651,49.0020578],[-123.3179431,49.0020714],[-123.3209222,49.0020716],[-123.3222397,49.0020717],[-123.1653702,48.916722],[-123.0085,48.8312222],[-123.0085,48.7671111],[-123.021678,48.7633993],[-123.064149,48.7514349],[-123.1009973,48.7410521],[-123.1453674,48.728547],[-123.1901842,48.7159129],[-123.2318699,48.7041586],[-123.2678889,48.694],[-123.2189444,48.5487222],[-123.2121954,48.5378541],[-123.1904001,48.5027408],[-123.1598611,48.4535],[-123.1151389,48.4228333],[-123.1688158,48.3669865],[-123.2484444,48.2840278],[-123.3125121,48.2710196],[-123.3949949,48.2542675],[-123.398768,48.253501],[-123.4022328,48.2527972],[-123.472828,48.2384548],[-123.5106584,48.2307673],[-123.5412222,48.2245556],[-123.5590978,48.2265588],[-123.6,48.2311423],[-123.619554,48.2333333],[-123.6790556,48.24],[-123.7766276,48.2566058],[-123.8279696,48.2653415],[-123.8455427,48.2683312],[-123.866937,48.2719727],[-124.0120556,48.2966667],[-124.1420361,48.3324732],[-124.2579875,48.3643939],[-124.3307864,48.384439],[-124.4373409,48.4137644],[-124.474428,48.4239673],[-124.5040012,48.4321017],[-124.5226586,48.4372311],[-124.6207887,48.464201],[-124.6369372,48.4686384],[-124.6666667,48.4768051],[-124.6806382,48.4806429],[-124.72725,48.4934444],[-124.789959,48.4180809],[-124.8125303,48.3918745],[-124.8079707,48.3817444],[-124.8022626,48.3690598],[-124.7877394,48.3544677],[-124.7671944,48.3411077],[-124.7345173,48.3181461],[-124.7501031,48.2939369],[-124.7522839,48.2789926],[-124.7679206,48.2466134],[-124.7739657,48.238092],[-124.7798469,48.2254796],[-124.8193618,48.1935819],[-124.8360916,48.1761173]]]}}]}